Landmark_Name,Landmark_Alternate_Name,BuildType,USE_ORIG,Use_Second,Use_Tertia,Borough,Neighborhood,Address,latitude,longitude,geometry,FID,OBJECTID,Block,Lot,BBL_Code,Shape_Leng,Shape_Area,URL_IMAGE
Brooklyn Bridge,"",Bridge,"Infrastructure, bridge","","","",DUMBO,"spanning the East River between Cadman Plaza, Brooklyn, and City Hall Park, Manhattan",40.70626,-73.99706,Point,679,1147,0,0,0,7121.2515,240160.92,http://www1.nyc.gov/assets/lpc/images/content/designations/0098.jpg
Public School 15 (Daniel D. Tompkins School),"",School,"Civic, school","","",Staten Island,"Stapleton, Rosebank",98 Grant Street,40.63369,-74.07836,Point,1139,3,506,81,5005060081,748.859,32265.596,http://www1.nyc.gov/assets/lpc/images/content/designations/1877.jpg
Samuel Gompers Industrial High School,"",School,"Civic, school","","",The Bronx,"Mott Haven, Port Morris",455 Southern Boulevard (aka 462 Wales Avenue),40.81048,-73.90758,Point,322,0,2576,25,2025760026,0.0,0.0,http://www1.nyc.gov/assets/lpc/images/content/designations/2666.jpg
American Tract Society Building,"",Office Building,"Commercial, office building","","",Manhattan,Civic Center,150 Nassau Street,40.711403,-74.005905,Point,754,419,100,7501,1001007501,404.77896,10217.939,http://www1.nyc.gov/assets/lpc/images/content/designations/2038.jpg
Fire Engine Company No. 31,now the Downtown Community Television Center,Fire Station,"Civic, fire station",Civic org,"",Manhattan,Civic Center,87 Lafayette Street,40.71732,-74.00115,Point,1508,373,197,1,1001970001,396.59854,9730.187,http://www1.nyc.gov/assets/lpc/images/content/designations/0087.jpg
Steinway Hall,"",Office Building,"Commercial, office building","","Commercial, Retail",Manhattan,Midtown West/Theatre District,109-113 West 57th Street,40.765003,-73.97757,Point,116,1323,1010,25,1010100025,631.3176,17515.967,http://www1.nyc.gov/assets/lpc/images/content/designations/2100.jpg
"New York Public Library, Aguilar Branch","",Library,"Civic, library","","",Manhattan,East Harlem,174 East 110th Street,40.794178,-73.94348,Point,877,543,1637,141,1016370141,311.42978,5285.7153,http://www1.nyc.gov/assets/lpc/images/content/designations/1837.jpg
Guardian Life Insurance Company of America Annex,"",Office Building,"Commercial, office building","","",Manhattan,"",105 East 17th Street,40.736492,-73.98796,Point,1318,182,873,10,1008730010,832.2399,30365.855,http://www1.nyc.gov/assets/lpc/images/content/designations/2247.jpg
Hearst Magazine Building,"",Office Building,"Commercial, office building","","",Manhattan,Midtown West,951-969 Eighth Avenue,40.766567,-73.98361,Point,1389,253,1047,7502,1010477502,829.2931,42945.68,http://www1.nyc.gov/assets/lpc/images/content/designations/1625.jpg
Oliver Street Baptist Church,now Mariners' Temple,Church,"Religious, church, Baptist",Baptist Church,"",Manhattan,Bowery,12 Oliver Street,40.712975,-73.99773,Point,1510,375,279,69,1002790069,448.59076,11602.157,http://www1.nyc.gov/assets/lpc/images/content/designations/0093.jpg
Brooklyn Trust Company Building,"",Bank,"Commercial, bank","","",Brooklyn,Brooklyn Heights,177-179 Montague Street,40.694595,-73.99206,Point,359,825,244,17,3002440017,579.684,14170.919,http://www1.nyc.gov/assets/lpc/images/content/designations/1905.jpg
St. Regis Hotel,"",Hotel,"Commercial, hotel",Hotel,"",Manhattan,Midtown/Midtown South,699-703 Fifth Avenue,40.761257,-73.97448,Point,903,569,1290,7502,1012907502,708.6843,23437.371,http://www1.nyc.gov/assets/lpc/images/content/designations/1552.jpg
Westfield Township School No. 7,later Public School 4,School,"Civic, school","","",Staten Island,"Charleston, Kreischerville, Westfield Township",4210-4212 Arthur Kill Road,40.539814,-74.23705,Point,93,1300,7315,7,0,750.3374,31601.742,http://www1.nyc.gov/assets/lpc/images/content/designations/1876.jpg
Trinity Chapel Complex,now the Serbian Orthodox Cathedral of Saint Sava and Parish House,Church,"Religious, church, Episcopal",Serbian Orthodox Church,"",Manhattan,"Hudson Yards, Chelsea, Flatiron, Union Square",15 West 25th Street,40.743736,-73.98983,Point,1495,360,827,22,1008270022,702.75037,24848.56,http://www1.nyc.gov/assets/lpc/images/content/designations/0233.jpg
Public School 102,"later Public School 17, the City Island School",School,"Civic, school","","",The Bronx,City Island,190 Fordham Street,40.847122,-73.784355,Point,502,969,5643,7501,2056437501,993.9185,43193.75,http://www1.nyc.gov/assets/lpc/images/content/designations/2487.jpg
193 Front Street Building,"",Countinghouse,"Commercial, countinghouse","Commercial, Retail","",Manhattan,South Street Seaport,193 Front Street,40.706646,-74.00394,Point,536,1003,74,1,1000740001,194.90434,1459.164,http://www1.nyc.gov/assets/lpc/images/content/designations/0057.jpg
Church of Saint Vincent Ferrer Complex,"",Church,"Religious, church, Roman Catholic","Religious, school, priory","",Manhattan,Upper East Side/Carnegie Hill,869 Lexington Avenue and 141-151 East 65th Street,40.766193,-73.96468,Point,725,1193,1400,20,1014000020,685.2318,22296.617,http://www1.nyc.gov/assets/lpc/images/content/designations/0416.jpg
"Benevolent and Protective Order of Elks, Lodge Number 878","",Club,"Institutional, private club","","",Queens,Elmhurst,82-10 Queens Boulevard,40.736973,-73.88113,Point,113,1320,2475,12,4024750012,381.46088,8694.185,http://www1.nyc.gov/assets/lpc/images/content/designations/2086.jpg
Heckscher Building (now the Crown Building),"",Commercial Building,Commercial,"","","",Midtown/Midtown South,"730 Fifth Avenue (aka 728-734 Fifth Avenue, 2-4 West 57th Street)",40.762917,-73.974556,Point,334,0,1272,7503,1012727503,0.0,0.0,http://www1.nyc.gov/assets/lpc/images/content/designations/2678.jpg
Public School 86,also known as the Irvington School,School,"Civic, school","","",Brooklyn,Bushwick,220 Irving Avenue,40.7006,-73.9178,Point,443,909,3289,27,3032890027,541.05096,18031.06,http://www1.nyc.gov/assets/lpc/images/content/designations/1808.jpg
Jackie Robinson Play Center,"",Pool,"Civic, recreation, pool","","",Manhattan,Hamilton Heights,Bradhurst Avenue between West 145th and West 153rd Streets,40.82661,-73.94113,Point,611,1079,0,0,0,5797.962,676995.44,http://www1.nyc.gov/assets/lpc/images/content/designations/2238.jpg
Pier A,"",Pier,"Infrastructure, pier","",Memorial,Manhattan,Battery Park,Battery Park,40.70441,-74.017914,Point,665,1133,16,1,1000160001,736.35474,14195.173,http://www1.nyc.gov/assets/lpc/images/content/designations/0918.jpg
Barclay-Vesey Building,"",Office Building,"Commercial, office building",Office building,"",Manhattan,Financial District,140 West Street,40.713783,-74.01294,Point,1326,190,84,1,1000840001,951.2699,52430.297,http://www1.nyc.gov/assets/lpc/images/content/designations/1745.jpg
"New York Public Library, Hunts Point Branch","",Library,"Civic, library","","",The Bronx,Hunts Point,877 Southern Boulevard,40.818695,-73.894165,Point,486,953,2722,63,2027220063,377.95203,8880.006,http://www1.nyc.gov/assets/lpc/images/content/designations/2323.jpg
Socony-Mobil Building,"",Office Building,"Commercial, office building",Office Building,"",Manhattan,Murray Hill/Kips Bay,150 East 42nd Street,40.750767,-73.97552,Point,1008,674,1296,46,1012960046,1274.6384,89727.72,http://www1.nyc.gov/assets/lpc/images/content/designations/2117.jpg
Hickson W. Field Stores,"also known as the Baker, Carver & Morrell Building",Countinghouse,"Commercial, countinghouse","Commercial, Retail","",Manhattan,South Street Seaport,170-176 John Street,40.705917,-74.00428,Point,1098,764,72,7501,1000727501,377.6685,5502.816,http://www1.nyc.gov/assets/lpc/images/content/designations/0074.jpg
Empire State Building,"",Office Building,"Commercial, office building",Offices and retail,"",Manhattan,Midtown/Midtown South,350 Fifth Avenue,40.748463,-73.98571,Point,757,422,835,41,1008350041,1421.8364,97113.734,http://www1.nyc.gov/assets/lpc/images/content/designations/2000.jpg
Cathedral Church of St. John the Divine and the Cathedral Close,"",Church,"Religious, church, Episcopal","","",Manhattan,Morningside Heights,"1047 Amsterdam Avenue (aka 1021-1061 Amsterdam Avenue and 419 West 110th Street [Cathedral Parkway]),",40.803375,-73.961945,Point,203,0,0,0,0,0.0,0.0,http://www1.nyc.gov/assets/lpc/images/content/designations/2585.jpg
The Salvation Army National and Territorial Headquarters,"",Headquarters Building,"Institutional, charitable, headquarters building","","",Manhattan,"",120-130 West 14th Street,40.737644,-73.998276,Point,205,0,609,23,1006090023,0.0,0.0,http://www1.nyc.gov/assets/lpc/images/content/designations/2565.jpg
Benjamin Franklin High School (now the Manhattan Center for Science and Mathematics),"",School,"Civic, school","","",Manhattan,East Harlem,"260 Pleasant Avenue (aka 260-300 Pleasant Avenue, 500-528 East 116th Street)",40.79415,-73.93293,Point,280,0,1713,1,1017130001,0.0,0.0,http://www1.nyc.gov/assets/lpc/images/content/designations/2596.jpg
The Arsenal,now the Administration Building of the New York City Department of Parks and Recreation,Armory,"Civic, armory","Civic, Parks Department",Police Station; Museum,Manhattan,Central Park,Central Park at East 64th Street,40.76764,-73.971306,Point,709,1177,1111,1,1011110001,532.9011,9760.327,http://www1.nyc.gov/assets/lpc/images/content/designations/0312.jpg
Sleight Family Graveyard,also known as the Rossville or Blazing Star Burial Ground,Cemetery,Cemetery,"","",Staten Island,Rossville,Arthur Kill Road at Rossville Road,40.556396,-74.21261,Point,721,1189,6169,103,5061690103,464.8961,11787.895,http://www1.nyc.gov/assets/lpc/images/content/designations/0387.jpg
Central Synagogue,(Congregation Ahavath Chesed),Synagogue,"Religious, synagogue","Religious, Synagogue","",Manhattan,Turtle Bay/East Midtown,652 Lexington Avenue,40.75959,-73.97055,Point,843,508,1309,56,1013090056,498.11014,15107.385,http://www1.nyc.gov/assets/lpc/images/content/designations/0276.jpg
Church of Saint Mary-the-Virgin Complex,"",Church,"Religious, church, Episcopal","","",Manhattan,Theatre District,133-145 West 46th Street,40.758358,-73.983604,Point,1268,132,999,12,1009990012,666.56586,22679.318,http://www1.nyc.gov/assets/lpc/images/content/designations/1562.jpg
Rezeau-Van Pelt Cemetery,"",Cemetery,Cemetery,"","",Staten Island,"Todt Hill, Emerson Hill, Hartland Village, Lighthouse Hill",Center Street,40.57083,-74.14599,Point,642,1110,4441,100,0,181.20236,2019.7394,http://www1.nyc.gov/assets/lpc/images/content/designations/0397-H.jpg
Bank of New York & Trust Company Building,"",Skyscraper,"Commercial, office building","Commercial, bank","",Manhattan,Financial District,48 Wall Street,40.706486,-74.00912,Point,947,613,40,14,1000400014,475.20413,13244.576,http://www1.nyc.gov/assets/lpc/images/content/designations/2025.jpg
B. F. Goodrich Company Building,"",Office Building,"Commercial, office building","","",Manhattan,"",1780 Broadway,40.766514,-73.98143,Point,149,1356,1029,14,1010290014,354.71777,6142.681,http://www1.nyc.gov/assets/lpc/images/content/designations/2380.jpg
Zion English Lutheran Church,now the Church of the Transfiguration,Church,"Religious, church, Lutheran",Roman Catholic Church,"",Manhattan,Lower East Side,25 Mott Street,40.714714,-73.999084,Point,813,478,164,37,1001640037,460.1375,12197.262,http://www1.nyc.gov/assets/lpc/images/content/designations/0085.jpg
General Society of Mechanics and Tradesmen,"",Club,"Institutional, private club","Institutional, library","",Manhattan,Midtown/Midtown South,20 West 44th Street,40.75513,-73.981346,Point,1484,349,1259,48,1012590048,404.96127,10242.469,http://www1.nyc.gov/assets/lpc/images/content/designations/1546.jpg
23rd Regiment Armory,"",Armory,"Civic, armory","","",Brooklyn,Crown Heights North,1322 Bedford Avenue,40.678436,-73.95383,Point,410,876,1199,15,3011990015,1356.5946,95021.414,http://www1.nyc.gov/assets/lpc/images/content/designations/0950.jpg
165 John Street Building,"",Countinghouse,"Commercial, countinghouse","Commercial, Retail","",Manhattan,South Street Seaport,165 John Street,40.706448,-74.00393,Point,549,1016,74,1,1000740001,190.57646,1566.5935,http://www1.nyc.gov/assets/lpc/images/content/designations/0071.jpg
"New York Public Library, Chatham Square Branch","",Library,"Civic, library","","",Manhattan,Lower East Side,31 East Broadway,40.71333,-73.99649,Point,1280,144,280,44,1002800044,257.19302,3924.9648,http://www1.nyc.gov/assets/lpc/images/content/designations/2098.jpg
Broadhurst Theater,"",Theater,"Commercial, theater",Theater,"",Manhattan,Theatre District,235-243 West 44th Street,40.75827,-73.987625,Point,1381,245,1016,11,1010160011,423.88647,11226.817,http://www1.nyc.gov/assets/lpc/images/content/designations/1323.jpg
Pratt Institute: Main Building Complex,"",School,"Institutional, school, university","","",Brooklyn,Clinton Hill,215 Ryerson Street,40.691357,-73.96427,Point,102,1309,1920,1,3019200001,781.94104,19371.14,http://www1.nyc.gov/assets/lpc/images/content/designations/2010.jpg
Fire Engine Company No. 47,"",Fire Station,"Civic, fire station","","",Manhattan,Morningside Heights,500 West 113th Street,40.804863,-73.96299,Point,841,506,1884,38,1018840038,251.1444,2473.3645,http://www1.nyc.gov/assets/lpc/images/content/designations/1962.jpg
"Reformed Church on Staten Island, Sunday School Building, and Cemetery","",Church,"Religious, church, Dutch Reformed","","",Staten Island,"",54 Port Richmond Avenue,40.63969,-74.13271,Point,1163,27,1073,75,5010730075,1304.0771,50540.074,http://www1.nyc.gov/assets/lpc/images/content/designations/2384.jpg
Marble Collegiate Church,"",Church,"Religious, church, Dutch Reformed","","",Manhattan,Midtown/Midtown South,272 Fifth Avenue,40.745667,-73.98709,Point,1473,338,831,33,1008310033,518.75586,16318.888,http://www1.nyc.gov/assets/lpc/images/content/designations/0234.jpg
Bowery Bank of New York Building,"",Bank,"Commercial, bank","","",Manhattan,"",124 Bowery,40.718735,-73.995056,Point,1321,185,470,64,1004700064,309.14465,5238.806,http://www1.nyc.gov/assets/lpc/images/content/designations/2518.jpg
Fort Totten Battery,"",Fort,"Civic, fort","Civic, recreational","",Queens,Fort Totten,Fort Totten Park,40.796482,-73.77923,Point,19,1226,5917,1,4059170001,995.98157,16881.846,http://www1.nyc.gov/assets/lpc/images/content/designations/0826.jpg
Engine Company No. 252,"originally Fire Engine Company 52, later Engine Company 152",Fire Station,"Civic, fire station","","",Brooklyn,Bushwick South,617 Central Avenue,40.68866,-73.90807,Point,97,1304,3429,3,3034290003,249.82362,2529.7498,http://www1.nyc.gov/assets/lpc/images/content/designations/1931.jpg
830 Broadway Building,"",Store and Lofts,"Commercial, store and lofts","","",Manhattan,Union Square South,830 Broadway Building,40.73338,-73.99079,Point,291,0,564,36,1005640036,0.0,0.0,http://www1.nyc.gov/assets/lpc/images/content/designations/2617.jpg
Gravesend Cemetery,"",Cemetery,Cemetery,"","",Brooklyn,Gravesend,Gravesend Neck Road at McDonald Avenue,40.59461,-73.974556,Point,455,921,7146,1,3071460001,1486.1545,72389.664,http://www1.nyc.gov/assets/lpc/images/content/designations/0921.jpg
"Smith, Gray & Company Building","",Store and Lofts,"Commercial, store and lofts","","",Brooklyn,Williamsburg,103 Broadway,40.710636,-73.9648,Point,466,932,2471,8,3024710008,183.59006,1697.463,http://www1.nyc.gov/assets/lpc/images/content/designations/2161.jpg
Public School 27,"also known as Saint Mary's Park School, originally Public School 154",School,"Civic, school","","",The Bronx,"Mott Haven, Port Morris",519 Saint Ann's Avenue,40.813393,-73.91387,Point,482,949,2274,23,2022740023,653.46533,25173.438,http://www1.nyc.gov/assets/lpc/images/content/designations/1895.jpg
Public School 72,"later Public School 107, now Julio de Burgos Cultural Center",School,"Civic, school","Institutional, cultural center","",Manhattan,East Harlem South,1674 Lexington Avenue,40.792007,-73.94687,Point,1119,785,1633,13,1016330013,691.579,25321.215,http://www1.nyc.gov/assets/lpc/images/content/designations/1836.jpg
97 Bowery Building,"",Store and Lofts,"Commercial, store and lofts","","",Manhattan,"",97 Bowery,40.717342,-73.995026,Point,823,488,304,2,1003040002,269.74954,2727.4158,http://www1.nyc.gov/assets/lpc/images/content/designations/2353.jpg
A. T. Demarest & Company and Peerless Motor Car Company Buildings,"",Office Building,"Commercial, office building","","",Manhattan,Midtown West,224-228 West 57th Street,40.765842,-73.98155,Point,1382,246,1028,7502,1010287502,497.95572,14977.79,http://www1.nyc.gov/assets/lpc/images/content/designations/2082.jpg
American Radiator Building,now the Bryant Park Hotel,Office Building,"Commercial, office building",Hotel,"",Manhattan,Midtown/Midtown South,40 West 40th Street,40.752785,-73.9838,Point,26,1233,841,71,1008410071,311.2907,5958.8433,http://www1.nyc.gov/assets/lpc/images/content/designations/0878.jpg
Bedford Park Congregational Church,"",Church,"Religious, church, Congregational","","",The Bronx,"Beford Park, Fordham North",2988 Bainbridge Avenue,40.871296,-73.88343,Point,506,973,3299,1,2032990001,335.83084,6501.2417,http://www1.nyc.gov/assets/lpc/images/content/designations/2062.jpg
Russian Orthodox Cathedral of the Transfiguration of Our Lord,"",Church,"Religious, church, Russian Orthodox","","",Brooklyn,"North Side, South Side",Driggs Avenue at North 12th Street,40.71953,-73.95339,Point,691,1159,2292,1,3022920001,356.84125,7780.7837,http://www1.nyc.gov/assets/lpc/images/content/designations/0162.jpg
University Club,"",Club,"Institutional, private club","","",Manhattan,Midtown/Midtown South,1 West 54th Street,40.761482,-73.97568,Point,792,457,1270,34,1012700034,805.8071,25191.72,http://www1.nyc.gov/assets/lpc/images/content/designations/0263.jpg
Gorham Manufacturing Company Building,"",Store,"Commercial, retail, store","Retail, apartments",Commercial,Manhattan,Union Square,889-891 Broadway,40.73876,-73.99019,Point,1456,320,848,12,1008480012,328.31232,6054.01,http://www1.nyc.gov/assets/lpc/images/content/designations/1227.jpg
"Brooklyn Public Library, Park Slope Branch","",Library,"Civic, library","","",Brooklyn,Park Slope,431 6th Avenue,40.668247,-73.983406,Point,389,855,1006,1,3010060001,571.8203,18684.494,http://www1.nyc.gov/assets/lpc/images/content/designations/1994.jpg
Saint Paul's German Evangelical Lutheran Church,now Greater Metropolitan Baptist Church,Church,"Religious, church, German Evangelican Lutheran","Religious, church, Baptist","Religious, church, Christian Scientist",Manhattan,Harlem,147 West 123rd Street,40.80748,-73.948235,Point,1044,710,1908,9,1019080009,357.76767,7792.659,http://www1.nyc.gov/assets/lpc/images/content/designations/1844.jpg
American Surety Company Building,"",Office Building,"Commercial, office building","","",Manhattan,Financial District,100 Broadway,40.707977,-74.011116,Point,1336,200,46,3,1000460003,518.29584,16658.256,http://www1.nyc.gov/assets/lpc/images/content/designations/1934.jpg
Saint Andrew's Church,"",Church,"Religious, church, Episcopal","","",Staten Island,"Todt Hill, Emerson Hill, Hartland Village, Lighthouse Hill",Old Mill Road at Arthur Kill Road,40.572903,-74.14722,Point,1150,14,2294,70,5022940070,959.1209,55424.375,http://www1.nyc.gov/assets/lpc/images/content/designations/0399.jpg
"New Dorp Light, Expanded Site","",Lighthouse,"Infrastructure, lighthouse","","",Staten Island,"Todt Hill, Emerson Hill, Hartland Village, Lighthouse Hill",25 Boyle Street,40.580772,-74.11995,Point,1154,18,939,120,5009390120,963.9092,44473.996,http://www1.nyc.gov/assets/lpc/images/content/designations/0361E.jpg
Low Memorial Library,"",Library,"Institutional, college, library","","",Manhattan,Morningside Heights,North of the College Walk (West 116th Street) between Broadway and Amsterdam Avenue,40.80823,-73.96184,Point,707,1175,197,1,1019730001,760.51855,32273.352,http://www1.nyc.gov/assets/lpc/images/content/designations/0304.jpg
John Street Methodist Church,"",Church,"Religious, church, Methodist","","",Manhattan,Battery Park City/Lower Manhattan,44 John Street,40.709106,-74.00815,Point,1303,167,67,30,1000670030,255.83302,3667.2563,http://www1.nyc.gov/assets/lpc/images/content/designations/0055.jpg
Fire Engine Company No. 7/Hook & Ladder Company No. 1,now Hook & Ladder Company No. 1,Fire Station,"Civic, fire station","","",Manhattan,Civic Center,100 Duane Street,40.715332,-74.00623,Point,1491,356,150,25,1001500025,401.95276,9466.4,http://www1.nyc.gov/assets/lpc/images/content/designations/1719.jpg
Antioch Baptist Church,originally the Greene Avenue Baptist Church and Church House,Church,"Religious, church, Baptist","","",Brooklyn,Bedford-Stuyvesant,828 and 826 Greene Avenue,40.690037,-73.93499,Point,87,1294,1620,0,0,442.13782,12143.975,http://www1.nyc.gov/assets/lpc/images/content/designations/1790.jpg
175 West Broadway Building,"",Store and Lofts,"Commercial, store and lofts","","",Manhattan,Tribeca,175 West Broadway,40.717804,-74.0072,Point,799,464,176,14,1001760014,98.40754,590.5008,http://www1.nyc.gov/assets/lpc/images/content/designations/1725.jpg
United States Realty Building,"",Office Building,"Commercial, office building","","",Manhattan,Financial District,115 Broadway,40.708946,-74.011475,Point,1344,208,50,1,1000500001,680.3898,18116.207,http://www1.nyc.gov/assets/lpc/images/content/designations/1558.jpg
Fire Engine Company No. 23,"",Fire Station,"Civic, fire station","","",Manhattan,Midtown West,215 West 58th Street,40.766777,-73.98031,Point,1503,368,1030,23,1010300023,250.45688,2463.1467,http://www1.nyc.gov/assets/lpc/images/content/designations/1563.jpg
Empire State Dairy Company Buildings,"",Factory,"Industrial, factory","","",Brooklyn,East New York,Empire State Dairy Company Buildings,40.67663,-73.88897,Point,274,0,3964,8,3039640008,0.0,0.0,http://www1.nyc.gov/assets/lpc/images/content/designations/2575.jpg
Aakawaxung Munahanung (Island Protected from the Wind) Archaeological Site,"","","","","",Staten Island,Tottenville,"Conference House Park, 298 Satterlee Street (aka 298-300 Satterless Street), Staten Island",40.50086,-74.251945,Point,318,0,7857,1,5078570001,0.0,0.0,http://www1.nyc.gov/assets/lpc/images/content/designations/2648.jpg
Coney Island Theater Building,later Shore Theater,Theater,"Commercial, theater","","",Brooklyn,Coney Island,1301 Surf Avenue,40.575962,-73.98169,Point,397,863,7064,16,3070640016,609.9532,21188.145,http://www1.nyc.gov/assets/lpc/images/content/designations/2408.jpg
First Precinct Police Station,now the New York City Police Museum,Police Station,"Civic, police station","","Muni, vacant",Manhattan,Battery Park City/Lower Manhattan,100 Old Slip,40.70348,-74.00812,Point,35,1242,34,37,1000340037,401.5855,6126.0615,http://www1.nyc.gov/assets/lpc/images/content/designations/0968.jpg
New York Architectural Terra Cotta Company Building,"",Factory,"Industrial, factory","","",Queens,Long Island City,42-10 to 42-16 Vernon Boulevard,40.75399,-73.94982,Point,1205,69,477,20,4004770020,272.02457,4335.39,http://www1.nyc.gov/assets/lpc/images/content/designations/1304.jpg
S. Jarmulowsky Bank Building,"",Office Building,"Commercial, office building","Commercial, bank","Industrial, lofts",Manhattan,Lower East Side,54 Canal Street,40.71478,-73.99218,Point,919,585,294,8,1002940008,287.54602,5158.1104,http://www1.nyc.gov/assets/lpc/images/content/designations/2363.jpg
Yale Club of New York City,"",Club Building,Club Building,"","",Manhattan,Midtown East,50 Vanderbilt Avenue,40.754005,-73.977516,Point,185,0,1279,28,1012790028,0.0,0.0,http://www1.nyc.gov/assets/lpc/images/content/designations/2579.jpg
Citizens Savings Bank,"",Bank,"Commercial, bank","","",Manhattan,"",58 Bowery,40.716118,-73.99654,Point,572,1039,202,18,1002020018,342.8761,6508.64,http://www1.nyc.gov/assets/lpc/images/content/designations/2466.jpg
"Ridgewood Savings Bank, Forest Hills Branch","",Bank,"Commercial, bank","","",Queens,Forest Hills,107-55 Queens Boulevard,40.72198,-73.84427,Point,110,1317,2216,1,4022160001,291.6481,5351.1626,http://www1.nyc.gov/assets/lpc/images/content/designations/2066.jpg
Crotona Play Center,"",Pool,"Civic, recreation, pool","","",The Bronx,Crotona,Fulton Avenue between East 172nd and East 174th Streets,40.83987,-73.897736,Point,130,1337,2941,1,2029410001,2776.6494,420916.47,http://www1.nyc.gov/assets/lpc/images/content/designations/2232.jpg
"New York Public Library, Morrisania Branch",originally the McKinley Square Branch,Library,"Civic, library","","",The Bronx,Morrisania,610 East 169th Street,40.831272,-73.901794,Point,494,961,2615,23,2026150023,423.23965,9238.422,http://www1.nyc.gov/assets/lpc/images/content/designations/1996.jpg
New York Life Insurance Company Building,"",Office Building,"Commercial, office building","","",Manhattan,Gramercy,51 Madison Avenue,40.742756,-73.98559,Point,1396,260,856,24,1008560024,1271.4003,89288.95,http://www1.nyc.gov/assets/lpc/images/content/designations/2067.jpg
Wheatsworth Bakery Building,"",Factory,"Industrial, factory","","",Manhattan,"",444 East 10th Street,40.724945,-73.97588,Point,1106,772,379,27,1003790027,485.3023,13494.66,http://www1.nyc.gov/assets/lpc/images/content/designations/2262.jpg
Metropolitan Life Insurance Company Tower,"",Office Building,"Commercial, office building",Commercial,"",Manhattan,"Hudson Yards, Chelsea, Flatiron, Union Square",1 Madison Avenue,40.74128,-73.98735,Point,584,1051,853,1,1008530001,327.65936,6644.6685,http://www1.nyc.gov/assets/lpc/images/content/designations/1530.jpg
Chamber of Commerce of the State of New York,now the Mega International Commercial Bank,Office Building,"Commercial, office building","Commercial, Office Building","",Manhattan,Financial District,65 Liberty Street,40.709,-74.00966,Point,1275,139,64,9,1000640009,367.7948,8368.414,http://www1.nyc.gov/assets/lpc/images/content/designations/0053.jpg
Ahrens Building,"",Store and Lofts,"Commercial, store and lofts","","",Manhattan,Civic Center,70-76 Lafayette Street,40.71696,-74.002106,Point,1400,264,172,23,1001720023,223.51753,2385.3533,http://www1.nyc.gov/assets/lpc/images/content/designations/1759.jpg
Association of the Bar of the City of New York,"",Club,"Institutional, private club","","",Manhattan,Midtown/Midtown South,42 West 44th Street,40.755363,-73.98217,Point,1511,376,1259,14,1012590014,576.612,13487.72,http://www1.nyc.gov/assets/lpc/images/content/designations/0256.jpg
826 Broadway Building,"",Store and Lofts,"Commercial, store and lofts","","",Manhattan,Union Square South,826 Broadway (aka 826-828 Broadway; 57-63 East 12th Street),40.73326,-73.99083,Point,292,0,564,34,1005640034,0.0,0.0,http://www1.nyc.gov/assets/lpc/images/content/designations/2615.jpg
Long Island Headquarters of the New York Telephone Company,"",Skyscraper,"Commercial, office building","","",Brooklyn,"Downtown Brooklyn, Boerum Hill",97-105 Willoughby Street,40.692585,-73.98497,Point,382,848,2058,7501,3020587501,724.2659,26420.414,http://www1.nyc.gov/assets/lpc/images/content/designations/2144.jpg
"Museum Building, Fountain of Life, and Tulip Tree Allee, New York Botanical Garden","",Museum,"Institutional, museum","Recreational, botanical garden","",The Bronx,"","New York Botanical Garden, Watson Drive and Garden Way",40.86633,-73.879524,Point,620,1088,3272,1,2032720001,1677.3828,159854.47,http://www1.nyc.gov/assets/lpc/images/content/designations/2311.jpg
Tiffany & Co. Building,"",Store,"Commercial, retail, store","","",Manhattan,Murray Hill/Kips Bay,397-409 Fifth Avenue,40.749992,-73.98294,Point,743,408,866,76,1008660076,573.13586,19319.898,http://www1.nyc.gov/assets/lpc/images/content/designations/1624.jpg
Church of the Holy Apostles,"",Church,"Religious, church, Episcopal",Episcopal church,"",Manhattan,Chelsea,300 Ninth Avenue,40.749275,-73.99883,Point,698,1166,751,76,1007510076,516.42017,15013.048,http://www1.nyc.gov/assets/lpc/images/content/designations/0231.jpg
Seventh Regiment Armory,"",Armory,"Civic, armory","","",Manhattan,Upper East Side/Carnegie Hill,643 Park Avenue,40.76725,-73.96552,Point,1047,713,1401,1,1014010001,1244.9067,87240.09,http://www1.nyc.gov/assets/lpc/images/content/designations/0417.jpg
Century Assocation Building,"",Club,"Institutional, club","","",Manhattan,Gramercy,111 East 15th Street,40.735176,-73.98889,Point,1307,171,871,10,1008710010,319.72443,5459.032,http://www1.nyc.gov/assets/lpc/images/content/designations/1763.jpg
"New York Public Library, Tompkins Square Branch","",Library,"Civic, library",Public Library,"",Manhattan,East Village,331 East 10th Street,40.727325,-73.9804,Point,1513,378,404,39,1004040039,296.403,4938.58,http://www1.nyc.gov/assets/lpc/images/content/designations/1998.jpg
Church of the Incarnation and Rectory,"",Church,"Religious, church, Episcopal",Episcopal church,"",Manhattan,Murray Hill,205 and 209 Madison Avenue,40.74848,-73.981995,Point,41,1248,865,0,0,512.99133,15703.594,http://www1.nyc.gov/assets/lpc/images/content/designations/1046.jpg
New York & Long Island Coignet Stone Company Building,"",Office Building,"Commercial, office building","","",Brooklyn,"Park Slope, Gowanus",360 3rd Avenue,40.674953,-73.9884,Point,128,1335,978,0,0,362.9868,7030.0674,http://www1.nyc.gov/assets/lpc/images/content/designations/2202.jpg
Long Island Business College,"",School,"Institutional, private school","","",Brooklyn,South Williamsburg,143 South 8th Street,40.70965,-73.96299,Point,461,927,2132,30,3021320030,399.19022,9935.559,http://www1.nyc.gov/assets/lpc/images/content/designations/2544.jpg
189 Front Street Building,"",Countinghouse,"Commercial, countinghouse","Commercial, Retail","",Manhattan,South Street Seaport,189 Front Street,40.706577,-74.00405,Point,551,1018,74,1,1000740001,167.50339,1317.9996,http://www1.nyc.gov/assets/lpc/images/content/designations/0073.jpg
56-58 Pine Street Building,"",Office Building,"Commercial, office building","","",Manhattan,Financial District,56-58 Pine Street,40.706844,-74.00833,Point,1092,758,41,7503,1000417503,386.2754,7027.5654,http://www1.nyc.gov/assets/lpc/images/content/designations/1951.jpg
Saint Paul's Memorial Church and Rectory,"",Church,"Religious, church, Episcopal","","",Staten Island,"Stapleton, Rosebank",217-225 St. Paul's Avenue,40.63207,-74.07889,Point,27,1234,516,0,0,839.45135,44086.87,http://www1.nyc.gov/assets/lpc/images/content/designations/0891.jpg
"Saint Paul's Evangelical Lutheran Church, Sunday School and Parsonage","",Church,"Religious, church, Lutheran","","",Brooklyn,Williamsburg,334 South 5th Street,40.7084,-73.956085,Point,467,933,2462,2,3024620002,494.72217,13379.015,http://www1.nyc.gov/assets/lpc/images/content/designations/2418.jpg
American Bank Note Company Printing Plant,"",Factory,"Industrial, factory","","",The Bronx,Hunts Point,1201 Lafayette Avenue,40.817116,-73.89093,Point,475,942,2739,15,2027390015,1711.3976,186438.11,http://www1.nyc.gov/assets/lpc/images/content/designations/2298.jpg
4 Fulton Street Building,"",Countinghouse,"Commercial, countinghouse","Commercial, Retail","",Manhattan,South Street Seaport,4 Fulton Street,40.706398,-74.00355,Point,544,1011,74,1,1000740001,156.79538,1084.8141,http://www1.nyc.gov/assets/lpc/images/content/designations/0066.jpg
"Hall of Languages, New York University",now Bronx Community College,School,"Institutional, school, university","","",The Bronx,"Todt Hill, Emerson Hill, Hartland Village, Lighthouse Hill",Hall of Fame Terrace at Sedgwick Avenue,40.858295,-73.91398,Point,555,1022,3222,62,2032220062,304.27716,5452.4507,http://www1.nyc.gov/assets/lpc/images/content/designations/0114.jpg
Famous Players-Lasky Studio,"now Kaufman's Astoria Motion Picture and Television Center, designated as Paramount Studios Building No. 1",Studio,"Commercial, movie studio","","",Queens,Astoria,35-11 35th Avenue,40.756947,-73.92451,Point,37,1244,643,1,4006430001,1082.1995,68089.87,http://www1.nyc.gov/assets/lpc/images/content/designations/0977.jpg
Trans World Airlines Flight Center at New York International Airport,"",Airport Terminal,"Infrastructure, airport terminal","","",Queens,Kennedy Airport,John F. Kennedy International Airport,40.645565,-73.77732,Point,617,1085,14260,1,4142600001,3782.4438,102808.336,http://www1.nyc.gov/assets/lpc/images/content/designations/1915.jpg
Metropolitan Baptist Church,originally the New York Presbyterian Church,Church,"Religious, church, Presbyterian","Religious, church, Baptist","",Manhattan,Harlem,151 West 128th Street,40.810925,-73.946396,Point,817,482,1913,1,1019130001,410.2616,10519.24,http://www1.nyc.gov/assets/lpc/images/content/designations/1134.jpg
Bank of the Metropolis,"",Office Building,"Commercial, office building",Bank,"",Manhattan,Union Square,31 Union Square West,40.736877,-73.99114,Point,1306,170,844,17,1008440017,612.51434,10057.518,http://www1.nyc.gov/assets/lpc/images/content/designations/1537.jpg
New Amsterdam Theater,"",Theater,"Commercial, theater","","",Manhattan,Midtown/Midtown South,214 West 42nd Street,40.75593,-73.988045,Point,1454,318,1013,39,1010130039,720.4601,18201.564,http://www1.nyc.gov/assets/lpc/images/content/designations/1026.jpg
Thomson Meter Company Building,(later New York Eskimo Pie Corporation Building),Factory,"Industrial, factory","","",Brooklyn,"DUMBO, Vinegar Hill, Downtown Brooklyn, Boerum Hill",100-110 Bridge Street,40.701157,-73.985054,Point,119,1326,66,18,3000660018,603.0621,21014.164,http://www1.nyc.gov/assets/lpc/images/content/designations/2139.jpg
Mount Saint Vincent Academy,now the Administration Building,School,"Institutional, school, university","","",The Bronx,"North Riverdale, Fieldston, Riverdale",West 261st Street at Palisade Avenue,40.913723,-73.908714,Point,685,1153,5958,1,2059580001,2237.221,49744.29,http://www1.nyc.gov/assets/lpc/images/content/designations/1014.jpg
Saint James Roman Catholic Church,"",Church,"Religious, church, Roman Catholic",Roman Catholic Church,"",Manhattan,Chinatown,32 James Street,40.712234,-73.99851,Point,1462,327,279,25,1002790025,461.98218,11067.313,http://www1.nyc.gov/assets/lpc/images/content/designations/0092.jpg
Hotel Wolcott,"",Apartment Hotel,"Commercial, hotel","","",Manhattan,Midtown,4 West 31st Street,40.746624,-73.98671,Point,1497,362,832,49,1008320049,397.97433,9891.592,http://www1.nyc.gov/assets/lpc/images/content/designations/2423.jpg
10 Fulton Street Building,"",Countinghouse,"Commercial, countinghouse","Commercial, Retail","",Manhattan,South Street Seaport,10 Fulton Street,40.706528,-74.003685,Point,595,1062,74,1,1000740001,172.90054,1326.3568,http://www1.nyc.gov/assets/lpc/images/content/designations/0063.jpg
New York City Lunatic Asylum,designated as Octagon Tower,Asylum,"Civic, asylum","","",Manhattan,Roosevelt Island,"Roosevelt Island, located approximately opposite East 79th Street",40.769062,-73.94357,Point,672,1140,1373,1,1013730001,287.68576,5591.387,http://www1.nyc.gov/assets/lpc/images/content/designations/0910.jpg
Broadway-Chambers Building,"",Office Building,"Commercial, office building","","",Manhattan,Civic Center,277 Broadway,40.714443,-74.00646,Point,756,421,149,33,1001490033,309.95325,5503.1255,http://www1.nyc.gov/assets/lpc/images/content/designations/1753.jpg
Fire Engine Company No. 65,"",Fire Station,"Civic, fire station","","",Manhattan,Midtown/Midtown South,33 West 43rd Street,40.75505,-73.98192,Point,1368,232,1259,18,1012590018,249.77403,2307.751,http://www1.nyc.gov/assets/lpc/images/content/designations/1545.jpg
Little Theater,now the Helen Hayes Theater,Theater,"Commercial, theater",Theater,"",Manhattan,Theatre District,238 West 44th Street,40.757874,-73.98784,Point,1310,174,1015,51,1010150051,355.9667,7759.8623,http://www1.nyc.gov/assets/lpc/images/content/designations/1346.jpg
St. Louis Hotel,now Hotel Grand Union,Apartment Hotel,"Commercial, hotel","","",Manhattan,Midtown,34 East 32nd Street,40.74601,-73.98333,Point,1366,230,861,52,1008610052,286.66818,4100.788,http://www1.nyc.gov/assets/lpc/images/content/designations/2533.jpg
Erasmus Hall Academy,designated as Erasmus Hall Museum,School,"Civic, school","",Museum,Brooklyn,Flatbush,in the courtyard of Erasmus Hall High School,40.64959,-73.95748,Point,695,1163,5103,10,3051030010,299.02084,4096.2783,http://www1.nyc.gov/assets/lpc/images/content/designations/0171.jpg
Cort Theater,"",Theater,"Commercial, theater",Theater,"",Manhattan,Theatre District,138-146 West 48th Street,40.759125,-73.983055,Point,801,466,1000,49,1010000049,391.38126,9565.092,http://www1.nyc.gov/assets/lpc/images/content/designations/1328.jpg
Estey Piano Company Factory,"",Factory,"Industrial, factory","Commercial, studios","",The Bronx,Mott Haven,112-128 Lincoln Avenue,40.80787,-73.92896,Point,125,1332,2309,1,2023090001,883.6206,17103.977,http://www1.nyc.gov/assets/lpc/images/content/designations/2195.jpg
Fourteenth Ward Industrial School of the Children's Aid Society (Astor Memorial Building),"",School,"Institutional, charitable, school",res,"",Manhattan,SoHo,256-258 Mott Street,40.72355,-73.99442,Point,1279,143,508,6,1005080006,269.61835,3872.5142,http://www1.nyc.gov/assets/lpc/images/content/designations/0960.jpg
Church of All Saints Complex,"",Church,"Religious, church, Roman Catholic","Religious, school, Roman Catholic","",Manhattan,Central Harlem North/Polo Grounds,47 East 129th Street,40.808475,-73.93824,Point,559,1026,1754,0,0,678.50446,25162.691,http://www1.nyc.gov/assets/lpc/images/content/designations/2165.jpg
Eighth Coastal Artillery Armory,"later the Eighth Regiment Armory, designated as the Kingsbridge Armory",Armory,"Civic, armory","","",The Bronx,Van Cortlandt Village,29 West Kingsbridge Road,40.868477,-73.89823,Point,520,987,3247,2,2032470002,2160.5676,293714.4,http://www1.nyc.gov/assets/lpc/images/content/designations/0823.jpg
Saint Paul Roman Catholic Church,"",Church,"Religious, church, Roman Catholic","","",Manhattan,Harlem,121 (115 - 125) East 117th Street,40.79989,-73.941696,Point,174,1381,1645,7,1016450007,0.0,0.0,http://www1.nyc.gov/assets/lpc/images/content/designations/0291.jpg
Marine Air Terminal,"",Airport Terminal,"Infrastructure, airport terminal","","",Queens,LaGuardia Airport,LaGuardia Airport,40.773567,-73.885796,Point,618,1086,926,1,4009260001,684.2235,21458.502,http://www1.nyc.gov/assets/lpc/images/content/designations/1109.jpg
Fire Engine Company No. 384 and Hook & Ladder Company No. 34,"",Fire Station,"Civic, fire station","","",Manhattan,Washington Heights,513-515 West 161st Street,40.83592,-73.94095,Point,1105,771,2120,46,1021200046,305.7619,5210.05,http://www1.nyc.gov/assets/lpc/images/content/designations/1863.jpg
Town Hall,"",Club,"Institutional, club","",Meeting Hall,Manhattan,Theatre District,113-123 West 43rd Street,40.7561,-73.98438,Point,1263,127,996,21,1009960021,455.48114,12830.109,http://www1.nyc.gov/assets/lpc/images/content/designations/1011.jpg
Forty-Sixth Street Theater,now the Richard Rodgers Theater,Theater,"Commercial, theater",Theater,"",Manhattan,Theatre District,223-236 West 46th Street,40.75905,-73.98674,Point,1506,371,1017,48,1010170048,437.70285,11925.486,http://www1.nyc.gov/assets/lpc/images/content/designations/1333.jpg
Grand Hotel,"",Hotel,"Commercial, hotel","","",Manhattan,Midtown/Midtown South,1232-1238 Broadway,40.74717,-73.98799,Point,1509,374,832,66,1008320066,531.828,16381.465,http://www1.nyc.gov/assets/lpc/images/content/designations/1041.jpg
Riverdale Presbyterian Church,"",Church,"Religious, church, Presbyterian","","",The Bronx,Riverdale,4765 Henry Hudson Parkway,40.895847,-73.90903,Point,512,979,5912,13,2059120013,1434.1986,55139.535,http://www1.nyc.gov/assets/lpc/images/content/designations/0128.jpg
American Museum of Natural History,"",Museum,"Institutional, museum","","",Manhattan,Upper West Side,Central Park West at West 77th Street,40.78116,-73.974045,Point,706,1174,1130,1,1011300001,3479.306,331134.66,http://www1.nyc.gov/assets/lpc/images/content/designations/0282.jpg
Mother African Methodist Episcopal Zion Church,"",Church,"Religious, church, African Methodist Episcopal Zion","","",Manhattan,Harlem,140 West 137th Street,40.81595,-73.94181,Point,849,514,1921,51,1019210051,426.98627,10394.216,http://www1.nyc.gov/assets/lpc/images/content/designations/1849.jpg
New York Times Building,"",Office Building,"Commercial, office building",Pace University,"",Manhattan,Civic Center,41 Park Row,40.711678,-74.00619,Point,1291,155,101,2,1001010002,357.75433,7695.0186,http://www1.nyc.gov/assets/lpc/images/content/designations/2031.jpg
Madison Belmont Building,"",Office Building,"Commercial, office building","","",Manhattan,"",181 Madison Avenue,40.74735,-73.982735,Point,1525,390,863,60,1008630060,723.16943,13476.642,http://www1.nyc.gov/assets/lpc/images/content/designations/2425.jpg
Haskins & Sells Building,"",Office Building,"Commercial, office building","","",Manhattan,"",35 West 39th Street,40.752617,-73.98414,Point,1474,339,841,18,1008410018,291.75,4482.5312,http://www1.nyc.gov/assets/lpc/images/content/designations/2417.jpg
Brooklyn City Hall,now Brooklyn Borough Hall,City Hall,"Civic, city hall","","",Brooklyn,Downtown Brooklyn,209 Joralemon Street,40.69277,-73.990295,Point,688,1156,0,0,0,577.179,16756.336,http://www1.nyc.gov/assets/lpc/images/content/designations/0147.jpg
Scribner Building,now the United Synagogue of America,Office Building,"Commercial, office building","","",Manhattan,"Hudson Yards, Chelsea, Flatiron, Union Square",153-157 Fifth Avenue,40.74044,-73.990036,Point,1284,148,850,4,1008500004,290.59372,5070.639,http://www1.nyc.gov/assets/lpc/images/content/designations/0935.jpg
Pershing Square Building,"",Office Building,"Commercial, offices","","",Manhattan,Midtown East,125 Park Avenue,40.751602,-73.97752,Point,187,0,1296,1,1012960001,0.0,0.0,http://www1.nyc.gov/assets/lpc/images/content/designations/2556.jpg
J. P. Morgan & Co. Building,"",Bank,"Commercial, bank","","",Manhattan,Financial District,23 Wall Street,40.706745,-74.010506,Point,534,1001,26,7501,1000267501,411.83432,10751.378,http://www1.nyc.gov/assets/lpc/images/content/designations/0039.jpg
"Rogers, Peet & Company Building","",Office Building,"Commercial, office building","Commercial, retail","",Manhattan,"",258 Broadway,40.713684,-74.007324,Point,1059,725,134,25,1001340025,535.9904,11824.58,http://www1.nyc.gov/assets/lpc/images/content/designations/2432.jpg
Metropolitan Savings Bank,now the First Ukrainian Evangelical Pentecostal Church,Bank,"Commercial, bank",Church,"",Manhattan,East Village,9 East 7th Street,40.728943,-73.990005,Point,1346,210,463,1,1004630001,241.75496,3389.4702,http://www1.nyc.gov/assets/lpc/images/content/designations/0183.jpg
A. I. Namm & Son Department Store,"",Department Store,"Commercial, retail, store","","",Brooklyn,Downtown Brooklyn,450-458 Fulton Street,40.690273,-73.98499,Point,375,841,157,9,3001570009,428.15067,9665.348,http://www1.nyc.gov/assets/lpc/images/content/designations/2170.jpg
Grace Chapel,now Immaculate Conception Church,Church,"Religious, church, Episcopal",Roman Catholic church,"",Manhattan,East Village,406 East 14th Street,40.730804,-73.982254,Point,562,1029,441,10,1004410001,425.6701,9135.486,http://www1.nyc.gov/assets/lpc/images/content/designations/0226.jpg
Aeolian Building,"",Office Building,"Commercial, office building",Retail,"",Manhattan,Midtown/Midtown South,689-691 Fifth Avenue,40.761036,-73.97491,Point,913,579,1290,1,1012900001,409.3212,7195.3,http://www1.nyc.gov/assets/lpc/images/content/designations/2125.jpg
New-York Historical Society,"",Museum,"Institutional, museum","Institutional, Museum","",Manhattan,Lincoln Square,170 Central Park West,40.779305,-73.97438,Point,1113,779,1129,29,1011290029,980.5706,46387.812,http://www1.nyc.gov/assets/lpc/images/content/designations/0281.jpg
Longacre Theater,"",Theater,"Commercial, theater",Theater,"",Manhattan,Theatre District,220-228 West 48th Street,40.760357,-73.98598,Point,1292,156,1019,50,1010190050,403.6126,10176.548,http://www1.nyc.gov/assets/lpc/images/content/designations/1348.jpg
Seagram Building,"",Office Building,"Commercial, office building","","",Manhattan,Turtle Bay/East Midtown,375 Park Avenue,40.758465,-73.972145,Point,1052,718,1307,1,1013070001,995.22253,59948.21,http://www1.nyc.gov/assets/lpc/images/content/designations/1664.jpg
J. Kurtz & Sons Store,"",Store,"Commercial, retail, store","","",Queens,Jamaica,162-24 Jamaica Avenue,40.70428,-73.79703,Point,1245,109,10102,10,4101020010,362.57074,6926.8306,http://www1.nyc.gov/assets/lpc/images/content/designations/1132.jpg
Globe Theater,now the Lunt-Fontanne Theater,Theater,"Commercial, theater",Theater,Movie theatre,Manhattan,Theatre District,203-217 West 46th Street,40.75919,-73.985916,Point,1313,177,1018,20,1010180020,483.0026,14247.916,http://www1.nyc.gov/assets/lpc/images/content/designations/1350.jpg
Joseph Loth & Company Silk Ribbon Mill,"",Factory,"Industrial, factory","","",Manhattan,Hamilton Heights,1828 Amsterdam Avenue,40.82885,-73.945366,Point,816,481,2082,28,1020820028,621.6159,21743.752,http://www1.nyc.gov/assets/lpc/images/content/designations/1860.jpg
Loew's Paradise Theater,"",Theater,"Commercial, theater","","",The Bronx,Fordham South,2401-2419 Grand Concourse,40.860573,-73.89885,Point,489,956,3165,44,2031650044,804.1118,38860.16,http://www1.nyc.gov/assets/lpc/images/content/designations/1891.jpg
Forest Park Carousel,"",Carousel,"Amusement, carousel","","",Queens,Woodhaven,"within Forest Park, west of Woodhaven Boulevard and north of West Main Drive",40.700394,-73.856735,Point,678,1146,3866,70,4038660070,284.78256,6363.595,http://www1.nyc.gov/assets/lpc/images/content/designations/2528.jpg
144 West 14th Street Building,"",Store and Lofts,"Commercial, store and lofts","Institutional, school, university","",Manhattan,"",144 West 14th Street,40.737938,-73.99895,Point,758,423,609,7503,1006097503,461.4165,13207.797,http://www1.nyc.gov/assets/lpc/images/content/designations/2315.jpg
Loew's Valencia Theater,now Tabernacle of Prayer for All People,Theater,"Commercial, theater","Religious, church","",Queens,Jamaica,165-11 Jamaica Avenue,40.706272,-73.794685,Point,1241,105,9795,3,4097950003,919.6428,32766.836,http://www1.nyc.gov/assets/lpc/images/content/designations/2036.jpg
New York Yacht Club Building,"",Club,"Institutional, private club","","",Manhattan,Midtown/Midtown South,37 West 44th Street,40.755726,-73.981575,Point,1369,233,1260,16,1012600016,360.22546,7960.6475,http://www1.nyc.gov/assets/lpc/images/content/designations/1019.jpg
Union League Club,"",Club,"Institutional, private club","","",Manhattan,Murray Hill,38 East 37th Street,40.74899,-73.98051,Point,1463,328,866,42,1008660042,473.07205,13413.991,http://www1.nyc.gov/assets/lpc/images/content/designations/2389.jpg
Union Reformed Church of Highbridge,now Highbridge Community Church,Church,"Religious, church, Reformed Church of America","","",The Bronx,Highbridge,1272 Ogden Avenue,40.839447,-73.925255,Point,561,1028,2518,14,2025180014,528.2609,16991.316,http://www1.nyc.gov/assets/lpc/images/content/designations/2401.jpg
Casa Italiana,"",School,"Institutional, college, cultural center","","",Manhattan,morningside hts,1151-1161 Amsterdam Avenue,40.8076,-73.960205,Point,870,536,1961,37,1019610037,285.57452,4319.7886,http://www1.nyc.gov/assets/lpc/images/content/designations/0991.jpg
Chapel of the Intercession,now the Church of the Intercession Complex,Church,"Religious, church, Episcopal","","",Manhattan,"",Broadway at West 155th Street,40.832176,-73.94535,Point,956,622,2085,20,1020850020,959.29584,44423.074,http://www1.nyc.gov/assets/lpc/images/content/designations/0306.jpg
American Fine Arts Society,now the Arts Students League,Club,"Institutional, private club","","",Manhattan,Midtown West,215 West 57th Street,40.766243,-73.9806,Point,1379,243,1029,23,1010290023,565.31067,15610.81,http://www1.nyc.gov/assets/lpc/images/content/designations/0255.jpg
Union Square Savings Bank,"",Bank,"Commercial, bank",Theatre,"",Manhattan,Union Square,20 Union Square East,40.735317,-73.98938,Point,752,417,871,1,1008710001,527.35803,9946.023,http://www1.nyc.gov/assets/lpc/images/content/designations/1945.jpg
Grand Central Terminal,"",Train Station,"Infrastruction, transportation, railroad station",Transportation hub,"",Manhattan,Midtown/Midtown South,East 42nd Street at Park Avenue,40.75265,-73.97728,Point,1120,786,1280,1,1012800001,1482.2976,136882.94,http://www1.nyc.gov/assets/lpc/images/content/designations/0266.jpg
Paramount Building,"",Office Building,"Commercial, office building","","",Manhattan,Times Square,1501 Broadway,40.757233,-73.98671,Point,1450,314,1015,29,1010150029,832.8639,43343.258,http://www1.nyc.gov/assets/lpc/images/content/designations/1566.jpg
Dollar Savings Bank,later Emmigrant Savings Bank,Bank,"Commercial, bank","","",The Bronx,Bedford Park,2516-2530 Grand Concourse,40.863106,-73.89606,Point,474,941,3154,7501,2031547501,589.4878,19541.12,http://www1.nyc.gov/assets/lpc/images/content/designations/1889.jpg
"Saint Peter's Church, Chapel and Cemetery","",Church,"Religious, church, Episcopal","Religious, cemetery, Episcopal","",The Bronx,"Westchester, Unionport",2500 Westchester Avenue,40.83822,-73.84404,Point,480,947,3848,18,2038480018,1584.7963,139604.42,http://www1.nyc.gov/assets/lpc/images/content/designations/0917.jpg
New Utrecht Reformed Dutch Church,"",Church,"Religious, church, Dutch Reformed","","",Brooklyn,Bensonhurst,"18th Avenue, from 83rd to 84th Streets",40.60808,-74.00038,Point,696,1164,6327,10,3063270010,245.20493,3438.3477,http://www1.nyc.gov/assets/lpc/images/content/designations/0172.jpg
New Dorp Light,"",Lighthouse,"Infrastructure, lighthouse","","",Staten Island,"Todt Hill, Emerson Hill, Hartland Village, Lighthouse Hill",25 Boyle Street,40.58082,-74.12011,Point,717,1185,939,120,5009390120,198.15222,1873.5573,http://www1.nyc.gov/assets/lpc/images/content/designations/0361.jpg
Civic Club,now Estonian House,Club,"Institutional, private club",Ethnic club,"",Manhattan,Murray Hill/Kips Bay,243 East 34th Street,40.74521,-73.97615,Point,1010,676,915,26,1009150026,253.01965,2493.8035,http://www1.nyc.gov/assets/lpc/images/content/designations/0980.jpg
Saint Luke's Episcopal Church,now the Church of Saint Luke and Saint Matthew,Church,"Religious, church, Episcopal","","",Brooklyn,Clinton Hill,520 Clinton Avenue,40.68269,-73.96721,Point,421,887,2010,10,3020100010,729.95886,27218.271,http://www1.nyc.gov/assets/lpc/images/content/designations/2014.jpg
New York County Lawyers' Association Building,"",Office Building,"Commercial, office building","","",Manhattan,Civic Center,14 Vesey Street,40.711926,-74.00922,Point,1386,250,88,2,1000880002,361.09485,7913.9775,http://www1.nyc.gov/assets/lpc/images/content/designations/0076.jpg
Emigrant Industrial Savings Bank Building,"",Bank,"Commercial, bank","Commercial, office building","",Manhattan,Civic Center,51 Chambers Street,40.713978,-74.00508,Point,73,1280,153,18,1001530018,536.96405,17880.055,http://www1.nyc.gov/assets/lpc/images/content/designations/1438.jpg
St. Barbara's Roman Catholic Church,"",Church,Religious,"","",Brooklyn,Bushwick,138 Bleeker Street,40.695736,-73.92029,Point,200,0,3306,6,3033060006,0.0,0.0,http://www1.nyc.gov/assets/lpc/images/content/designations/1201.jpg
Saint George's Episcopal Church,"",Church,"Religious, church, Episcopal","","",Brooklyn,Bedford,800 Marcy Avenue,40.686314,-73.94779,Point,411,877,1813,41,3018130041,502.0801,15243.264,http://www1.nyc.gov/assets/lpc/images/content/designations/0946.jpg
Jamaica Savings Bank,"",Bank,"Commercial, bank","","",Queens,Jamaica,146-21 Jamaica Avenue,40.702,-73.80821,Point,1236,100,9676,37,4096760037,304.4355,4789.938,http://www1.nyc.gov/assets/lpc/images/content/designations/2393.jpg
"Brooklyn Central Office, Bureau of Fire Communications","",Fire Station,"Civic, fire station","","",Brooklyn,"",35 Empire Boulevard,40.66372,-73.961395,Point,690,1158,1183,51,3011830051,790.0839,22435.69,http://www1.nyc.gov/assets/lpc/images/content/designations/0156.jpg
New York Evening Post Building,"",Office Building,"Commercial, office building","","",Manhattan,Civic Center,20 Vesey Street,40.71206,-74.00953,Point,744,409,88,5,1000880005,361.1578,7304.9937,http://www1.nyc.gov/assets/lpc/images/content/designations/0077.jpg
Chrysler Building,"",Office Building,"Commercial, office building",Office Building,"",Manhattan,Turtle Bay/East Midtown,405 Lexington Avenue,40.751648,-73.97537,Point,1131,797,1297,23,1012970023,792.44275,38952.082,http://www1.nyc.gov/assets/lpc/images/content/designations/0992.jpg
Knickerbocker Club Building,"",Club,"Institutional, private club","","",Manhattan,Upper East Side,2 East 62nd Street,40.765854,-73.97144,Point,339,805,1376,69,1013760069,410.21756,8656.774,http://www1.nyc.gov/assets/lpc/images/content/designations/1025.jpg
Museum of the City of New York,"",Museum,"Institutional, museum","","",Manhattan,East Harlem South,1220-1227 Fifth Avenue,40.792515,-73.95192,Point,876,542,1609,1,1016090001,724.3061,32194.49,http://www1.nyc.gov/assets/lpc/images/content/designations/0448.jpg
Hall of Records,now Surrogate's Court-Hall of Records,Office Building,"Civic, office building","","",Manhattan,Civic Center,31 Chambers Street,40.713604,-74.00424,Point,1289,153,153,24,1001530024,708.0341,31027.182,http://www1.nyc.gov/assets/lpc/images/content/designations/0082.jpg
Flatbush District No. 1 School,later Public School 90,School,"Civic, school","","",Brooklyn,Flatbush,2274 Church Avenue,40.65023,-73.956184,Point,142,1349,5103,58,3051030058,528.7534,9143.894,http://www1.nyc.gov/assets/lpc/images/content/designations/2285.jpg
Martin Beck Theater,now the Al Hirschfeld Theater,Theater,"Commercial, theater",Theater,"",Manhattan,Theatre District,302-314 West 45th Street,40.75927,-73.98921,Point,1308,172,1035,37,1010350037,471.15976,13626.201,http://www1.nyc.gov/assets/lpc/images/content/designations/1315.jpg
Hampton Shops Building,"",Commercial Building,"Commercial, offices","","",Manhattan,Midtown East,18-20 East 50th Street,40.75786,-73.97617,Point,180,0,1285,59,1012850059,0.0,0.0,http://www1.nyc.gov/assets/lpc/images/content/designations/2580.jpg
De Vinne Press Building,"",Factory,"Industrial, factory, printing","","",Manhattan,East Village,393-399 Lafayette Street,40.72793,-73.992645,Point,1392,256,544,1,1005440001,506.63626,15753.129,http://www1.nyc.gov/assets/lpc/images/content/designations/0201.jpg
Bohemian National Hall,(Nrodn Budova),Club,"Institutional, cultural institute","","",Manhattan,Lenox Hill,321 East 73rd Street,40.769135,-73.95642,Point,861,526,1448,16,1014480016,362.6323,7949.6724,http://www1.nyc.gov/assets/lpc/images/content/designations/1914.jpg
Saint Patrick's Church,"",Church,"Religious, church, Roman Catholic","","",Staten Island,Richmondtown,45 Saint Patrick's Place,40.570934,-74.143654,Point,1192,56,4438,61,5044380061,761.96423,32688.057,http://www1.nyc.gov/assets/lpc/images/content/designations/0400.jpg
Kehila Kadosha Janina Synagogue,"",Synagogue,"Religious, synagogue, Romaniote",Romaniote synagogue,"",Manhattan,Chinatown,280 Broome Street,40.718597,-73.99117,Point,1436,300,414,27,1004140027,194.65518,1563.1705,http://www1.nyc.gov/assets/lpc/images/content/designations/2143.jpg
Saint Monica's Church,"",Church,"Religious, church, Roman Catholic","","",Queens,Jamaica,94-20 160th Street,40.70191,-73.79816,Point,38,1245,10103,16,4101030016,330.13165,5293.018,http://www1.nyc.gov/assets/lpc/images/content/designations/1017.jpg
New Utrecht Reformed Dutch Church Cemetery,"",Cemetery,Cemetery,"","",Brooklyn,Bensonhurst,"adjacent to 16th Avenue, from 84th to 85th Streets",40.610783,-74.00599,Point,393,859,6325,1,3063250001,841.35126,43518.242,http://www1.nyc.gov/assets/lpc/images/content/designations/1978.jpg
City College,"now City College North Campus, City University of New Yory",School,"Institutional, school, university","","",Manhattan,Manhattanville,Convent Avenue between West 138th and 140th Streets,40.82077,-73.949066,Point,668,1136,1957,0,0,3496.2222,395074.2,http://www1.nyc.gov/assets/lpc/images/content/designations/1036.jpg
Catholic Apostolic Church,now Church for All Nations,Church,"Religious, church, Roman Catholic","","",Manhattan,Midtown West,417-419 West 57th Street,40.76849,-73.986336,Point,1265,129,1067,24,1010670024,313.4976,5322.6377,http://www1.nyc.gov/assets/lpc/images/content/designations/2077.jpg
"New York Public Library, Astor, Lenox and Tilden Foundations","",Library,"Civic, library",Public Library,"",Manhattan,Midtown/Midtown South,476 Fifth Avenue,40.753212,-73.98227,Point,1516,381,1257,1,1012570001,1872.9551,219005.12,http://www1.nyc.gov/assets/lpc/images/content/designations/0246.jpg
Dry Dock No. 1,"",Dry Dock,"Infrastructure, dry dock","","",Brooklyn,Brooklyn Navy Yard,Dock Street at the foot of Third Street,40.701744,-73.97581,Point,29,1236,2023,1,3020230001,29362.152,6787386.5,http://www1.nyc.gov/assets/lpc/images/content/designations/0895.jpg
Goelet Building,now Swiss Center Building,Office Building,"Commercial, office building","","",Manhattan,Midtown/Midtown South,608 Fifth Avenue,40.757935,-73.97822,Point,1102,768,1264,40,1012640040,526.19086,13300.576,http://www1.nyc.gov/assets/lpc/images/content/designations/1810.jpg
Racquet and Tennis Club Building,"",Club,"Institutional, private club","","",Manhattan,Midtown/Midtown South,370 Park Avenue,40.758907,-73.97322,Point,1122,788,1288,33,1012880033,631.5599,22093.523,http://www1.nyc.gov/assets/lpc/images/content/designations/1000.jpg
Alvin Theater,now the Neil Simon Theater,Theater,"Commercial, theater","Commercial, Theater","",Manhattan,Midtown West/Theatre District,244-254 West 52nd Street,40.763023,-73.98453,Point,1363,227,1023,54,1010230054,454.97043,12798.897,http://www1.nyc.gov/assets/lpc/images/content/designations/1305.jpg
Mansfield Theater,now the Brooks Atkinson Theater,Theater,"Commercial, theater",Theater,"",Manhattan,Theatre District,256-262 West 47th Street,40.759964,-73.986984,Point,1437,301,1018,57,1010180057,407.52417,10355.327,http://www1.nyc.gov/assets/lpc/images/content/designations/1311.jpg
Shelton Hotel,"",Hotel,Hotel,"","",Manhattan,Midtown East,525 Lexington Avenue,40.755505,-73.972664,Point,182,0,1303,53,1013030053,0.0,0.0,http://www1.nyc.gov/assets/lpc/images/content/designations/2557.jpg
6 Fulton Street Building,"",Countinghouse,"Commercial, countinghouse","Commercial, Retail","",Manhattan,South Street Seaport,6 Fulton Street,40.70644,-74.00359,Point,543,1010,74,1,1000740001,167.09682,1320.3812,http://www1.nyc.gov/assets/lpc/images/content/designations/0065.jpg
"Hall of Fame, New York University",now Bronx Community College,Monument,"Institutional, school, university, monument","","",The Bronx,"Todt Hill, Emerson Hill, Hartland Village, Lighthouse Hill",Hall of Fame Terrace at Sedgwick Avenue,40.85887,-73.913956,Point,556,1023,3222,62,2032220062,1347.0399,10215.772,http://www1.nyc.gov/assets/lpc/images/content/designations/0113.jpg
Hotel Lexington,"",Hotel,Hotel,"","",Manhattan,Midtown East,511 Lexington Avenue,40.754906,-73.97304,Point,183,0,1302,51,1013020051,0.0,0.0,http://www1.nyc.gov/assets/lpc/images/content/designations/2559.jpg
"Brooklyn Public Library, Central Building","",Library,"Civic, library","","",Brooklyn,Prospect Park,Grand Army Plaza,40.67218,-73.96807,Point,416,882,1183,2,3011830002,1641.4457,133395.88,http://www1.nyc.gov/assets/lpc/images/content/designations/1963.jpg
Odd Fellows Hall,"",Club,"Institutional, private club",Comm/industrial,"",Manhattan,"SoHo, Tribeca, Civic Center, Little Italy",165-171 Grand Street,40.719486,-73.998436,Point,818,483,235,13,1002350013,392.53726,8715.606,http://www1.nyc.gov/assets/lpc/images/content/designations/1293.jpg
Guild Theater,"later the ANTA Theater, now the Virginia Theater",Theater,"Commercial, theater","Commercial, Theater",Theatre School,Manhattan,Midtown West/Theatre District,243-259 West 52nd Street,40.76338,-73.9842,Point,945,611,1024,7,1010240007,475.43045,14001.7,http://www1.nyc.gov/assets/lpc/images/content/designations/1309.jpg
Lord & Taylor Building,"",Department Store,"Commercial, retail, store",Department store,"",Manhattan,Midtown East,424-434 Fifth Avenue,40.7515,-73.98311,Point,1522,387,840,42,1008400042,939.8221,49327.1,http://www1.nyc.gov/assets/lpc/images/content/designations/2271.jpg
University Heights Bridge,"",Bridge,"Infrastructure, bridge","","","","Marble Hill, Inwood","spanning the Harlem River Betweem West Fordham Road, the Bronx, and West 207th Street, Manhattan",40.86293,-73.91525,Point,74,1281,0,0,0,2329.773,50167.61,http://www1.nyc.gov/assets/lpc/images/content/designations/1455.jpg
Christ Church Complex,"",Church,"Religious, church, Episcopal","","",Staten Island,"",76 Franklin Avenue,40.64346,-74.092834,Point,150,1357,66,0,0,1237.058,83937.75,http://www1.nyc.gov/assets/lpc/images/content/designations/2383.jpg
Tremont Baptist Church,"",Church,"Religious, church, Baptist","","",The Bronx,Mount Hope,324 East Tremont Avenue,40.848225,-73.90233,Point,477,944,2803,26,2028030026,401.92825,9673.228,http://www1.nyc.gov/assets/lpc/images/content/designations/2048.jpg
Waldorf-Astoria Hotel,"",Skyscraper,"Commercial, hotel","","",Manhattan,Turtle Bay/East Midtown,301 Park Avenue,40.75651,-73.97335,Point,952,618,1304,1,1013040001,1216.1102,82102.81,http://www1.nyc.gov/assets/lpc/images/content/designations/1812.jpg
"Fire Engine Company 289, Ladder Company 138","",Fire Station,"Civic, fire station","","",Queens,Corona,97-28 43rd Avenue,40.746212,-73.86529,Point,1210,74,1628,18,4016280018,300.0,4999.9814,http://www1.nyc.gov/assets/lpc/images/content/designations/2035.jpg
315 Broadway Building,"",Store and lofts,Commercial,"","",Manhattan,Tribeca,315 Broadway,40.715748,-74.00538,Point,177,1384,151,29,1001510029,0.0,0.0,http://www1.nyc.gov/assets/lpc/images/content/designations/1756.jpg
Williamsburgh Savings Bank,"",Bank,"Commercial, bank","","",Brooklyn,Williamsburgh,175 Broadway,40.710266,-73.962494,Point,468,934,2457,28,3024570028,464.69623,13356.508,http://www1.nyc.gov/assets/lpc/images/content/designations/0164.jpg
Fort Schuyler,now the State University of New York Maritime College,Fort,"Civic, fort","Institutional, school, university","",The Bronx,"Schuylerville, Throgs Neck, Edgewater Park",east of the Throgs Neck Bridge,40.80527,-73.79158,Point,680,1148,5530,50,2055300050,1690.6285,127346.68,http://www1.nyc.gov/assets/lpc/images/content/designations/0124.jpg
Fire Engine Company No. 33,"",Fire Station,"Civic, fire station","","",Manhattan,East Village,44 Great Jones Street,40.727,-73.99251,Point,763,428,531,49,1005310049,276.98453,4200.1416,http://www1.nyc.gov/assets/lpc/images/content/designations/0468.jpg
Staten Island Savings Bank Building,"",Bank,"Commercial, bank","","",Staten Island,"Stapleton, Rosebank",81 Water Street,40.627308,-74.0771,Point,1187,51,521,28,5005210028,622.07526,15812.25,http://www1.nyc.gov/assets/lpc/images/content/designations/2201.jpg
Moore-Jackson Cemetery,"",Cemetery,Cemetery,"","",Queens,Woodside,51st to 54th Streets between 31st and 32nd Avenues,40.756004,-73.90766,Point,1209,73,1131,12,4011310012,639.5942,22697.21,http://www1.nyc.gov/assets/lpc/images/content/designations/1956.jpg
Cary Building,"",Store and Lofts,"Commercial, store and lofts","","",Manhattan,Civic Center,105-107 Chambers Street,40.71529,-74.007965,Point,749,414,145,7501,1001457501,415.4343,7827.92,http://www1.nyc.gov/assets/lpc/images/content/designations/1224.jpg
City Hall,"",City Hall,"Civic, city hall",City Hall,"",Manhattan,Civic Center,City Hall Park,40.712814,-74.00616,Point,1435,299,122,1,1001220001,2679.7659,410762.84,http://www1.nyc.gov/assets/lpc/images/content/designations/0080.jpg
Cooper Union,"",School,"Institutional, school, university",Educational Insitution,"",Manhattan,East Village,Cooper Square,40.729378,-73.99047,Point,1481,346,544,76,1005440076,590.83514,20375.871,http://www1.nyc.gov/assets/lpc/images/content/designations/0202.jpg
"Williamsburg Branch, Public National Bank of New York Building","",Bank,"Commercial, bank","","",Brooklyn,Williamsburg,47-49 Graham Avenue,40.70318,-73.94284,Point,438,904,3105,26,3031050026,317.53845,5672.1616,http://www1.nyc.gov/assets/lpc/images/content/designations/2471.jpg
Kings County Savings Bank,"",Bank,"Commercial, bank","","",Brooklyn,Williamsburg,135 Broadway,40.71061,-73.96357,Point,457,923,2457,45,3024570045,269.04416,4082.7375,http://www1.nyc.gov/assets/lpc/images/content/designations/0165.jpg
Daily News Building,Designated,"",Office Building,"Commercial, office building",Office Building,1,Individual Landmark,220 East 42nd Street,40.74978,-73.97318,Point,892,558,1315,24,1013150024,,1120.2089,http://s-media.nyc.gov/agencies/lpc/lp/1049.pdf
Barrymore Theater,"",Theater,"Commercial, theater",Theater,"",Manhattan,Theatre District,243-251 West 47th Street,40.76011,-73.98616,Point,1048,714,1019,12,1010190012,406.49713,10318.897,http://www1.nyc.gov/assets/lpc/images/content/designations/1313.jpg
New York County National Bank,designated as the Manufacturers Hanover Trust Company Building,Bank,"Commercial, bank","","",Manhattan,West Village,77-79 Eighth Avenue,40.739677,-74.00298,Point,1063,729,629,7504,1006297504,367.63467,8285.375,http://www1.nyc.gov/assets/lpc/images/content/designations/1633.jpg
New York Stock Exchange,"",Stock Exchange,"Commercial, stock exchange","","",Manhattan,Financial District,8-18 Broad Street,40.706932,-74.01125,Point,76,1283,23,19,1000230019,564.9538,18395.564,http://www1.nyc.gov/assets/lpc/images/content/designations/1529.jpg
"Ridgewood Lodge No. 710, Free and Accepted Masons","",Club,"Institutional, private club","","",Brooklyn,Bushwick,1054 Bushwick Avenue,40.690563,-73.92076,Point,442,908,3339,19,3033390019,418.0247,7309.9424,http://www1.nyc.gov/assets/lpc/images/content/designations/2541.jpg
Paramount Hotel,"",Hotel,"Commercial, hotel","Commercial, theate","",Manhattan,Times Square,235-245 West 46th Street,40.759647,-73.987015,Point,1534,399,1018,6,1010180006,505.48917,15386.219,http://www1.nyc.gov/assets/lpc/images/content/designations/2342.jpg
"Headquarters Troop, 51st Cavalry Brigade Armory","",Armory,"Civic, armory","","",Staten Island,"",321 Manor Road,40.620113,-74.12258,Point,148,1355,332,4,5003320004,2372.6614,331537.94,http://www1.nyc.gov/assets/lpc/images/content/designations/2369.jpg
Corbin Building,"",Office Building,"Commercial, office building","","",Manhattan,Financial District,11 John Street,40.710182,-74.00913,Point,157,1364,79,15,1000790015,390.6687,5331.8047,http://www1.nyc.gov/assets/lpc/images/content/designations/2569.jpg
Cities Service Building,"",Skyscraper,"Commercial, office building","","",Manhattan,Financial District,70 Pine Street,40.706474,-74.00771,Point,1483,348,41,7504,1000417504,771.7242,32369.57,http://www1.nyc.gov/assets/lpc/images/content/designations/2441.jpg
Brinckerhoff Cemetery,"",Cemetery,Cemetery,"","",Queens,"",69-65 to 69-73 182nd Street,40.732033,-73.788246,Point,114,1321,7135,0,0,386.1134,9146.701,http://www1.nyc.gov/assets/lpc/images/content/designations/2087.jpg
Tompkinsville (Joseph H. Lyons) Pool,"",Pool,"Civic, recreation, pool","","",Staten Island,Tompkinsville,Victory Boulevard at Murray Hulbert Avenue,40.637215,-74.074234,Point,131,1338,487,0,5004870100,1410.7609,115721.18,http://www1.nyc.gov/assets/lpc/images/content/designations/2234.jpg
American Express Company Building,"",Office Building,"Commercial, office building","","",Manhattan,Financial District,65 Broadway,40.707336,-74.012665,Point,940,606,21,4,1000210004,592.24274,16984.457,http://www1.nyc.gov/assets/lpc/images/content/designations/1932.jpg
Shubert Theater,"",Theater,"Commercial, theater","","",Manhattan,Theatre District,221-233 West 44th Street,40.758144,-73.98727,Point,66,1273,1016,15,1010160015,440.4416,12186.947,http://www1.nyc.gov/assets/lpc/images/content/designations/1378.jpg
(Former) Colored School No. 4,"",School,School,"","",Manhattan,"Hudson Yards, Chelsea, Flatiron, Union Square",128 West 17th Street,40.73975,-73.99702,Point,323,0,792,53,1007920053,0.0,0.0,http://www1.nyc.gov/assets/lpc/images/content/designations/2659.jpg
Eldridge Street Synagogue,(Congregation Khal Adath Jeshurun with Anshe Lubz),Synagogue,"Religious, synagogue",Religious use,"",Manhattan,Lower East Side,12-16 Eldridge Street,40.71474,-73.99347,Point,1449,313,293,3,1002930003,302.83206,5429.016,http://www1.nyc.gov/assets/lpc/images/content/designations/1107.jpg
Whitehall Building,"",Office Building,"Commercial, office building",Apartments,"",Manhattan,Battery Park,17 Battery Place,40.70554,-74.015976,Point,666,1134,15,7501,1000157501,1082.5823,36017.523,http://www1.nyc.gov/assets/lpc/images/content/designations/2056.jpg
Hollywood Theater,"later the Mark Hellinger Theater, now Times Square Church",Theater,"Commercial, theater","Religious, Church","",Manhattan,Midtown West/Theatre District,217-239 West 51st Street,40.76264,-73.98434,Point,771,436,1023,11,1010230011,857.1532,24369.994,http://www1.nyc.gov/assets/lpc/images/content/designations/1338.jpg
Colony Club,now the American Academy of Dramatic Arts,Club,"Institutional, private club",Drama School,"",Manhattan,Midtown/Midtown South,120 Madison Avenue,40.745583,-73.9849,Point,1342,206,860,16,1008600016,344.27725,7258.5557,http://www1.nyc.gov/assets/lpc/images/content/designations/0236.jpg
Public School 108,"",School,"Civic, school","","",Brooklyn,"Cypress Hills, Bushwick",200 Linwood Street,40.681305,-73.88435,Point,440,906,3926,45,3039260045,651.33453,22801.846,http://www1.nyc.gov/assets/lpc/images/content/designations/2008.jpg
Saint Paul's Chapel,"",Church,"Religious, church, Episcopal","","",Manhattan,Morningside Heights,Amsterdam Avenue at West 117th Street,40.807858,-73.960945,Point,708,1176,197,1,1019730001,443.2947,8471.689,http://www1.nyc.gov/assets/lpc/images/content/designations/0305.jpg
Castle Williams,"",Fort,"Civic, fort","Civic, recreational, park","",Manhattan,Governors Island,Hay Road,40.692833,-74.01934,Point,730,1198,1,10,1000010010,667.5431,33524.67,http://www1.nyc.gov/assets/lpc/images/content/designations/0542.jpg
Woods Mercantile Buildings,"",Store and Lofts,"Commercial, store and lofts","","",Manhattan,Civic Center,46-50 White Street,40.718708,-74.004,Point,40,1247,193,0,0,360.71173,7931.035,http://www1.nyc.gov/assets/lpc/images/content/designations/1040.jpg
First Battery Armory,"later the 102nd Medical Battalion Armory, now television studios",Armory,"Civic, armory",Commercial,"",Manhattan,Lincoln Square,56 West 66th Street,40.773037,-73.980804,Point,737,402,1118,52,1011180052,552.44147,17832.748,http://www1.nyc.gov/assets/lpc/images/content/designations/1670.jpg
"New York Public Library, 115th Street Branch","",Library,"Civic, library","","",Manhattan,Central Harlem South,203 West 115th Street,40.80301,-73.953514,Point,998,664,1831,26,1018310026,305.08716,5065.435,http://www1.nyc.gov/assets/lpc/images/content/designations/0298.jpg
B. Altman & Co. Department Store,"now B. Altman Advanced Learning Super Block (New York Public Library, Science, Industry and Business Library; Oxford University Press; and City University of New York, Graduate School and University Center)",Department Store,"Commercial, retail, store",Educational,"",Manhattan,Midtown/Midtown South,355-371 Fifth Avenue and 188-198 Madison Avenue,40.748463,-73.98349,Point,1487,352,864,7502,1008647502,1263.0393,87786.56,http://www1.nyc.gov/assets/lpc/images/content/designations/1274.jpg
"New York, Westchester & Boston Railroad, Administration Building",now the East 180th Street Subway Station,Train Station,"Infrastruction, transportation, railroad station","Infrastruction, transportation, subway station","",The Bronx,East Tremont,481 Morris Park Avenue,40.841503,-73.87297,Point,22,1229,4011,210,2040110210,297.90054,4857.1514,http://www1.nyc.gov/assets/lpc/images/content/designations/0839.jpg
Bush Tower,"",Office Building,"Commercial, office building",Office Building,"",Manhattan,Theatre District,130-132 West 42nd Street and 113-137 West 41st Street,40.75497,-73.98563,Point,80,1287,994,45,1009940045,587.83984,14199.569,http://www1.nyc.gov/assets/lpc/images/content/designations/1561.jpg
Protestant Reformed Dutch Church of Flushing (Bowne Street Community Church),"",Church,Religious,"","",Queens,Flushing,143-11 (143-19) Roosevelt Avenue,40.761433,-73.82423,Point,198,0,5022,1,4050220001,0.0,0.0,http://www1.nyc.gov/assets/lpc/images/content/designations/2137.jpg
New England Congregational Church,now Light of the World Church,Church,"Religious, church, Congregational","","",Brooklyn,Williamsburg,179 South 9th Street,40.7087,-73.961845,Point,463,929,2139,37,3021390037,378.24,8421.308,http://www1.nyc.gov/assets/lpc/images/content/designations/2009.jpg
Saint Martin's Episcopal Church,"",Church,"Religious, church, Episcopal","","",Manhattan,Central Harlem South,230 Lenox Avenue,40.80546,-73.94658,Point,1082,748,1720,67,1017200067,507.64746,14535.739,http://www1.nyc.gov/assets/lpc/images/content/designations/0293.jpg
National Society of Colonial Dames in the State of New York Headquarters,"",Club Building,"Institutional, club","","",Manhattan,Upper East Side,215 East 71st Street (aka 215-217 East 71st Street),40.768852,-73.96003,Point,295,0,1426,10,1014260010,0.0,0.0,http://www1.nyc.gov/assets/lpc/images/content/designations/2605.jpg
Julius' Bar Building,"",Row House,"Commercial, residential","","",Manhattan,Greenwich Village,155-159 West 10th Street (aka 186-188 Waverly Place),40.73455,-74.001625,Point,321,0,611,30,1006110030,0.0,0.0,http://www1.nyc.gov/assets/lpc/images/content/designations/2663.jpg
Brown Building,originally the Asch Building,Factory,"Industrial, factory","","",Manhattan,West Village,23-29 Washington Place,40.730087,-73.99537,Point,776,441,547,8,1005470008,428.49988,11474.478,http://www1.nyc.gov/assets/lpc/images/content/designations/2128.jpg
New York Savings Bank,"",Bank,"Commercial, bank","","",Manhattan,"Hudson Yards, Chelsea, Flatiron, Union Square",81 Eighth Avenue,40.74013,-74.00277,Point,1442,306,738,33,1007380033,474.34378,9200.681,http://www1.nyc.gov/assets/lpc/images/content/designations/1634.jpg
Thomas Jefferson Play Center,"",Pool,"Civic, recreation, pool","","",Manhattan,Harlem,First Avenue between East 111st and 114th Streets,40.793404,-73.936195,Point,57,1264,1705,1,1017050001,1619.9957,159631.95,http://www1.nyc.gov/assets/lpc/images/content/designations/2236.jpg
CBS Building,"",Office Building,"Commercial, office building","","",Manhattan,Midtown/Midtown South,51 West 52nd Street,40.76126,-73.978775,Point,100,1307,1268,1,1012680001,845.78284,44680.18,http://www1.nyc.gov/assets/lpc/images/content/designations/1971.jpg
Harvard Club of New York City,"",Club,"Institutional, private club","","",Manhattan,Midtown/Midtown South,27 West 44th Street,40.75571,-73.98113,Point,701,1169,1260,20,1012600020,634.8057,21885.81,http://www1.nyc.gov/assets/lpc/images/content/designations/0259.jpg
General Ulysses S. Grant Tomb,now the General Grant National Memorial,Monument,"Civic, monument","","",Manhattan,Morningside Heights,Riverside Drive at West 122nd Street,40.813435,-73.96304,Point,806,471,1897,100,1018970100,738.94116,31176.613,http://www1.nyc.gov/assets/lpc/images/content/designations/0900.jpg
Jamaica Savings Bank,"",Bank,"Commercial, bank","","",Queens,Jamaica,161-02 Jamaica Avenue,40.703655,-73.798225,Point,1244,108,10101,9,4101010009,510.7666,7712.7017,http://www1.nyc.gov/assets/lpc/images/content/designations/2109.jpg
West Street Building,"",Office Building,"Commercial, office building","","",Manhattan,Battery Park City/Lower Manhattan,90 West Street and 140 Cedar Street,40.71,-74.01426,Point,1429,293,56,4,1000560004,581.8083,18654.588,http://www1.nyc.gov/assets/lpc/images/content/designations/1984.jpg
Somers Brothers Tinware Factory (later American Can Company),"",Factory,Industrial,"","",Brooklyn,Gowanus,"238-246 3rd Street, 365-379 3rd Avenue, and 232-236 3rd Street (aka 361-363 3rd Avenue)",40.674793,-73.9879,Point,303,0,980,8,3009800008,0.0,0.0,http://www1.nyc.gov/assets/lpc/images/content/designations/2640.jpg
Old West Farms Soldiers' Cemetery,"",Cemetery,Cemetery,"","",The Bronx,East Tremont,2103 Bryant Avenue,40.843685,-73.87922,Point,488,955,3133,25,2031330025,690.50946,29409.64,http://www1.nyc.gov/assets/lpc/images/content/designations/0624.jpg
Macomb's Dam Bridge and 155th Street Viaduct,"",Bridge,"Infrastructure, bridge","","","","Central Harlem North/Polo Grounds, West Concourse","spanning the Harlem River between West 155th Street and Saint Nicholas Place, Manhattan, and Jerome Avenue and East 162nd Street, the Bronx",40.828793,-73.934,Point,610,1078,0,0,0,9273.206,297131.7,http://www1.nyc.gov/assets/lpc/images/content/designations/1629.jpg
Flatiron Building,"",Office Building,"Commercial, office building",Commercial,"",Manhattan,"Hudson Yards, Chelsea, Flatiron, Union Square",Broadway and Fifth Avenue at 23rd Street,40.741,-73.989655,Point,1440,304,851,1,1008510001,535.0796,10029.677,http://www1.nyc.gov/assets/lpc/images/content/designations/0219.jpg
Down Town Association Building,"",Club,"Institutional, private club","","",Manhattan,Financial District,60 Pine Street,40.706734,-74.00817,Point,1529,394,41,15,1000410015,417.1883,9220.771,http://www1.nyc.gov/assets/lpc/images/content/designations/1950.jpg
People's Trust Company Building,"",Bank,Bank,"","",Brooklyn,Brooklyn Heights,181 Montague Street,40.69439,-73.99198,Point,201,0,244,15,3002440015,0.0,0.0,http://www1.nyc.gov/assets/lpc/images/content/designations/2586.jpg
Consolidated Edison Company Building,"",Skyscraper,"Commercial, office building","","",Manhattan,Union Square,4 Irving Place,40.734077,-73.98792,Point,143,1350,870,24,1008700024,1089.3756,69606.69,http://www1.nyc.gov/assets/lpc/images/content/designations/2313.jpg
Riverdale Presbyterian Chapel,now Edgehill Church of Spuyten Duyvil,Church,"Religious, church, Presbyterian","Religious, church, United Church of Christ","",The Bronx,Spuyten Duyvil,2550 Independence Avenue,40.880306,-73.92044,Point,503,970,5743,15,2057430015,348.49332,5888.175,http://www1.nyc.gov/assets/lpc/images/content/designations/1086.jpg
The Cyclone,"",Amuseument,"Recreational, amusement, roller coster","","",Brooklyn,Coney Island,834 Surf Avenue,40.574604,-73.97768,Point,663,1131,8697,4,3086970004,1065.6699,27205.588,http://www1.nyc.gov/assets/lpc/images/content/designations/1636.jpg
Fire Engine Company 55,"",Fire Station,"Civic, fire station","","",Manhattan,"SoHo, Tribeca, Civic Center, Little Italy",363 Broome Street,40.719822,-73.995766,Point,933,599,470,12,1004700012,261.81042,2580.7676,http://www1.nyc.gov/assets/lpc/images/content/designations/1987.jpg
Lawrence Graveyard,"",Cemetery,Cemetery,"","",Queens,"Bayside, Bayside Hills",216th Street at 42nd Avenue,40.76334,-73.76683,Point,1229,93,6290,100,4062900100,606.73553,22727.553,http://www1.nyc.gov/assets/lpc/images/content/designations/0630.jpg
Greenwich Savings Bank,"",Bank,"Commercial, bank","","",Manhattan,Midtown/Midtown South,1352-1362 Broadway,40.751465,-73.98715,Point,1417,281,812,29,1008120029,576.5914,18543.06,http://www1.nyc.gov/assets/lpc/images/content/designations/1766.jpg
Puck Building,"",Store and Lofts,"Commercial, store and lofts","","",Manhattan,"SoHo, Tribeca, Civic Center, Little Italy",295-309 Lafayette Street,40.72454,-73.9954,Point,1505,370,510,7502,1005107502,701.80286,24711.295,http://www1.nyc.gov/assets/lpc/images/content/designations/1226.jpg
William Ulmer Brewery Complex,"",Factory,"Industrial, factory, brewery","","",Brooklyn,Bushwick,"71-83 Beaver Street, 31-47 Belvidere Street, 26-28 Locust Street",40.69928,-73.93689,Point,140,1347,3135,0,0,1111.0621,25145.08,http://www1.nyc.gov/assets/lpc/images/content/designations/2280.jpg
18 Fulton Street Building,"",Countinghouse,"Commercial, countinghouse","Commercial, Retail","",Manhattan,South Street Seaport,18 Fulton Street,40.70678,-74.003815,Point,537,1004,74,1,1000740001,98.55344,574.1891,http://www1.nyc.gov/assets/lpc/images/content/designations/0059.jpg
Saint Jean Baptiste Church,"",Church,"Religious, church, Roman Catholic","","",Manhattan,Upper East Side/Carnegie Hill,1067-1071 Lexington Avenue,40.772648,-73.96004,Point,807,472,1410,53,1014100053,608.0211,20808.785,http://www1.nyc.gov/assets/lpc/images/content/designations/0420.jpg
Union Theological Seminary,"encompassing Brown Memorial Tower, James Tower, and James Memorial Chapel",Church Seminary,"Religious, seminary, Protestant","","",Manhattan,Morningside Heights,Broadway and Niebuhr Place,40.811333,-73.962395,Point,8,1215,1992,13,1019920013,582.33136,8988.258,http://www1.nyc.gov/assets/lpc/images/content/designations/0595.jpg
New York City Police Headquarters,now the Police Building Apartments,Police Station,"Civic, police station",res,"",Manhattan,"SoHo, Tribeca, Civic Center, Little Italy",240 Centre Street,40.72017,-73.99792,Point,1260,124,472,7501,1004727501,954.0443,28965.857,http://www1.nyc.gov/assets/lpc/images/content/designations/0999.jpg
Fred F. French Building,"",Office Building,"Commercial, office building","","",Manhattan,Midtown/Midtown South,551 Fifth Avenue,40.755394,-73.978874,Point,1391,255,1281,1,1012810001,614.43225,20067.404,http://www1.nyc.gov/assets/lpc/images/content/designations/1415.jpg
Emmanuel Baptist Church,"",Church,"Religious, church, Baptist","Religious, school","",Brooklyn,Clinton Hill,279 Lafayette Avenue,40.68857,-73.96526,Point,403,869,1932,42,3019320042,556.36444,16854.768,http://www1.nyc.gov/assets/lpc/images/content/designations/0160.jpg
Gorham Building,"",Office Building,"Commercial, office building","","",Manhattan,Midtown/Midtown South,390 Fifth Avenue,40.749756,-73.98417,Point,1388,252,837,48,1008370048,561.9429,14354.413,http://www1.nyc.gov/assets/lpc/images/content/designations/2027.jpg
"New York Public Library, Woodstock Branch","",Library,"Civic, library","","",The Bronx,Morrisania,761 East 160th Street,40.8207,-73.90461,Point,479,946,2657,30,2026570030,392.4028,7359.597,http://www1.nyc.gov/assets/lpc/images/content/designations/2322.jpg
Second Battery Armory,"",Armory,"Civic, armory","","",The Bronx,"Morissania, Melrose",1122 Franklin Avenue,40.828167,-73.90527,Point,497,964,2613,1,2026130001,1078.3331,65864.086,http://www1.nyc.gov/assets/lpc/images/content/designations/1794.jpg
159-163 John Street Building,"",Countinghouse,"Commercial, countinghouse","Commercial, Retail","",Manhattan,South Street Seaport,159-163 John Street,40.70653,-74.00413,Point,550,1017,74,1,1000740001,248.77777,3333.3723,http://www1.nyc.gov/assets/lpc/images/content/designations/0072.jpg
Mecca Temple,now the City Center 55th Street Theater,Club,"Institutional, private club","Commercial, Theater","",Manhattan,Midtown West/Theatre District,131 West 55th Street,40.76394,-73.9794,Point,1035,701,1008,15,1010080015,714.2465,26223.299,http://www1.nyc.gov/assets/lpc/images/content/designations/1234.jpg
Richmond Hill Republican Club,"",Club,"Institutional, club","","",Queens,Richmond Hill,86-15 Lefferts Boulevard,40.700916,-73.83102,Point,1234,98,9273,89,4092730089,359.39517,7886.572,http://www1.nyc.gov/assets/lpc/images/content/designations/2126.jpg
Louis H. Chalif Normal School of Dancing,"",School,"Institutional, school","","",Manhattan,Midtown West/Theatre District,163-165 West 57th Street,40.765533,-73.97931,Point,1470,335,1010,5,1010100005,290.93243,4203.174,http://www1.nyc.gov/assets/lpc/images/content/designations/2041.jpg
"Barkin, Levin & Company Office Pavilion","",Office Building,"Commercial, offices","","",Queens,Astoria,12-12 33rd Avenue,40.76611,-73.93544,Point,332,0,522,29,4005220029,0.0,0.0,http://www1.nyc.gov/assets/lpc/images/content/designations/2675.jpg
Springs Mills Building,"",Office Building,"Commercial, office building","","",Manhattan,Midtown,104 West 40th Street,40.753475,-73.98589,Point,775,440,815,21,1008150021,645.14374,14954.483,http://www1.nyc.gov/assets/lpc/images/content/designations/2385.jpg
General Electric Building,"",Office Building,"Commercial, office building","","",Manhattan,Turtle Bay/East Midtown,570 Lexington Avenue,40.757088,-73.972404,Point,1068,734,1305,60,1013050060,551.48346,16481.977,http://www1.nyc.gov/assets/lpc/images/content/designations/1412.jpg
Flushing Town Hall,"designated as Flushing Municipal Courthouse, now Flushing Council on Culture and the Arts",City Hall,"Civic, city hall","Civic, courthouse","",Queens,Flushing,137-35 Northern Boulevard,40.76391,-73.83002,Point,1224,88,4960,1,4049600001,546.37256,18541.656,http://www1.nyc.gov/assets/lpc/images/content/designations/0139.jpg
Public School 39,also known as the Henry Bristow School,School,"Civic, school","","",Brooklyn,Park Slope,417 6th Avenue,40.668655,-73.98291,Point,385,851,1000,1,3010000001,569.08746,18716.48,http://www1.nyc.gov/assets/lpc/images/content/designations/0952.jpg
Eleventh Street Methodist Episcopal Chapel,"later People's Home Church and Settlement, now the Father's Heart Church",Church,"Religious, church, Methodist","","",Manhattan,Lower East Side,545-547 East 11th Street,40.727856,-73.979774,Point,938,604,405,39,1004050039,293.43274,4314.874,http://www1.nyc.gov/assets/lpc/images/content/designations/2398.jpg
Memorial Church of the Huguenots,now the Reformed Church of Huguenot Park,Church,"Religious, church","Religious, assembly hall","Civic, library",Staten Island,Prince's Bay,5475 Amboy Road,40.531883,-74.19244,Point,1194,58,6815,59,5068150059,896.9697,45261.51,http://www1.nyc.gov/assets/lpc/images/content/designations/1772.jpg
Bennett Building,"",Office Building,"Commercial, office building","","",Manhattan,Tribeca,99 Nassau Street,40.710526,-74.00772,Point,1519,384,89,1,1000890001,455.33026,10911.381,http://www1.nyc.gov/assets/lpc/images/content/designations/1937.jpg
840 Broadway Building,"",Apartments and Commercial,"Commercial, store and lofts","","",Manhattan,Union Square South,840 Broadway (aka 64-70 East 13th Street),40.733746,-73.99073,Point,288,0,564,41,1005640041,0.0,0.0,http://www1.nyc.gov/assets/lpc/images/content/designations/2619.jpg
Montauk Paint Manufacturing Company Building,"",Factory,Industrial,"","",Brooklyn,Gowanus,170 2nd Avenue,40.67045,-73.99555,Point,302,0,1025,49,3010250049,0.0,0.0,http://www1.nyc.gov/assets/lpc/images/content/designations/2641.jpg
Edgewater Village Hall,"",City Hall,"Civic, city hall","","",Staten Island,Edgewater,111 Canal Street in Tappan Park,40.626778,-74.077354,Point,713,1181,523,1,5005230001,274.74557,3725.7087,http://www1.nyc.gov/assets/lpc/images/content/designations/0350.jpg
City Bank-Farmers Trust Company Building,"",Office Building,"Commercial, office building","","",Manhattan,Financial District,20 Exchange Place,40.70547,-74.00957,Point,1253,117,27,7502,1000277502,682.81915,26353.69,http://www1.nyc.gov/assets/lpc/images/content/designations/1941.jpg
The Riverside Church,Designated,"",Church,"Religious, church","",1,Individual Landmark,490-498 Riverside Drive,40.81203,-73.96303,Point,106,1313,1991,32,1019910032,,999.95825,http://s-media.nyc.gov/agencies/lpc/lp/2037.pdf
Anshe Chesed Synagogue,later Anshe Slonim,Synagogue,"Religious, synagogue",Visual and performing arts center,"",Manhattan,Lower East Side,172-176 Norfolk Street,40.72115,-73.98567,Point,1370,234,355,41,1003550041,355.08023,7681.9697,http://www1.nyc.gov/assets/lpc/images/content/designations/1440.jpg
"New York Curb Exchange, incorporating the New York Curb Market Building",later known as the American Stock Exchange,Stock Exchange,"Commercial, stock exchange","","",Manhattan,"",86 Trinity Place,40.708767,-74.012825,Point,1458,322,51,13,1000510013,693.53156,27182.215,http://www1.nyc.gov/assets/lpc/images/content/designations/2515.jpg
Carroll Street Bridge,"",Bridge,"Infrastructure, bridge","","",Brooklyn,Carroll Gardens,spanning the Gowanus Canal,40.678223,-73.98929,Point,79,1286,0,0,0,559.04016,14664.476,http://www1.nyc.gov/assets/lpc/images/content/designations/1553.jpg
"Fort Hamilton Parkway Entrance and Green-Wood Cemetery Chapel, Green-Wood Cemetery","",Entrance Structures & Chapel,"Institutional, cemetery, religious","","",Brooklyn,Sunset Park,500 25th Street,40.64718,-73.98242,Point,169,1376,902,1,3009020001,0.0,0.0,http://www1.nyc.gov/assets/lpc/images/content/designations/1233.jpg
New York and New Jersey Telephone and Telegraph Building,"",Office Building,"Commercial, office building","","",Brooklyn,"Downtown Brooklyn, Boerum Hill",81 Willoughby Street,40.692406,-73.98597,Point,357,823,148,46,3001480046,436.2605,11883.235,http://www1.nyc.gov/assets/lpc/images/content/designations/2156.jpg
Brooklyn Institute of Arts and Sciences,now the Brooklyn Museum,Museum,"Institutional, museum","","",Brooklyn,Brooklyn,200 Eastern Parkway at Washington Avenue,40.670506,-73.96369,Point,689,1157,1183,26,3011830026,2982.979,522111.94,http://www1.nyc.gov/assets/lpc/images/content/designations/0155.jpg
East River Savings Bank,"",Bank,"Commercial, bank","","",Manhattan,Upper West Side,743 Amsterdam Avenue,40.794186,-73.96989,Point,989,655,1851,1,1018510001,438.48883,10999.956,http://www1.nyc.gov/assets/lpc/images/content/designations/1980.jpg
Bankers Trust Building,14 Wall Street Building,Office Building,"Commercial, office building","","",Manhattan,Battery Park City/Lower Manhattan,14 Wall Street,40.707638,-74.010765,Point,1528,393,46,9,1000460009,779.7114,36024.797,http://www1.nyc.gov/assets/lpc/images/content/designations/1949.jpg
The Cloisters,"",Museum,"Institutional, museum","Religious, cloister","",Manhattan,"Washington Heights, Inwood",Fort Tryon Park,40.86484,-73.93186,Point,669,1137,2179,701,1021790701,1076.752,41386.35,http://www1.nyc.gov/assets/lpc/images/content/designations/0835.jpg
287 Broadway Building,"",Store and Lofts,"Commercial, store and lofts","Retail, Residential","",Manhattan,Civic Center,287 Broadway,40.714714,-74.00624,Point,740,405,149,29,1001490029,258.20023,2802.4773,http://www1.nyc.gov/assets/lpc/images/content/designations/1649.jpg
Soldiers' and Sailors' Monument,"based on aerial photos\"","","",Monument,"Civic, monument",http://www1.nyc.gov/assets/lpc/images/content/designations/0932.jpg,2.12E+11,Riverside Drive at West 89th Street,40.792057,-73.97895,Point,32,1239,1254,1,1012540001,,,1897 - 1902
"Laboratory Administration Building, Brooklyn Botanic Garden","",Laboratory,"Institutional, botanic garden, research facility","","",Brooklyn,"",1000 Washington Avenue,40.66757,-73.96216,Point,659,1127,1183,1,3011830001,755.5063,18097.227,http://www1.nyc.gov/assets/lpc/images/content/designations/2214.jpg
Whitehall Ferry Terminal,now the Battery Maritime Building,Ferry Terminal,"Infrastructure, ferry terminal",Ferry Terminal,"",Manhattan,Battery Park,11 South Street,40.701057,-74.01172,Point,667,1135,2,2,1000020002,1088.3623,56371.973,http://www1.nyc.gov/assets/lpc/images/content/designations/0547.jpg
Graybar Building,"",Office Building,"Commercial, office building",Office Building,"",Manhattan,Midtown East,420 Lexington Avenue,40.75269,-73.975845,Point,186,0,1280,60,1012800060,0.0,0.0,http://www1.nyc.gov/assets/lpc/images/content/designations/2554.jpg
Saint Patrick's Cathedral Complex,"",Church,"Religious, church, Roman Catholic","Church, Roman Catholic","",Manhattan,Midtown/Midtown South,Fifth Avenue between East 50th and 51st Street,40.758514,-73.97616,Point,907,573,1286,1,1012860001,1260.7456,87605.266,http://www1.nyc.gov/assets/lpc/images/content/designations/0267.jpg
Public School 48,"",School,"Civic, school","","",Queens,Jamaica,155-02 108th Avenue (aka 155-02 - 156-00; 108-01 - 108-03 155th Street),40.69401,-73.796555,Point,312,0,10144,42,4101440042,0.0,0.0,http://www1.nyc.gov/assets/lpc/images/content/designations/2646.jpg
14th Regiment Armory,"",Armory,"Civic, armory","","",Brooklyn,"Park Slope, Gowanus",1402 8th Avenue,40.66291,-73.982925,Point,351,817,1102,12,3011020012,1524.9655,114845.766,http://www1.nyc.gov/assets/lpc/images/content/designations/1965.jpg
Church of Saint Ignatius Loyola,"",Church,"Religious, church, Roman Catholic","","",Manhattan,Upper East Side/Carnegie Hill,980 Park Avenue,40.77891,-73.95885,Point,727,1195,1495,33,1014950033,610.8402,17951.951,http://www1.nyc.gov/assets/lpc/images/content/designations/0431.jpg
International Mercantile Marine Company Building,"",Office Building,"Commercial, office building","","",Manhattan,Battery Park,1 Broadway,40.70496,-74.01445,Point,1249,113,13,1,1000130001,563.2594,18200.078,http://www1.nyc.gov/assets/lpc/images/content/designations/1926.jpg
"New York Free Circulating Library, Ottendorfer Branch",Lot 37,"",Queen Anne/Renaissance Revival,"",Library,http://s-media.nyc.gov/agencies/lpc/lp/0969.pdf,LP-0969,135 Second Avenue,40.728924,-73.987785,Point,578,1045,464,39,1004640039,,,""
Bowling Green Fence,"",Fence,"Civic, recreational, park",Fence,"",Manhattan,Battery Park,Bowling Green Park,40.705013,-74.01364,Point,633,1101,12,28,1000120028,1090.8624,2727.1377,http://www1.nyc.gov/assets/lpc/images/content/designations/0548.jpg
Condict Store,also known as 55 White Street Building,Store and Lofts,"Commercial, store and lofts","","",Manhattan,Civic Center,55 White Street,40.71821,-74.003944,Point,946,612,175,7503,1001757503,329.88556,6253.432,http://www1.nyc.gov/assets/lpc/images/content/designations/1651.jpg
Saint Alban's Episcopal Church,originally the Church of the Holy Comforter,Church,"Religious, church, Episcopal","","",Staten Island,Great Kills,76 Saint Alban's Place,40.54386,-74.16069,Point,45,1252,5239,48,5052390048,286.72598,2777.532,http://www1.nyc.gov/assets/lpc/images/content/designations/1113.jpg
Joseph Rodman Drake Park and Enslaved People's Burial Ground,"",Cemetery,Cemetery,Park,"",The Bronx,Hunts Point,"Oak Point Avenue, Drake Park South, Longfellow Avenue, and Hunts Point Avenue",40.81029,-73.88252,Point,330,0,2772,170,1027720170,0.0,0.0,http://www1.nyc.gov/assets/lpc/images/content/designations/2674.jpg
Unisphere and Surrounding Reflecting Pool,"",Monument,"Civic, recreational, park, monument","","",Queens,Corona,Flushing Meadows-Corona Park,40.746403,-73.84507,Point,664,1132,2018,1,4020180001,1000.61584,79566.31,http://www1.nyc.gov/assets/lpc/images/content/designations/1925.jpg
Rossville A.M.E. Zion Church Cemetery,"",Cemetery,Cemetery,"","",Staten Island,Sandy Ground,Crabtree Avenue,40.54127,-74.22038,Point,1186,50,7092,22,5070920022,1057.9979,67527.695,http://www1.nyc.gov/assets/lpc/images/content/designations/1399.jpg
Old Saint James Episcopal Church (Old Saint James Parish Hall),"",Church,"Religious, church, Episcopal","","",Queens,Elmhurst,86-02 Broadway,40.738403,-73.87763,Point,204,0,1549,1,4015490001,0.0,0.0,http://www1.nyc.gov/assets/lpc/images/content/designations/2593.jpg
"Sailors' Snug Harbor, Chapel",now Veterans Memorial Hall,Church,"Religious, church","Civic, memorial hall","",Staten Island,"West New Brighton, New Brighton, St. George",912 Richmond Terrace,40.643158,-74.101494,Point,531,998,76,200,5000760200,291.66144,4086.911,http://www1.nyc.gov/assets/lpc/images/content/designations/0027.jpg
Rockefeller Center,"",Skyscraper,"Commercial, office building","","",Manhattan,Midtown/Midtown South,Rockefeller Center,40.759083,-73.979,Point,603,1070,0,0,0,7333.9546,563437.0,http://www1.nyc.gov/assets/lpc/images/content/designations/1446.jpg
Erlanger Theater,now the Saint James Theater,Theater,"Commercial, theater",Theater,"",Manhattan,Theatre District,246-256 West 44th Street,40.758007,-73.98816,Point,803,468,1015,54,1010150054,456.8364,12884.601,http://www1.nyc.gov/assets/lpc/images/content/designations/1374.jpg
Holland Plaza Building,"",Lofts,"Industrial, lofts","","",Manhattan,"",75 Varick Street,40.72345,-74.00682,Point,925,591,226,1,1002260001,1115.9065,64117.176,http://www1.nyc.gov/assets/lpc/images/content/designations/2537.jpg
Germania Life Insurance Company Building,now the W Hotel,Office Building,"Commercial, office building",Hotel,"",Manhattan,Union Square,50 Union Square East,40.7366,-73.98856,Point,1261,125,873,1,1008730001,415.29965,10343.503,http://www1.nyc.gov/assets/lpc/images/content/designations/1541.jpg
Dime Savings Bank,"",Bank,"Commercial, bank","","",Brooklyn,Downtown Brooklyn,9 DeKalb Avenue,40.690308,-73.98249,Point,95,1302,0,0,0,739.0341,29776.31,http://www1.nyc.gov/assets/lpc/images/content/designations/1907.jpg
Astoria Park Pool and Play Center,"",Pool,"Civic, recreation, pool","","",Queens,Astoria,19th Street between 22nd Drive and Hoyt Avenue North,40.779217,-73.922485,Point,126,1333,898,1,4008980001,5426.494,1345532.8,http://www1.nyc.gov/assets/lpc/images/content/designations/2196.jpg
817 Broadway Building,"",Store and Lofts,"Commercial, store and lofts","","",Manhattan,Union Square South,817 Broadway (aka 817-819 Broadway; 48-54 East 12th Street),40.733192,-73.99148,Point,293,0,563,31,1005630031,0.0,0.0,http://www1.nyc.gov/assets/lpc/images/content/designations/2614.jpg
Equitable Building,"",Office Building,"Commercial, office building","","",Manhattan,Financial District,120 Broadway,40.70823,-74.01052,Point,1060,726,47,7501,1000477501,969.9912,52664.242,http://www1.nyc.gov/assets/lpc/images/content/designations/1935.jpg
Beaver Building,later the New York Coca Exchange Building,Office Building,"Commercial, office building","","",Manhattan,Financial District,82-92 Beaver Street/1 Wall Street Court,40.705223,-74.00853,Point,1250,114,28,7501,1000287501,387.33615,7957.92,http://www1.nyc.gov/assets/lpc/images/content/designations/1942.jpg
Brooklyn City Railroad Company Building,"",Office Building,"Commercial, office building","","",Brooklyn,Fulton Ferry,8 Cadman Plaza West (Old Fulton Street),40.702595,-73.99472,Point,17,1224,200,5,3002000005,510.43414,8655.72,http://www1.nyc.gov/assets/lpc/images/content/designations/0718.jpg
"New York & Long Island Coignet Stone Company Building, Amendment to Landmark Site","",Office Building,"Commercial, office building","","",Brooklyn,Gowanus,360 3rd Avenue,40.675022,-73.98831,Point,129,1336,978,0,0,213.4002,2263.5254,http://www1.nyc.gov/assets/lpc/images/content/designations/2202A.jpg
Public School 166,"",School,"Civic, school","","",Manhattan,Upper West Side,132 West 89th Street,40.788933,-73.972565,Point,979,645,1219,47,1012190047,699.1842,25336.322,http://www1.nyc.gov/assets/lpc/images/content/designations/2072.jpg
Pike Street Synagogue,"",Synagogue,"Religious, synagogue",Buddhist Temple,"",Manhattan,Lower East Side,13 Pike Street,40.71358,-73.992165,Point,1039,705,283,45,1002830045,278.86523,4538.668,http://www1.nyc.gov/assets/lpc/images/content/designations/1960.jpg
1 Wall Street Building,now the Bank of New York,Office Building,"Commercial, office building","","",Manhattan,Financial District,1 Wall Street,40.70736,-74.01166,Point,105,1312,23,7,1000230007,594.74817,21159.535,http://www1.nyc.gov/assets/lpc/images/content/designations/2029.jpg
827-831 Broadway Buildings,"",Commercial Palace,"Commercial, store",Artists' Studio and Residence,"",Manhattan,East Village,827-831 Broadway,40.733753,-73.9913,Point,207,0,0,0,0,0.0,0.0,http://www1.nyc.gov/assets/lpc/images/content/designations/2594.jpg
Gotham Hotel,now the Peninsula Hotel,Hotel,"Commercial, hotel","","",Manhattan,Midtown/Midtown South,696-700 Fifth Avenue,40.76164,-73.9754,Point,337,803,1270,38,1012700038,489.74023,14832.455,http://www1.nyc.gov/assets/lpc/images/content/designations/1697.jpg
Fort Richmond,now Battery Weed,Fort,"Civic, fort","","",Staten Island,"Grasmere, Arrochar, Fort Wadsworth",Fort Wadsworth Reservation,40.60551,-74.05421,Point,720,1188,3128,1,5031280001,1230.5278,57557.31,http://www1.nyc.gov/assets/lpc/images/content/designations/0379.jpg
Public School 28,"",School,"Civic, school","Institutional, museum","",Staten Island,Richmondtown,276 Center Street,40.570827,-74.144325,Point,104,1311,4441,1,5044410001,953.2924,54820.56,http://www1.nyc.gov/assets/lpc/images/content/designations/2021.jpg
Edward Ridley & Sons Department Store Buildings,"",Department Store,"Commercial, retail, store","","",Manhattan,Lower East Side,315-317 Grand Street and 319-321 Grand Street,40.717102,-73.99103,Point,568,1035,308,0,0,329.69562,6732.1206,http://www1.nyc.gov/assets/lpc/images/content/designations/2397.jpg
Yorkville Bank Building,"",Bank,"Commercial, bank","","",Manhattan,Yorkville,1511 Third Avenue,40.778164,-73.953995,Point,1112,778,1531,1,1015310001,474.04208,10989.759,http://www1.nyc.gov/assets/lpc/images/content/designations/2510.jpg
"R. H. Macy & Co. Store, 14th Street Annex","",Department Store,"Commercial, retail, store","","",Manhattan,Ladies' Mile,56 West 14th Street,40.736847,-73.996346,Point,1349,213,577,12,1005770012,269.8886,2708.4707,http://www1.nyc.gov/assets/lpc/images/content/designations/2474.jpg
Aschenbroedel Verein Building,"later Gesangverein Schillerbund, now La Mama Experimental Theatre Club",Cultural Center,"Institutional, cultural center","Commercial, theater","",Manhattan,East Village,74 East 4th Street,40.7263,-73.99023,Point,1493,358,459,23,1004590023,241.03508,2405.511,http://www1.nyc.gov/assets/lpc/images/content/designations/2328.jpg
Wonder Wheel,"",Amuseument,"Recreational, amusement","","",Brooklyn,Coney Island,3059 West 12th Street,40.574062,-73.97919,Point,401,867,8696,145,3086960145,1288.6567,40807.965,http://www1.nyc.gov/assets/lpc/images/content/designations/1708.jpg
Dollar Savings Bank,"",Bank,"Commercial, bank","Religious, church, Seventh Day Adventist","",The Bronx,"",2792 Third Avenue,40.815067,-73.91896,Point,476,943,2307,54,2023070054,378.64426,8213.028,http://www1.nyc.gov/assets/lpc/images/content/designations/2370.jpg
Public School 15,"",School,"Civic, school","","",The Bronx,"Eastchester, Edenwald, Baychester",4010 Dyre Avenue,40.890945,-73.83062,Point,508,975,4970,10,2049700010,784.5615,38319.562,http://www1.nyc.gov/assets/lpc/images/content/designations/0976.jpg
Grammar School No. 9,"later Public School 9 John Jasper School, now Mickey Mantle School Public School 811M",School,"Civic, school","","",Manhattan,Upper West Side,460-466 West End Avenue,40.78634,-73.97922,Point,1036,702,1230,1,1012300001,508.39166,15629.373,http://www1.nyc.gov/assets/lpc/images/content/designations/2318.jpg
Manufacturers Hanover Trust Building,"",Office Building,"Commercial, office building",Office Building,"",Manhattan,Midtown/Midtown South,600 Fifth Avenue,40.757774,-73.97848,Point,602,1069,1264,0,0,860.4737,27167.713,http://www1.nyc.gov/assets/lpc/images/content/designations/1447.jpg
Plymouth Theater,now the Gerard Schoenfeld Theater,Theater,"Commercial, theater",Theater,"",Manhattan,Theatre District,236 West 45th Street,40.758514,-73.98743,Point,739,404,1016,51,1010160051,401.67624,10074.562,http://www1.nyc.gov/assets/lpc/images/content/designations/1368.jpg
"New York Public Library, Muhlenberg Branch","",Library,"Civic, library","","",Manhattan,Chelsea,209-211 West 23rd Street,40.744537,-73.99594,Point,1264,128,773,38,1007730038,306.0784,4383.542,http://www1.nyc.gov/assets/lpc/images/content/designations/2060.jpg
Public National Bank of New York Building,later Public National Bank & Trust Company of New York Building,Bank,"Commercial, bank","","",Manhattan,East Village,106 Avenue C,40.724144,-73.97859,Point,1433,297,377,72,1003770072,179.68794,1975.0747,http://www1.nyc.gov/assets/lpc/images/content/designations/2263.jpg
Public School 91,now Public School 11,School,"Civic, school","","",The Bronx,Highbridge,1257 Ogden Avenue,40.83978,-73.92594,Point,487,954,2529,81,2025290081,901.86176,43991.977,http://www1.nyc.gov/assets/lpc/images/content/designations/1179.jpg
Haffen Building,"",Office Building,"Commercial, office building","","",The Bronx,Melrose,2804-2808 Third Avenue,40.81525,-73.91873,Point,505,972,2307,59,2023070059,200.39139,2569.492,http://www1.nyc.gov/assets/lpc/images/content/designations/2388.jpg
92 South Street Building,"",Countinghouse,"Commercial, countinghouse","Commercial, Retail",Hotel; Restaurant,Manhattan,South Street Seaport,92 South Street,40.706284,-74.00347,Point,546,1013,74,1,1000740001,180.06209,1233.4259,http://www1.nyc.gov/assets/lpc/images/content/designations/0068.jpg
Apollo Theater,originally Hurtig & Seamon's New (Burlesque) Theater,Theater,"Commercial, theater","","",Manhattan,Harlem,253 West 125th Street,40.810154,-73.949844,Point,958,624,1931,10,1019310010,657.1137,17564.596,http://www1.nyc.gov/assets/lpc/images/content/designations/1299.jpg
"New York Public Library, Schomburg Collection for Research in Black Culture",originally 135th Street Branch,Library,"Civic, library","","",Manhattan,Harlem,103 West 135th Street,40.81476,-73.941216,Point,967,633,1920,26,1019200026,545.47766,11602.248,http://www1.nyc.gov/assets/lpc/images/content/designations/1133.jpg
"Begrisch Hall, New York University",now Bronx Community College,School,"Institutional, school, university","","",The Bronx,"University Heights, Morris Heights",2050 Sedgewick Avenue,40.857735,-73.91483,Point,557,1024,3222,62,2032220062,474.0118,7323.824,http://www1.nyc.gov/assets/lpc/images/content/designations/2110.jpg
Strecker Laboratory,"",Laboratory,"Institutional, hospital, laboratory","","",Manhattan,Roosevelt Island,"Roosevelt Island, located approximately opposite East 52nd Street",40.752266,-73.95823,Point,676,1144,1373,1,1013730001,195.24118,1863.5359,http://www1.nyc.gov/assets/lpc/images/content/designations/0909.jpg
Public School 9,"later Public School 111, now Public School 340",School,"Civic, school","","",Brooklyn,Prospect Heights,249 Sterling Place,40.67627,-73.96979,Point,428,894,1164,57,3011640057,538.4988,18045.393,http://www1.nyc.gov/assets/lpc/images/content/designations/0975.jpg
167-171 John Street Building,"",Countinghouse,"Commercial, countinghouse","Commercial, Retail","",Manhattan,South Street Seaport,167-171 John Street,40.706364,-74.00383,Point,548,1015,74,1,1000740001,265.6673,4378.9854,http://www1.nyc.gov/assets/lpc/images/content/designations/0070.jpg
Saint John's Church,"now University Chapel, designated as Fordham University Chapel",Church,"Religious, church, Roman Catholic","Institutional, school, university","",The Bronx,Belmont,"Fordham University, East Forham Road and East 191st Street",40.86355,-73.88644,Point,625,1093,3273,1,2032730001,572.05853,12066.042,http://www1.nyc.gov/assets/lpc/images/content/designations/0117.jpg
Squadron A Armory,"",Armory,"Civic, armory","","",Manhattan,Upper East Side/Carnegie Hill,Madison Avenue between East 94th and 95th Streets,40.78617,-73.95472,Point,723,1191,1506,21,1015060021,597.36365,4046.1108,http://www1.nyc.gov/assets/lpc/images/content/designations/0398.jpg
Aberdeen Hotel,"",Hotel,"Commercial, hotel",Hotel,"",Manhattan,Midtown/Midtown South,17 West 32nd Street,40.74783,-73.98651,Point,1091,757,834,29,1008340029,352.0565,7544.749,http://www1.nyc.gov/assets/lpc/images/content/designations/2076.jpg
"Queens Borough Public Library, Poppenhusen Branch","",Library,"Civic, library","","",Queens,College Point,121-23 14th Avenue,40.786224,-73.846016,Point,1220,84,4042,113,4040420113,401.16165,10035.425,http://www1.nyc.gov/assets/lpc/images/content/designations/2045.jpg
United States Rubber Company Building,"",Office Building,"Commercial, office building","","",Manhattan,Midtown West,1790 Broadway,40.76675,-73.981415,Point,1523,388,1029,53,1010290053,428.79678,11082.011,http://www1.nyc.gov/assets/lpc/images/content/designations/2078.jpg
39 Worth Street Building,"",Store and Lofts,"Commercial, store and lofts","","",Manhattan,Tribeca,39 Worth Street,40.717678,-74.007,Point,1295,159,176,11,1001760011,253.64655,2580.3452,http://www1.nyc.gov/assets/lpc/images/content/designations/2539.jpg
Public School 65K,"",School,"Civic, school","","",Brooklyn,Bushwick,158 Richmond Street,40.683407,-73.87726,Point,437,903,4126,47,3041260047,508.49982,15424.997,http://www1.nyc.gov/assets/lpc/images/content/designations/2007.jpg
Coty Building,"later the Rizzoli Building, now part of the Henri Bendel Store",Store,"Commercial, retail, store","","",Manhattan,Union Square,714 Fifth Avenue,40.762222,-73.97494,Point,78,1285,1271,39,1012710039,277.57004,3295.7117,http://www1.nyc.gov/assets/lpc/images/content/designations/1534.jpg
Magen David Synagogue,"",Synagogue,"Religious, synagogue","","",Brooklyn,Bensonhurst,2017 67th Street,40.615166,-73.98627,Point,394,860,5563,68,3055630068,366.43042,8285.293,http://www1.nyc.gov/assets/lpc/images/content/designations/2090.jpg
Church of Saint Paul the Apostle,"",Church,"Religious, church, Roman Catholic","","",Manhattan,"",8 Columbus Avenue,40.769882,-73.985085,Point,587,1054,1131,31,1011310031,835.37976,34614.71,http://www1.nyc.gov/assets/lpc/images/content/designations/2260A.jpg
Western Union Building,"",Office Building,"Commercial, office building",Office bldg,"",Manhattan,Tribeca,60 Hudson Street,40.717663,-74.00834,Point,1348,212,144,40,1001440040,981.1112,54919.17,http://www1.nyc.gov/assets/lpc/images/content/designations/1749.jpg
David S. Brown Store,also known as the 8 Thomas Street Building,Store and Lofts,"Commercial, store and lofts","","",Manhattan,Civic Center,8 Thomas Street,40.71585,-74.00558,Point,1352,216,151,7501,1001517501,209.12555,1857.4373,http://www1.nyc.gov/assets/lpc/images/content/designations/1010.jpg
Holyrood Episcopal Church-Iglesia Santa Cruz,"",Church,"Religious, church","","",Manhattan,Washington Heights,715 West 179th Street (aka 715-721 West 179th Street; 426-434 Fort Washington Avenue),40.849438,-73.938416,Point,316,0,2176,30,1021760030,0.0,0.0,http://www1.nyc.gov/assets/lpc/images/content/designations/2649.jpg
369th Regiment Armory,"",Armory,"Civic, armory","","",Manhattan,Harlem,2360 Fifth Avenue,40.81789,-73.935165,Point,897,563,1740,17,1017400017,1386.2404,100527.016,http://www1.nyc.gov/assets/lpc/images/content/designations/1390.jpg
Offerman Building,"",Department Store,"Commercial, retail, store","","",Brooklyn,Downtown Brooklyn,"503-513 Fulton Street, 234-248 Duffield Street",40.690918,-73.98475,Point,123,1330,145,1,3001450001,769.28314,26490.041,http://www1.nyc.gov/assets/lpc/images/content/designations/2169.jpg
Bond Street Savings Bank,now the Bouwerie Lane Theatre,Bank,"Commercial, bank",Theatre,"",Manhattan,East Village,330 Bowery,40.72592,-73.99237,Point,819,484,530,7507,1005307507,273.656,2964.0327,http://www1.nyc.gov/assets/lpc/images/content/designations/0192.jpg
Union Building,"",Office Building,"Commercial, office building","",Art Studios,Manhattan,Union Square,33 Union Square West,40.736866,-73.99097,Point,1317,181,844,19,1008440019,394.403,5375.069,http://www1.nyc.gov/assets/lpc/images/content/designations/1538.jpg
McCarren Play Center,"",Pool,"Civic, recreation, pool","","",Brooklyn,"North Side, South Side","Lorimer Street, between Driggs Avenue and Bayard Street",40.720074,-73.9495,Point,134,1341,2696,1,3026960001,2259.0515,292417.12,http://www1.nyc.gov/assets/lpc/images/content/designations/2244.jpg
"Bank of the Manhattan Company Building, Long Island City","",Office Building,"Commercial, office building","Commercial, bank","",Queens,Long Island City,29-27 Queens Plaza North,40.75002,-73.93635,Point,158,1365,403,9,4004030009,317.79877,5425.6294,http://www1.nyc.gov/assets/lpc/images/content/designations/2570.jpg
J. & W. Seligman & Company Building,"later Lehman Brothers, now Banca Commerciale Italiana",Office Building,"Commercial, office building",Bank,"",Manhattan,Financial District,1 William Street,40.7048,-74.010025,Point,1255,119,29,36,1000290036,395.60645,9391.005,http://www1.nyc.gov/assets/lpc/images/content/designations/1943.jpg
Fire Engine Company No. 54,"",Fire Station,"Civic, fire station","Institutional, theater","",Manhattan,"",304 West 47th Street,40.760475,-73.98811,Point,1288,152,1037,37,1010370037,212.44463,2001.0525,http://www1.nyc.gov/assets/lpc/images/content/designations/2299.jpg
359 Broadway Building,"",Office Building,"Commercial, office building","","",Manhattan,Civic Center,359 Broadway,40.71741,-74.004074,Point,1395,259,174,33,1001740033,385.83957,4659.1465,http://www1.nyc.gov/assets/lpc/images/content/designations/1758.jpg
Church of Saint Paul the Apostle,"",Church,"Religious, church, Roman Catholic","","",Manhattan,"",8 Columbus Avenue,40.769894,-73.9851,Point,137,1344,1131,31,1011310031,889.33514,39388.887,http://www1.nyc.gov/assets/lpc/images/content/designations/2260.jpg
Vanderbilt Mausoleum,"",Mausoleum,Mausoleum,"","",Staten Island,"Todt Hill, Emerson Hill, Hartland Village, Lighthouse Hill","",40.58427,-74.121475,Point,163,1370,934,250,5009340250,0.0,0.0,http://www1.nyc.gov/assets/lpc/images/content/designations/1208.jpg
United Palace (Formerly Loew's 175th Street Theatre),"",Theater,Movie Theater,"","",Manhattan,Washington Heights,4140 Broadway,40.84649,-73.937904,Point,197,0,2145,1,1021450001,0.0,0.0,http://www1.nyc.gov/assets/lpc/images/content/designations/0656.jpg
Bronx County Building,also known as the Bronx County Courthouse,Courthouse,"Civic, courthouse","","",The Bronx,West Concourse,851 Grand Concourse,40.8263,-73.9238,Point,473,940,2468,1,2024680001,1437.2662,131894.83,http://www1.nyc.gov/assets/lpc/images/content/designations/0928.jpg
Fire Hook and Ladder Company 17,now Engine Company 60,Fire Station,"Civic, fire station","","",The Bronx,"Mott Haven, Port Morris",341 East 143rd Street,40.81318,-73.92212,Point,501,968,2306,52,2023060052,305.9606,5199.078,http://www1.nyc.gov/assets/lpc/images/content/designations/2046.jpg
New York Society for Ethical Culture,"",Club,"Institutional, private club","","",Manhattan,Lincoln Square,2 West 64th Street,40.77112,-73.98009,Point,585,1052,1116,29,1011160029,378.71628,8328.889,http://www1.nyc.gov/assets/lpc/images/content/designations/0831.jpg
Lord & Taylor Store,"",Department Store,"Commercial, retail, store",Retail,"",Manhattan,"Hudson Yards, Chelsea, Flatiron, Union Square",901 Broadway,40.739185,-73.99007,Point,751,416,848,68,1008480068,262.4074,2929.5593,http://www1.nyc.gov/assets/lpc/images/content/designations/0970.jpg
Solomon R. Guggenheim Museum,"",Museum,"Institutional, museum","","",Manhattan,Upper East Side/Carnegie Hill,1071 Fifth Avenue,40.78301,-73.95891,Point,1038,704,1500,1,1015000001,672.4228,25120.156,http://www1.nyc.gov/assets/lpc/images/content/designations/1774.jpg
"Young Men's Christian Association Building, 135th Street Branch",now Harlem YMCA,Institution,Institutional,"","",Manhattan,Harlem,180 West 135th Street,40.81471,-73.94301,Point,1070,736,1919,53,1019190053,505.66174,15383.454,http://www1.nyc.gov/assets/lpc/images/content/designations/1973.jpg
Pepsi-Cola Building,"",Office Building,"Commercial, Office Building","","",Manhattan,Midtown/Midtown South,500 Park Avenue,40.762905,-73.97036,Point,1124,790,1294,37,1012940037,462.8267,13239.524,http://www1.nyc.gov/assets/lpc/images/content/designations/1920.jpg
154 West 14th Street Building,"",Lofts,"Industrial, lofts","","",Manhattan,"",154 West 14th Street,40.73817,-73.99956,Point,1492,357,609,7,1006090007,440.48425,12041.102,http://www1.nyc.gov/assets/lpc/images/content/designations/2419.jpg
Public School 116,also known as the Elizabeth Farrell School,School,"Civic, school","","",Brooklyn,Bushwick,515 Knickerbocker Avenue,40.698086,-73.916565,Point,433,899,3317,1,3033170001,612.08746,20837.6,http://www1.nyc.gov/assets/lpc/images/content/designations/1975.jpg
Everett Building,"",Office Building,"Commercial, office building","","",Manhattan,Union Square,200 Park Avenue South,40.73694,-73.98919,Point,1299,163,846,33,1008460033,556.76526,17696.69,http://www1.nyc.gov/assets/lpc/images/content/designations/1540.jpg
319 Broadway Building,"",Store and Lofts,"Commercial, store and lofts","","",Manhattan,Civic Center,319 Broadway,40.71597,-74.005196,Point,1390,254,152,31,1001520031,276.25775,3032.1597,http://www1.nyc.gov/assets/lpc/images/content/designations/1650.jpg
McGraw-Hill Building,"",Office Building,"Commercial, office building",Office Building,"",Manhattan,Clinton,330 West 42nd Street,40.757515,-73.991585,Point,1443,307,1032,48,1010320048,711.81915,28856.584,http://www1.nyc.gov/assets/lpc/images/content/designations/1050.jpg
Broad Exchange Building,"",Office Building,"Commercial, office building",Apartments,"",Manhattan,Financial District,25 Broad Street,40.70587,-74.010765,Point,112,1319,25,19,1000250019,984.9611,30609.97,http://www1.nyc.gov/assets/lpc/images/content/designations/2074.jpg
183-195 Broadway,"",Commercial,Commercial,"","",Brooklyn,Williamsburg,183-195 Broadway,40.710068,-73.961876,Point,199,0,2446,51,3024460051,0.0,0.0,http://www1.nyc.gov/assets/lpc/images/content/designations/1504.jpg
Flatlands Dutch Reformed Church,"",Church,"Religious, church, Dutch Reformed","","",Brooklyn,"Midwood, Flatlands",Kings Highway at East 40th Street,40.624058,-73.93618,Point,697,1165,7812,1,3078120001,1101.4009,43148.656,http://www1.nyc.gov/assets/lpc/images/content/designations/0177.jpg
Algonquin Hotel,"",Hotel,"Commercial, hotel","","",Manhattan,Midtown/Midtown South,59-61 West 44th Street,40.756042,-73.98232,Point,1405,269,1260,7,1012600007,393.83685,9679.585,http://www1.nyc.gov/assets/lpc/images/content/designations/1547.jpg
Eleventh District Municipal Court/Seventh District Magistrates' Court,now Midtown Community Court,Courthouse,"Civic, courthouse","Civic, Courthouse","",Manhattan,Midtown West,314 West 54th Street,40.76489,-73.98545,Point,1499,364,1044,22,1010440022,506.93396,9979.811,http://www1.nyc.gov/assets/lpc/images/content/designations/1575.jpg
Fire Engine Company 253,originally Engine Company 53,Fire Station,"Civic, fire station","","",Brooklyn,Bensonhurst,2425-2427 86th Street,40.59903,-73.98844,Point,399,865,6859,67,3068590067,288.39847,4234.754,http://www1.nyc.gov/assets/lpc/images/content/designations/1986.jpg
Fire Hook and Ladder Company No. 14,now Engine Company No. 36,Fire Station,"Civic, fire station","","",Manhattan,Harlem,120 East 125th Street,40.8044,-73.938194,Point,860,525,1773,62,1017730062,258.40887,2562.0679,http://www1.nyc.gov/assets/lpc/images/content/designations/1838.jpg
Look Building,"",Office Building,"Commercial, office building","","",Manhattan,"",488 Madison Avenue,40.7589,-73.97524,Point,1002,668,1287,14,1012870014,694.4965,22526.11,http://www1.nyc.gov/assets/lpc/images/content/designations/2376.jpg
Saint Patrick's Old Cathedral,"",Church,"Religious, church, Roman Catholic","","",Manhattan,SoHo,Mott Street at Prince Street,40.72367,-73.99511,Point,1061,727,509,1,1005090001,1113.7598,60506.215,http://www1.nyc.gov/assets/lpc/images/content/designations/0187.jpg
"Lorillard Snuff Mill, New York Botanical Garden","",Factory,"Industrial, factory","Recreational, botanical garden","",The Bronx,Bronx,"New York Botanical Garden, Bronx River",40.859684,-73.87615,Point,619,1087,4336,1,2043360001,290.5921,3955.1128,http://www1.nyc.gov/assets/lpc/images/content/designations/0121.jpg
Saint Andrew's Church,"",Church,"Religious, church, Episcopal","","",Manhattan,Harlem,2067 Fifth Avenue,40.80773,-73.94077,Point,834,499,1752,1,1017520001,527.4108,16568.375,http://www1.nyc.gov/assets/lpc/images/content/designations/0294.jpg
"First Church of Christ, Scientist","",Church,"Religious, church, Christian Scientist","","",Manhattan,Upper West Side,1 West 96th Street,40.79206,-73.964905,Point,851,516,1832,29,1018320029,523.6757,16622.854,http://www1.nyc.gov/assets/lpc/images/content/designations/0833.jpg
Flatbush Town Hall,"",City Hall,"Civic, city hall","","",Brooklyn,Flatbush,35 Snyder Avenue,40.648956,-73.95693,Point,445,911,5103,93,3051030093,698.5343,29939.297,http://www1.nyc.gov/assets/lpc/images/content/designations/0770.jpg
Soldiers' and Sailors' Memorial Arch,"",Monument,"Civic, monument","","",Brooklyn,"Park Slope, Gowanus",Grand Army Plaza,40.672997,-73.9699,Point,658,1126,0,0,0,219.12048,1592.4818,http://www1.nyc.gov/assets/lpc/images/content/designations/0821.jpg
Astor Library,now the Joseph Papp Public Theater,Library,"Civic, library","Commercial, theater","",Manhattan,East Village,425 Lafayette Street,40.72897,-73.99175,Point,1277,141,544,16,1005440016,818.025,31273.055,http://www1.nyc.gov/assets/lpc/images/content/designations/0016.jpg
Lincoln Building,"",Office Building,"Commercial, office building","","",Manhattan,Union Square,1-3 Union Square West,40.735508,-73.991875,Point,1494,359,842,21,1008420021,357.28162,6753.0977,http://www1.nyc.gov/assets/lpc/images/content/designations/1536.jpg
"Brooklyn Public Library, DeKalb Branch","",Library,"Civic, library","","",Brooklyn,Bushwick South,790 Bushwick Avenue,40.694824,-73.928375,Point,436,902,3241,18,3032410018,479.09174,14142.9795,http://www1.nyc.gov/assets/lpc/images/content/designations/2054.jpg
Temple Court Building and Annex,"",Office Building,"Commercial, office building","","",Manhattan,Civic Center,3-9 Beekman Street,40.7112,-74.0069,Point,917,583,90,14,1000900014,513.71106,15924.116,http://www1.nyc.gov/assets/lpc/images/content/designations/1967.jpg
836 Broadway Building,"",Store and Lofts,"Commercial, store and lofts","","",Manhattan,Union Square South,836 Broadway (aka 836-838 Broadway; 72-74 East 13th Street),40.733624,-73.99074,Point,289,0,564,39,1005640039,0.0,0.0,http://www1.nyc.gov/assets/lpc/images/content/designations/2618.jpg
First Hungarian Reformed Church,"",Church,"Religious, church","","",Manhattan,Upper East Side,346 East 69th Street (aka 346-348 East 69th Street),40.76614,-73.958496,Point,294,0,1443,37,1014430037,0.0,0.0,http://www1.nyc.gov/assets/lpc/images/content/designations/2601.jpg
"New York Public Library, Tottenville Branch","",Library,"Civic, library","","",Staten Island,Tottenville,7430 Amboy Road,40.509605,-74.24415,Point,1197,61,7899,9,5078990009,487.84222,13625.651,http://www1.nyc.gov/assets/lpc/images/content/designations/1867.jpg
Saint Mark's-in-the-Bowery Church,"",Church,"Religious, church, Episcopal",Episcopal Church,"",Manhattan,East Village,East 10th Street at Second Avenue,40.730328,-73.98709,Point,1314,178,466,26,1004660026,758.38684,34394.73,http://www1.nyc.gov/assets/lpc/images/content/designations/0229.jpg
Music Box Theater,"",Theater,"Commercial, theater",Theater,"",Manhattan,Theatre District,239-247 West 45th Street,40.758896,-73.987144,Point,1512,377,1017,11,1010170011,403.06918,10152.148,http://www1.nyc.gov/assets/lpc/images/content/designations/1359.jpg
(Former) Public School 64,"",School,"Civic, school",None,"Latino community center, arts center and performance space",Manhattan,East Village,350 East 10th Street,40.726315,-73.9795,Point,1062,728,392,10,1003920010,684.05164,28832.393,http://www1.nyc.gov/assets/lpc/images/content/designations/2188.jpg
Rossville A.M.E. Zion Church,"",Church,"Religious, church, African Methodist Episcopal","","",Staten Island,Sandy Ground,584 Bloomindale Road,40.539444,-74.21827,Point,1199,63,7267,101,5072670101,935.50433,48167.48,http://www1.nyc.gov/assets/lpc/images/content/designations/2416.jpg
Trinity Church and Graveyard,"",Church,"Religious, church, Episcopal","Religious, cemetery","",Manhattan,Financial District,Broadway at Wall Street,40.708157,-74.012054,Point,1482,347,49,1,1000490001,1315.617,101840.94,http://www1.nyc.gov/assets/lpc/images/content/designations/0048.jpg
Parachute Jump,"",Amuseument,"Recreational, amusement","","",Brooklyn,Coney Island,Riegelmann Boardwalk at West 16th Street,40.572956,-73.98436,Point,662,1130,7073,101,3070730101,646.6939,20744.844,http://www1.nyc.gov/assets/lpc/images/content/designations/1638.jpg
Winthrop Park Shelter Pavilion,now Monsignor McGolrick Park,Park Structure,"Civic, recreational, park","","",Brooklyn,Greenpoint,bounded by Nassau and Driggs Avenues and Monitor and Russell Streets,40.72447,-73.94323,Point,692,1160,2687,1,3026870001,408.7867,3606.4036,http://www1.nyc.gov/assets/lpc/images/content/designations/0167.jpg
Webster Hall and Annex,"",Meeting Hall,"Commerical, meeting hall","Commercial, theater","",Manhattan,East Village,119-125 East 11th Street,40.73178,-73.9891,Point,1477,342,556,68,1005560068,380.21762,9007.838,http://www1.nyc.gov/assets/lpc/images/content/designations/2273.jpg
E. V. Haughwout Building,"",Store,"Commercial, retail, store","","",Manhattan,"SoHo, Tribeca, Civic Center, Little Italy",488-492 Broadway,40.721813,-73.999466,Point,1375,239,483,1,1004830001,341.31018,6879.791,http://www1.nyc.gov/assets/lpc/images/content/designations/0017.jpg
Bergdorf Goodman,"",Department store,Commercial,"","",Manhattan,Midtown/Midtown South,754 Fifth Avenue,40.7635,-73.97405,Point,194,0,1273,33,1012730033,0.0,0.0,http://www1.nyc.gov/assets/lpc/images/content/designations/0735.jpg
Reformed Church of South Bushwick,"",Church,"Religious, church, Dutch Reformed","","",Brooklyn,Bushwick,855-867 Bushwick Avenue,40.694294,-73.92593,Point,432,898,3264,1,3032640001,504.2521,15348.005,http://www1.nyc.gov/assets/lpc/images/content/designations/0168.jpg
Saint Philip's Protestant Episcopal Church,"",Church,"Religious, church, Protestant Episcopal","","",Manhattan,Harlem,214 West 134th Street,40.814663,-73.945274,Point,954,620,1939,40,1019390040,614.9193,18075.283,http://www1.nyc.gov/assets/lpc/images/content/designations/1846.jpg
Trinity School,including the Former Saint Agnes Parish House,School,"Religious, school","","",Manhattan,Upper West Side,121-147 West 91st Street,40.79049,-73.97123,Point,1097,763,1222,0,0,784.5716,17985.02,http://www1.nyc.gov/assets/lpc/images/content/designations/1659.jpg
311 Broadway Building,"",Store and Lofts,"Commercial, store and lofts","","",Manhattan,"",311 Broadway,40.715656,-74.00546,Point,1376,240,151,31,1001510031,297.2731,4260.4263,http://www1.nyc.gov/assets/lpc/images/content/designations/2343.jpg
"Kitchen, Montross & Wilcox Store",also known as 85 Leonard Street Building,Store and Lofts,"Commercial, store and lofts","","",Manhattan,Civic Center,85 Leonard Street,40.717464,-74.00469,Point,1468,333,174,7503,1001747503,304.26224,3244.5625,http://www1.nyc.gov/assets/lpc/images/content/designations/0877.jpg
Knox Building,"",Office Building,"Commercial, office building","","",Manhattan,Midtown/Midtown South,452 Fifth Avenue,40.752262,-73.982285,Point,42,1249,841,49,1008410049,370.4617,5120.363,http://www1.nyc.gov/assets/lpc/images/content/designations/1091.jpg
Saint Peter's German Evangelical Reformed Church at Kreischerville,"now Free Magyar Reformed Church, Parish Hall, and Rectory",Church,"Religious, church, German Evangelical Reformed","","",Staten Island,Kreischerville,19-25 Winant Place,40.536877,-74.23834,Point,92,1299,7400,0,0,651.6253,25382.86,http://www1.nyc.gov/assets/lpc/images/content/designations/1875.jpg
Brooklyn Edison Building,"","Office Building, Commercial",Office Building,"","",Brooklyn,Downtown Brooklyn,"345 Adams Street (aka 372-392 Pearl Street, 11-17 Willoughby Street)",40.692696,-73.98845,Point,336,0,140,7503,3001407503,0.0,0.0,http://www1.nyc.gov/assets/lpc/images/content/designations/2680.jpg
Tammany Hall,"",Club,"Institutional, private club","","",Manhattan,"",100-102 East 17th Street,40.736244,-73.98875,Point,800,465,872,78,1008720078,496.99683,13370.005,http://www1.nyc.gov/assets/lpc/images/content/designations/2490.jpg
254-260 Canal Street,"",Store and Lofts,"Commercial, store and lofts","","",Manhattan,"SoHo, Tribeca, Civic Center, Little Italy",254-260 Canal Street,40.718407,-74.00097,Point,825,490,196,21,1001960021,392.91995,9439.698,http://www1.nyc.gov/assets/lpc/images/content/designations/1458.jpg
Lawrence Family Graveyard,"",Cemetery,Cemetery,"","",Queens,Bayside,southeast corner of 20th Road and 35th Street,40.777298,-73.905655,Point,1208,72,828,90,4008280090,295.38736,5161.7583,http://www1.nyc.gov/assets/lpc/images/content/designations/0136.jpg
The Register,now the Jamaica Arts Center,Office Building,"Civic, office building","","",Queens,Jamaica,161-04 Jamaica Avenue,40.70375,-73.79811,Point,1243,107,10101,11,4101010011,591.1683,9622.19,http://www1.nyc.gov/assets/lpc/images/content/designations/0875.jpg
Congregation Tifereth Israel,"",Synagogue,"Religious, synagogue","","",Queens,Corona,109-18 54th Avenue,40.742096,-73.85296,Point,141,1348,2010,1,4020100001,248.42418,2474.1675,http://www1.nyc.gov/assets/lpc/images/content/designations/2283.jpg
Manufacturers Trust Company Building,"",Bank,"Commercial, bank",Retail,"",Manhattan,Midtown/Midtown South,510 Fifth Avenue,40.75412,-73.98089,Point,745,410,1258,40,1012580040,469.07623,13630.633,http://www1.nyc.gov/assets/lpc/images/content/designations/1968.jpg
"New York Public Library, 125th Street Branch","",Library,"Civic, library","","",Manhattan,Harlem,224 East 125th Street,40.803,-73.93487,Point,910,576,1789,37,1017890037,313.9997,5323.711,http://www1.nyc.gov/assets/lpc/images/content/designations/2305.jpg
Bayard-Condict Building,"",Office Building,"Commercial, office building","","",Manhattan,East Village,65-69 Bleecker Street,40.726368,-73.994995,Point,1077,743,529,72,1005290072,382.11752,9008.768,http://www1.nyc.gov/assets/lpc/images/content/designations/0882.jpg
90-94 Maiden Lane Building,"",Office Building,"Commercial, office building","","",Manhattan,Financial District,90-94 Maiden Lane,40.70692,-74.00749,Point,1367,231,42,36,1000420036,387.52936,7599.7124,http://www1.nyc.gov/assets/lpc/images/content/designations/1648.jpg
Excelsior Steam Power Company Building,"",Industrial,"Industrial, power production","","",Manhattan,Civic Center,33-43 Gold Street,40.708843,-74.00611,Point,196,0,77,24,1000770024,0.0,0.0,http://www1.nyc.gov/assets/lpc/images/content/designations/0962.jpg
Public School 66,"formerly the Brooklyn Hills School, later the Oxford School, now the Jacqueline Kennedy Onassis School",School,"Civic, school","","",Queens,Richmond Hill,85-11 102nd Street,40.69795,-73.84614,Point,1232,96,9183,1,4091830001,750.72577,35027.12,http://www1.nyc.gov/assets/lpc/images/content/designations/2317.jpg
Lyceum Theater,"",Theater,"Commercial, theater",Theater,"",Manhattan,Theatre District,149-157 West 45th Street,40.757828,-73.98452,Point,1515,380,998,8,1009980008,589.4661,10323.545,http://www1.nyc.gov/assets/lpc/images/content/designations/0803.jpg
South Congregational Church Complex,"",Church,"Religious, church, Congregational","","",Brooklyn,Carroll Gardens,358-366 Court Street and 253-269 President Street,40.68206,-73.99654,Point,62,1269,345,0,0,575.067,19181.727,http://www1.nyc.gov/assets/lpc/images/content/designations/1245.jpg
195 Front Street Building,"",Countinghouse,"Commercial, countinghouse","Commercial, Retail","",Manhattan,South Street Seaport,195 Front Street,40.706676,-74.00389,Point,538,1005,74,1,1000740001,150.59741,1033.8907,http://www1.nyc.gov/assets/lpc/images/content/designations/0058.jpg
"New York State Supreme Court, Queens County, Long Island City Branch","",Courthouse,"Civic, courthouse","","",Queens,Ridgewood,25-10 Court Square,40.74569,-73.94293,Point,1203,67,83,1,4000830001,1580.1458,114157.96,http://www1.nyc.gov/assets/lpc/images/content/designations/0925.jpg
Long Distance Building of the American Telephone & Telegraph Company,"",Office Building,"Commercial, office building","","",Manhattan,"SoHo, Tribeca, Civic Center, Little Italy",32 Sixth Avenue,40.72001,-74.00464,Point,1358,222,192,1,1001920001,902.7183,46654.152,http://www1.nyc.gov/assets/lpc/images/content/designations/1747.jpg
Grolier Club,"",Club,"Institutional, private club","","",Manhattan,Midtown/Midtown South,29 East 32nd Street,40.74647,-73.98329,Point,1406,270,862,25,1008620025,262.72528,2636.762,http://www1.nyc.gov/assets/lpc/images/content/designations/0597.jpg
Asbury Methodist Church,now Sun-Rise Interfaith Charismatic Church,Church,"Religious, church, Methodist","Religious, church, Interfaith Charismatic","",Staten Island,"New Springfield, Bloomville, Travis",1970 Richmond Avenue,40.599846,-74.1635,Point,718,1186,2100,0,0,1164.0547,73379.77,http://www1.nyc.gov/assets/lpc/images/content/designations/0364.jpg
Hotel Martinique,"",Hotel,"Commercial, hotel","","Welfare Hotel, Emergency Shelter",Manhattan,Midtown/Midtown South,1260 Broadway,40.748447,-73.987724,Point,1371,235,834,11,1008340011,748.1617,21045.771,http://www1.nyc.gov/assets/lpc/images/content/designations/1983.jpg
Hudson Theater,"",Theater,"Commercial, theater",Hotel,"",Manhattan,Theatre District,139-141 West 44th Street,40.75716,-73.98448,Point,64,1271,997,10,1009970010,575.1709,12916.385,http://www1.nyc.gov/assets/lpc/images/content/designations/1340.jpg
Scribner Building,"",Office Building,"Commercial, office building",Retail and offices,"",Manhattan,Midtown/Midtown South,597 Fifth Avenue,40.757347,-73.97767,Point,991,657,1284,2,1012840002,317.78058,5719.305,http://www1.nyc.gov/assets/lpc/images/content/designations/1100.jpg
Stewart & Company Building,"",Store and Lofts,"Commercial, store and lofts",Bank and retail,"",Manhattan,Midtown West,402-404 Fifth Avenue,40.750362,-73.98369,Point,1300,164,838,48,1008380048,494.62463,10810.738,http://www1.nyc.gov/assets/lpc/images/content/designations/2185.jpg
Saint Paul's Chapel and Graveyard,"",Church,"Religious, church, Episcopal",Episcopal Church,"",Manhattan,Civic Center,Broadway at Fulton Street,40.71148,-74.009575,Point,1416,280,87,1,1000870001,1121.5441,66061.18,http://www1.nyc.gov/assets/lpc/images/content/designations/0075.jpg
Mills Hotel No. 3,"",Hotel,"Commercial, hotel","","",Manhattan,"",485 Seventh Avenue,40.752293,-73.989136,Point,596,1063,812,1,1008120001,554.62506,17591.082,http://www1.nyc.gov/assets/lpc/images/content/designations/2424.jpg
Saint Peter's Roman Catholic Church,"",Church,"Religious, church, Roman Catholic",RC Church,"",Manhattan,"SoHo, Tribeca, Civic Center, Little Italy",22 Barclay Street,40.712376,-74.00955,Point,1478,343,88,11,1000880011,459.98615,12993.599,http://www1.nyc.gov/assets/lpc/images/content/designations/0078.jpg
Williamsburgh Trust Company Building (Later Fifth District Magistrates' Court / Later Holy Trinity Cathedral),"",Bank,Bank,Courthouse,Church,Brooklyn,Williamsburg,177-185 South 5th Street,40.71075,-73.96112,Point,179,0,2446,63,3024460063,0.0,0.0,http://www1.nyc.gov/assets/lpc/images/content/designations/0163.jpg
18 East 41st Street Building,"",Skyscraper,"Commercial, office building","","",Manhattan,Midtown East,18 East 41st Street,40.752197,-73.98049,Point,188,0,1275,61,1012750061,0.0,0.0,http://www1.nyc.gov/assets/lpc/images/content/designations/2581.jpg
Bowery Savings Bank Building,"",Bank,"Commercial, bank",Special Events,"",Manhattan,Murray Hill/Kips Bay,110 East 42nd Street,40.751457,-73.97707,Point,340,806,1296,7501,1012967501,726.04004,26933.424,http://www1.nyc.gov/assets/lpc/images/content/designations/1912.jpg
Park Row Building,"",Office Building,"Commercial, office building",Retail,"",Manhattan,Civic Center,15 Park Row,40.711185,-74.00779,Point,1480,345,90,7501,1000907501,619.1211,15288.474,http://www1.nyc.gov/assets/lpc/images/content/designations/2024.jpg
Queensboro Bridge,"",Bridge,"Infrastructure, bridge","","","","Queensbridge, Ravenswood, Long Island City, Lenox Hill, Roosevelt Island","Spanning the East River between 11th Street and Bridge Plaza North and Bridge Plaza South, Queens, and East 59th Street, Manhattan",40.757805,-73.95669,Point,21,1228,0,0,0,6793.9917,267214.78,http://www1.nyc.gov/assets/lpc/images/content/designations/0828.jpg
Washington Bridge,"",Bridge,"Infrastructure, bridge","","","","Marble Hill, Inwood","",40.846638,-73.92758,Point,160,1367,0,0,0,4269.6865,141097.64,http://www1.nyc.gov/assets/lpc/images/content/designations/1222.jpg
"New York Public Library, Harlem Branch","",Library,"Civic, library","","",Manhattan,Central Harlem South,9 West 124th Street,40.80621,-73.9433,Point,317,0,1722,30,1017220030,0.0,0.0,http://www1.nyc.gov/assets/lpc/images/content/designations/2652.jpg
"Rockefeller Fountain, New York Zoological Park","",Zoo,"Institutional, recreational, zoo","","",The Bronx,Bronx,"New York Zoological Park, inside East Fordham Road",40.853836,-73.87773,Point,623,1091,3120,20,2031200020,177.00119,2486.7842,http://www1.nyc.gov/assets/lpc/images/content/designations/0109.jpg
94-100 Lafayette Street Building,now called the Avildsen Building,Store and Lofts,"Commercial, store and lofts","","",Manhattan,"SoHo, Tribeca, Civic Center, Little Italy",94-100 Lafayette Street,40.717804,-74.00143,Point,1332,196,195,17,1001950017,490.36328,9191.592,http://www1.nyc.gov/assets/lpc/images/content/designations/2107.jpg
East New York Savings Bank Building,"",Bank,Bank,"","",Brooklyn,Crown Heights,1117 Eastern Parkway,40.6693,-73.93131,Point,161,1368,1390,44,3013900044,447.229,10667.879,http://www1.nyc.gov/assets/lpc/images/content/designations/2472.jpg
Saint Casimir's Roman Catholic Church,now the Paul Robeson Theatre,Church,"Religious, church, Universalist","Religious, church, Roman Catholic","Commercial, theater",Brooklyn,Fort Greene,40 Greene Avenue,40.6859,-73.97089,Point,402,868,1957,28,3019570028,287.08853,4277.9434,http://www1.nyc.gov/assets/lpc/images/content/designations/2476.jpg
Church of the Transfiguration,also known as the Little Church around the Corner,Church,"Religious, church, Episcopal","","",Manhattan,Midtown/Midtown South,1 East 29th Street,40.745163,-73.98592,Point,728,1196,859,6,1008590006,506.27634,15472.503,http://www1.nyc.gov/assets/lpc/images/content/designations/0470.jpg
Metropolitan Club Building,"",Club,"Institutional, private club","","",Manhattan,Upper East Side/Carnegie Hill,1-11 East 60th Street,40.764874,-73.97193,Point,927,593,1375,1,1013750001,682.2484,25022.494,http://www1.nyc.gov/assets/lpc/images/content/designations/1020.jpg
Shearith Israel Graveyard,"",Cemetery,Cemetery,Cemetery,"",Manhattan,Bowery,55-57 Saint James Place,40.712757,-73.99837,Point,1298,162,279,17,1002790017,303.27692,4909.482,http://www1.nyc.gov/assets/lpc/images/content/designations/0091.jpg
Federal Reserve Bank of New York,"",Bank,"Commercial, bank","Commercial, Bank","",Manhattan,Financial District,33 Liberty Street,40.708405,-74.00868,Point,1351,215,66,1,1000660001,1079.703,49292.844,http://www1.nyc.gov/assets/lpc/images/content/designations/0054.jpg
Engineers' Club Building,"",Club,"Institutional, private club","","",Manhattan,"",32 East 40th Street,40.752678,-73.98353,Point,1385,249,841,69,1008410069,303.4951,5110.4897,http://www1.nyc.gov/assets/lpc/images/content/designations/2429.jpg
130 West 30th Street Building,"",Lofts,"Industrial, lofts","","",Manhattan,Midtown/Midtown South,130 West 30th Street,40.747692,-73.99117,Point,1419,283,805,7501,1008057501,383.3663,9151.412,http://www1.nyc.gov/assets/lpc/images/content/designations/2101.jpg
Keuffel & Esser Company Building,"",Office Building,"Commercial, office building",Retail,"Wholesale, offices, shipping, realty consulting",Manhattan,Civic Center,127 Fulton Street,40.710262,-74.00724,Point,774,439,91,12,1000910012,302.6324,3125.9937,http://www1.nyc.gov/assets/lpc/images/content/designations/2178.jpg
Yale Club of New York City Building,now Penn Club of New York,Club,"Institutional, private club","","",Manhattan,"",30-32 West 44th Street,40.7553,-73.98174,Point,1333,197,1259,54,1012590054,307.28574,5172.6353,http://www1.nyc.gov/assets/lpc/images/content/designations/2379.jpg
Saint Mary's Episcopal Church,"",Church,"Religious, church, Episcopal","","",Brooklyn,Clinton Hill,230 Classon Avenue,40.69283,-73.961174,Point,601,1068,1909,47,3019090047,402.8535,6457.406,http://www1.nyc.gov/assets/lpc/images/content/designations/2013.jpg
Sunset Play Center,"",Pool,"Civic, recreation, pool","","",Brooklyn,Sunset Park East,"7th Avenue, between 41st and 44th Streets",40.647133,-74.00247,Point,661,1129,921,1,3009210001,3020.181,421287.03,http://www1.nyc.gov/assets/lpc/images/content/designations/2242.jpg
Christ Church,"",Church,"Religious, church, Episcopal","","",The Bronx,Riverdale,5040 Henry Hudson Parkway,40.899193,-73.90638,Point,682,1150,5833,4265,2058334265,314.2036,4035.7927,http://www1.nyc.gov/assets/lpc/images/content/designations/0126.jpg
"Swift, Seaman & Company Building","",Store and Lofts,"Commercial, store and lofts","","",Manhattan,"Civic Center, Tribeca",122 Chambers Street,40.71498,-74.00889,Point,780,445,136,10,1001360010,410.44772,4397.4585,http://www1.nyc.gov/assets/lpc/images/content/designations/2061.jpg
21 West Street Building,"",Office Building,"Commercial, office building",Apartments,"",Manhattan,Battery Park,21 West Street,40.70639,-74.01553,Point,831,496,15,22,1000150022,515.537,13537.947,http://www1.nyc.gov/assets/lpc/images/content/designations/1999.jpg
Fuller Building,"",Office Building,"Commercial, office building","","",Manhattan,Midtown/Midtown South,41 East 57th Street,40.76236,-73.971825,Point,858,523,1293,26,1012930026,514.5544,13913.021,http://www1.nyc.gov/assets/lpc/images/content/designations/1460.jpg
Prospect Cemetery,"",Cemetery,Cemetery,"Religious, chapel","",Queens,Jamaica,159th Street at Beaver Road,40.701412,-73.799545,Point,1246,110,10099,36,4100990036,1961.0614,152643.5,http://www1.nyc.gov/assets/lpc/images/content/designations/0945.jpg
Public School 71K,now the Beth Jacob School,School,"Civic, school","","",Brooklyn,Williamsburg,119 Heyward Street,40.701736,-73.95655,Point,435,901,2225,42,3022250042,518.945,15483.11,http://www1.nyc.gov/assets/lpc/images/content/designations/2006.jpg
Robbins & Appleton Building,"",Factory,"Industrial, factory","",Publishing,Manhattan,East Village,1-5 Bond Street,40.72666,-73.9948,Point,575,1042,529,0,0,454.47647,12567.659,http://www1.nyc.gov/assets/lpc/images/content/designations/1038.jpg
Highbridge Play Center,"",Pool,"Civic, recreation, pool","","",Manhattan,Washington Heights,"Amsterdam Avenue, between West 172nd and West 174th Streets",40.842537,-73.93373,Point,607,1075,2106,1,1021060001,2133.8784,287681.84,http://www1.nyc.gov/assets/lpc/images/content/designations/2237.jpg
Fort Tompkins,"",Fort,"Civic, fort","","",Staten Island,"Grasmere, Arrochar, Fort Wadsworth","Hudson Road, Fort Wadsworth Reservation",40.60501,-74.056564,Point,719,1187,3128,1,5031280001,1629.0011,145717.97,http://www1.nyc.gov/assets/lpc/images/content/designations/0824.jpg
Hotel Seville (now The James NoMad Hotel),"",Hotel,"Commercial, hotel","","",Manhattan,"",22 East 29th Street (aka 18-20 East 29th Street; 15-17 East 28th Street; 90-94 Madison Avenue),40.744625,-73.9857,Point,275,0,858,17,1008580017,0.0,0.0,http://www1.nyc.gov/assets/lpc/images/content/designations/2602.jpg
Saint John's Church,"",Church,"Religious, church, Episcopal","","",Staten Island,"Stapleton, Rosebank",1331 Bay Street,40.611492,-74.06366,Point,1160,24,2832,18,5028320018,597.90955,19853.37,http://www1.nyc.gov/assets/lpc/images/content/designations/0373.jpg
"Baird Court, New York Zoological Park",now Astor Court,Zoo,"Institutional, recreational, zoo","","",The Bronx,Bronx,"New York Zoological Park, south of East Fordham Road",40.852657,-73.87863,Point,624,1092,3120,20,2031200020,2919.4092,273578.25,http://www1.nyc.gov/assets/lpc/images/content/designations/1888.jpg
New Lots Reformed Dutch Church,now New Lots Community Church,Church,"Religious, church, Dutch Reformed","","",Brooklyn,Bushwick,630 New Lots Avenue,40.664707,-73.88598,Point,693,1161,4307,1,3043070001,209.47925,2678.2966,http://www1.nyc.gov/assets/lpc/images/content/designations/0169.jpg
Liberty Tower,"",Office Building,"Commercial, office building",Apartments,"",Manhattan,Financial District,55 Liberty Street,40.70885,-74.009384,Point,748,413,64,8,1000640008,311.42987,5877.9565,http://www1.nyc.gov/assets/lpc/images/content/designations/1243.jpg
Bell Telephone Laboratories Complex,"including former Western Electric Company & Hook's Steam-powered Factory Buildings, now Westbeth Artists' Housing",Factory,"Industrial, factory","Industrial, laboratory","Residential, artists studio",Manhattan,Far West Village,"445-465 West Street, 137-169 Bank Street, 51-77 Bethune Street, and 734-754 Washington Street",40.736538,-74.00907,Point,935,601,639,1,1006390001,1299.9983,101586.195,http://www1.nyc.gov/assets/lpc/images/content/designations/2391.jpg
Saint Nicholas of Myra Orthodox Church,originally the Memorial Chapel of Saint Mark's Parish,Church,"Religious, church, Episcopal","Religious, church, Orthodox","",Manhattan,East Village,288 East 10th Street,40.727844,-73.98263,Point,1037,703,437,25,1004370025,341.18497,6356.0464,http://www1.nyc.gov/assets/lpc/images/content/designations/2312.jpg
Bowling Green Offices Building,"",Office Building,"Commercial, office building","",Steamship and shipping offices,Manhattan,Battery Park,5-11 Broadway,40.70529,-74.014275,Point,1251,115,13,5,1000130005,709.6319,30686.041,http://www1.nyc.gov/assets/lpc/images/content/designations/1927.jpg
"New York Public Library, Tremont Branch","",Library,"Civic, library","","",The Bronx,Bathgate,1866 Washington Avenue,40.846054,-73.898346,Point,333,0,2918,1,2029180001,0.0,0.0,http://www1.nyc.gov/assets/lpc/images/content/designations/2677.jpg
Grace Episcopal Church and Graveyard,"",Church,"Religious, church, Episcopal","Religious, cemetery","",Queens,Jamaica,155-03 Jamaica Avenue,40.70358,-73.80106,Point,729,1197,9754,11,4097540011,345.08505,5048.3687,http://www1.nyc.gov/assets/lpc/images/content/designations/0487.jpg
Downtown Athletic Club Building,"",Club,"Institutional, private club","","",Manhattan,Battery Park City/Lower Manhattan,19 West Street,40.706192,-74.01561,Point,1099,765,15,7502,1000157502,524.961,14367.188,http://www1.nyc.gov/assets/lpc/images/content/designations/2075.jpg
Woodrow United Methodist Church,"",Church,"Religious, church, Methodist","","",Staten Island,Prince's Bay,1075 Woodrow Road,40.543285,-74.20135,Point,1182,46,6110,1,5061100001,1419.7754,121455.86,http://www1.nyc.gov/assets/lpc/images/content/designations/0385.jpg
Northern Reformed Church,"also known as the Market Street Reformed Church, later the Sea and Land Church, now the First Chinese Presbyterian Church",Church,"Religious, church",Church,"",Manhattan,Chinatown,61 Henry Street,40.713223,-73.994804,Point,1404,268,280,22,1002800022,439.84027,12019.796,http://www1.nyc.gov/assets/lpc/images/content/designations/0094.jpg
832-834 Broadway Building,"",Store and Lofts,"Commercial, store and lofts","","",Manhattan,Union Square South,832-834 Broadway,40.733482,-73.990776,Point,290,0,564,36,1005640036,0.0,0.0,http://www1.nyc.gov/assets/lpc/images/content/designations/2617.jpg
Modulightor Building,"",Row House with Commercial,"Mixed-use, commercial & residential","","",Manhattan,Turtle Bay/East Midtown,246 East 58th Street,40.759995,-73.96538,Point,331,0,1331,128,1013310128,0.0,0.0,http://www1.nyc.gov/assets/lpc/images/content/designations/2676.jpg
Saint Ann's Church and Graveyard,"",Church,"Religious, church, Episcopal","Religious, cemetery, Episcopal","",The Bronx,"Mott Haven, Port Morris",295 Saint Ann's Avenue,40.808445,-73.91734,Point,485,952,2267,44,2022670044,1499.1742,94552.62,http://www1.nyc.gov/assets/lpc/images/content/designations/0101.jpg
140 Broadway,Marine Midland Bank Building,Office building,"Commercial, office building","","",Manhattan,"",140 Broadway,40.70866,-74.01012,Point,1414,278,48,1,1000480001,955.0376,50824.207,http://www1.nyc.gov/assets/lpc/images/content/designations/2530.jpg
Brill Building,"",Office Building,"Commercial, office building","","",Manhattan,"",1619 Broadway,40.761143,-73.98464,Point,1425,289,1021,19,1010210019,479.72736,13817.614,http://www1.nyc.gov/assets/lpc/images/content/designations/2387.jpg
Women's Liberation Center,"",Fire station,"Civic, fire station","","",Manhattan,Chelsea,243 West 20th Street,40.743156,-73.998726,Point,297,0,770,17,1007700017,0.0,0.0,http://www1.nyc.gov/assets/lpc/images/content/designations/2633.jpg
Lincoln Club,"now Mechanics Temple, Independent Order of Mechanics of the Western Hemisphere",Club,"Institutional, private club","","",Brooklyn,Clinton Hill,65 Putnam Avenue,40.68322,-73.95936,Point,407,873,1984,78,3019840078,350.32263,5288.999,http://www1.nyc.gov/assets/lpc/images/content/designations/2015.jpg
L. P. Hollander & Company Building,"",Store,"Commercial, retail, store","","",Manhattan,Midtown/Midtown South,3 East 57th Street,40.76298,-73.97326,Point,1049,715,1293,5,1012930005,295.15063,4419.4854,http://www1.nyc.gov/assets/lpc/images/content/designations/2124.jpg
Remsen Cemetery,"",Cemetery,Cemetery,"","",Queens,Elmhurst,adjacent to 69-43 Trotting Course Lane,40.71243,-73.8585,Point,1214,78,3178,44,4031780044,351.92377,7062.6836,http://www1.nyc.gov/assets/lpc/images/content/designations/1177.jpg
All Saints' Free Church,"later Saint Augustine's Chapel, now Saint Augustine's Episcopal Church",Church,"Religious, church, Episcopal",Episcopal church,"",Manhattan,Lower East Side,290 Henry Street,40.71366,-73.98312,Point,1287,151,267,19,1002670019,579.305,18600.785,http://www1.nyc.gov/assets/lpc/images/content/designations/0088.jpg
Cunard Building,"",Office Building,"Commercial, office building","","",Manhattan,Battery Park,25 Broadway,40.70577,-74.014,Point,1100,766,13,27,1000130027,902.70856,50181.664,http://www1.nyc.gov/assets/lpc/images/content/designations/1928.jpg
325-333 Broadway Building,"",Store and Lofts,"Commercial, store and lofts","","",Manhattan,Civic Center,325-333 Broadway,40.71624,-74.004974,Point,1343,207,152,25,1001520025,433.29218,11719.342,http://www1.nyc.gov/assets/lpc/images/content/designations/2112.jpg
91 South Street Building,"",Countinghouse,"Commercial, countinghouse","Commercial, Retail",Hotel; Restaurant,Manhattan,South Street Seaport,91 South Street,40.70625,-74.003525,Point,547,1014,74,1,1000740001,182.5526,1362.4972,http://www1.nyc.gov/assets/lpc/images/content/designations/0069.jpg
West Park Presbyterian Church,"",Church,"Religious, church, Presbyterian","","",Manhattan,"",165 West 86th Street,40.787735,-73.97451,Point,826,491,1217,1,1012170001,473.1123,11357.17,http://www1.nyc.gov/assets/lpc/images/content/designations/2338.jpg
Louis N. Jaffe Art Theater (Yiddish Art Theater/Yiddish Folks Thearter),now Village East City Cinemas,Theater,"Commercial, theater",Cinema,"",Manhattan,East Village,189 Second Avenue,40.73098,-73.9864,Point,930,596,467,31,1004670031,445.5552,12369.364,http://www1.nyc.gov/assets/lpc/images/content/designations/1764.jpg
Chanin Building,"",Office Building,"Commercial, office building","","",Manhattan,Turtle Bay/East Midtown,122 East 42nd Street,40.75123,-73.97668,Point,1087,753,1296,14,1012960014,776.843,32013.398,http://www1.nyc.gov/assets/lpc/images/content/designations/0993.jpg
Regent Theater,now First Corinthian Baptist Church,Theater,"Commercial, theater","Religious, church","",Manhattan,Harlem,"1910 Adam Clayton Powell, Jr. Boulevard",40.803185,-73.953156,Point,1108,774,1831,33,1018310033,492.61127,14784.569,http://www1.nyc.gov/assets/lpc/images/content/designations/1841.jpg
The Dime Savings Bank of Williamsburgh,"",Bank,"Commercial, bank","","",Brooklyn,Williamsburg,"209 Havemeyer Street, Brooklyn (aka 257 South 5th Street)",40.70965,-73.9585,Point,278,0,2447,36,3024470036,0.0,0.0,http://www1.nyc.gov/assets/lpc/images/content/designations/2598.jpg
"New York Public Library, Seward Park Branch","",Library,"Civic, library","","",Manhattan,Lower East Side,192 East Broadway,40.714462,-73.98855,Point,1267,131,311,31,1003110031,355.28247,6773.532,http://www1.nyc.gov/assets/lpc/images/content/designations/2531.jpg
Majestic Theater,"",Theater,"Commercial, theater","","",Manhattan,Theatre District,245-257 West 44th Street,40.758427,-73.988014,Point,1447,311,1016,5,1010160005,485.96875,13909.339,http://www1.nyc.gov/assets/lpc/images/content/designations/1355.jpg
Willett Street Methodist Episcopal Church,now Bialystoker Synagogue,Church,"Religious, church, Methodist",Synagogue,"",Manhattan,Lower East Side,7-13 Bialystoker Place,40.715557,-73.983315,Point,1524,389,336,17,1003360017,350.8951,7498.6274,http://www1.nyc.gov/assets/lpc/images/content/designations/0181.jpg
Saint George's Syrian Catholic Church,"",Church,"Religious, church, Melkite Greek Catholic","","",Manhattan,"",103 Washington Street,40.70838,-74.014084,Point,1526,391,53,3,1000530003,236.7377,2350.8901,http://www1.nyc.gov/assets/lpc/images/content/designations/2167.jpg
Hamilton Theater,"",Theater,"Commercial, theater","Commercial, movie theater","",Manhattan,Hamilton Heights,3560-3568 Broadway,40.827053,-73.94923,Point,107,1314,2078,0,0,650.6414,22646.988,http://www1.nyc.gov/assets/lpc/images/content/designations/2052.jpg
Emmet Building,"",Office Building,"Commercial, offices","","",Manhattan,"",95 Madison Avenue,40.744335,-73.9851,Point,276,0,858,58,1008580058,0.0,0.0,http://www1.nyc.gov/assets/lpc/images/content/designations/2603.jpg
Knickerbocker Hotel,"",Hotel,"Commercial, hotel",Office Building,"",Manhattan,Theatre District,1462-1470 Broadway,40.755325,-73.986046,Point,1518,383,994,7502,1009947502,759.98206,20327.355,http://www1.nyc.gov/assets/lpc/images/content/designations/1556.jpg
Ridgewood Theater Building,"",Theater,"Commercial, theater","","",Queens,Ridgewood,55-27 Myrtle Avenue,40.700153,-73.90751,Point,145,1352,3451,7,4034510007,184.6801,2051.0518,http://www1.nyc.gov/assets/lpc/images/content/designations/2325.jpg
New York Central Building,now the Helmsley Building,Office Building,"Commercial, office building",Hotel,"",Manhattan,Turtle Bay/East Midtown,230 Park Avenue,40.754402,-73.976105,Point,345,811,1300,1,1013000001,1117.2451,72682.516,http://www1.nyc.gov/assets/lpc/images/content/designations/1297.jpg
Loew's Canal Street Theatre,"",Theater,"Commercial, theater","","",Manhattan,Lower East Side,31 Canal Street,40.714737,-73.990715,Point,563,1030,297,1,1002970001,166.5128,1351.4014,http://www1.nyc.gov/assets/lpc/images/content/designations/2368.jpg
George Cunningham Store,"",Store,"Commercial, retail, store","","",Staten Island,Tottenville,173 Main Street,40.510853,-74.248276,Point,1188,52,8026,5,5080260005,243.94736,1965.4126,http://www1.nyc.gov/assets/lpc/images/content/designations/2229.jpg
The Roosevelt Building,"",Store and Lofts,"Commercial, store and lofts","","",Manhattan,Union Square South,841 Broadway (aka 837 Broadway; 837-847 Broadway; 53-63 East 13th Street),40.734337,-73.9912,Point,287,0,565,15,1005650015,0.0,0.0,http://www1.nyc.gov/assets/lpc/images/content/designations/2620.jpg
Expanded Site of the Church of the Transfiguration,also known as the Little Church around the Corner,Church,"Religious, church, Episcopal","","",Manhattan,Midtown/Midtown South,11-13 East 29th Street,40.74516,-73.98591,Point,1331,195,859,6,1008590006,548.09625,16509.646,http://www1.nyc.gov/assets/lpc/images/content/designations/2133.jpg
16 Fulton Street Building,"",Countinghouse,"Commercial, countinghouse","Commercial, Retail","",Manhattan,South Street Seaport,16 Fulton Street,40.70672,-74.00376,Point,539,1006,74,1,1000740001,85.69295,456.22742,http://www1.nyc.gov/assets/lpc/images/content/designations/0060.jpg
Croquet Shelter,also known as the Grecian Shelter,Park Structure,"Civic, recreational, park","","",Brooklyn,Prospect Park,Prospect Park near Parkside Avenue,40.65319,-73.9676,Point,656,1124,1117,1,3011170001,197.68901,1789.5958,http://www1.nyc.gov/assets/lpc/images/content/designations/0154.jpg
Hotel Theresa,now Theresa Towers,Hotel,"Commercial, hotel","Commercial, office building","",Manhattan,Harlem,"2090 Adam Clayton Powell, Jr. Boulevard",40.808754,-73.94893,Point,984,650,1930,30,1019300030,543.7274,13452.134,http://www1.nyc.gov/assets/lpc/images/content/designations/1843.jpg
Suffolk Title and Guarantee Company Build,"",Office Building,"Commercial, office building","","",Queens,Jamaica,90-04 161st Street,40.705185,-73.79966,Point,1240,104,9757,23,4097570023,414.24664,7843.037,http://www1.nyc.gov/assets/lpc/images/content/designations/2088.jpg
Belasco's Stuyvesant Theater,now the Belasco Theater,Theater,"Commercial, theater",Theater,"",Manhattan,Theatre District,111-121 West 44th Street,40.75666,-73.98379,Point,1357,221,997,23,1009970023,476.04935,13910.358,http://www1.nyc.gov/assets/lpc/images/content/designations/1317.jpg
Hanson Place Baptist Church,now Hanson Place Seventh Day Adventist Church,Church,"Religious, church, Baptist","Religious, church, Seventh Day Adventist","",Brooklyn,Fort Greene,88 Hanson Place,40.685257,-73.97393,Point,413,879,2004,33,3020040033,510.61145,14826.373,http://www1.nyc.gov/assets/lpc/images/content/designations/0664.jpg
Century Building,now Barnes & Noble Bookstore,Office Building,"Commercial, office building",Retail (bookstore),"",Manhattan,Union Square,33 East 17th Street,40.73716,-73.98941,Point,779,444,846,30,1008460030,623.60077,17441.76,http://www1.nyc.gov/assets/lpc/images/content/designations/1539.jpg
Saint Stephen's Church,also known as the Church of Our Lady of the Scapular and Saint Stephen,Church,"Religious, church, Roman Catholic","","",Manhattan,"",151 East 28th Street,40.742596,-73.981255,Point,136,1343,884,30,1008840030,632.00696,15466.964,http://www1.nyc.gov/assets/lpc/images/content/designations/2259.jpg
Fort Columbus,designated as Fort Jay,Fort,"Civic, fort","Civic, recreational, park","",Manhattan,Governors Island,Andes Road,40.691387,-74.01601,Point,731,1199,1,10,1000010010,2358.0688,296892.72,http://www1.nyc.gov/assets/lpc/images/content/designations/0543.jpg
Mutual Reserve Fund Life Association Building,"",Office Building,"Commercial, office building","","",Manhattan,"",305 Broadway,40.715538,-74.0056,Point,943,609,151,32,1001510032,407.08856,9586.385,http://www1.nyc.gov/assets/lpc/images/content/designations/2431.jpg
One Chase Manhattan Plaza,"",Skyscraper,"Commercial, office building","","",Manhattan,"",1 Chase Manhattan Plaza,40.70778,-74.009125,Point,1094,760,44,1,1000440001,1470.6715,107883.17,http://www1.nyc.gov/assets/lpc/images/content/designations/2294.jpg
Germania Fire Insurance Company Bowery Building,"",Office Building,"Commercial, office building","","",Manhattan,"",357 Bowery,40.726757,-73.99132,Point,1322,186,459,7,1004590007,188.71718,1734.7074,http://www1.nyc.gov/assets/lpc/images/content/designations/2354.jpg
Fort Hamilton Casemate Fort,now the  Officers' Club,Fort,"Civic, fort","Civic, military, social club","",Brooklyn,Bay Ridge,Whiting Quadrangle,40.608646,-74.032646,Point,34,1241,6153,1,3061530001,2369.0586,298742.47,http://www1.nyc.gov/assets/lpc/images/content/designations/0953.jpg
Mount Olive Fire Baptized Holiness Church,formerly the Second Reformed Presbyterian Church,Church,"Religious, church, Presbyterian","Religious, church, Fire Baptized","",Manhattan,"",308 West 122nd Street,40.808426,-73.95359,Point,950,616,1948,41,1019480041,305.01065,5056.846,http://www1.nyc.gov/assets/lpc/images/content/designations/2320.jpg
Brooklyn Union Gas Company Building,"",Office Building,"Commercial, office building","","",Brooklyn,"",176 Remsen Street,40.693127,-73.99182,Point,147,1354,255,36,3002550036,409.09567,10454.769,http://www1.nyc.gov/assets/lpc/images/content/designations/2336.jpg
Forward Building,"",Office Building,"Commercial, office building","",political offices,Manhattan,Lower East Side,173-175 East Broadway,40.713875,-73.989525,Point,1446,310,284,7503,1002847503,312.446,5429.6064,http://www1.nyc.gov/assets/lpc/images/content/designations/1419.jpg
Van Schaick Free Reading Room/Huntington Free Library and Reading Room,"",Library,"Institutional, library","","",The Bronx,"Van Nest, Morris Park, Westchester Square",9 Westchester Square,40.83994,-73.84372,Point,94,1301,3981,2,2039810002,236.69606,3150.6025,http://www1.nyc.gov/assets/lpc/images/content/designations/1886.jpg
Public School 73,"",School,"Civic, school","","",Brooklyn,"Bedford-Stuyvesant, East New York",241 MacDougal Street,40.68069,-73.91071,Point,422,888,1528,1,3015280001,949.18506,54760.97,http://www1.nyc.gov/assets/lpc/images/content/designations/1289.jpg
Castle Clinton,now Castle Clinton National Monument,Fort,"Civic, fort","Civic, museum",theater; immigration station; aquarium,Manhattan,Battery Park,Battery Park,40.70346,-74.01679,Point,532,999,3,1,1000030001,639.0317,29787.27,http://www1.nyc.gov/assets/lpc/images/content/designations/0029.jpg
12 Fulton Street Building,"",Countinghouse,"Commercial, countinghouse","Commercial, Retail","",Manhattan,South Street Seaport,12 Fulton Street,40.706573,-74.00373,Point,541,1008,74,1,1000740001,178.52405,1433.7234,http://www1.nyc.gov/assets/lpc/images/content/designations/0062.jpg
Pierpont Morgan Library and Annex,now the Morgan Library & Museum,Library,"Civic, library",Museum,"",Manhattan,Murray Hill/Kips Bay,225 Madison Avenue,40.749027,-73.98135,Point,1459,323,866,25,1008660025,951.8376,28554.291,http://www1.nyc.gov/assets/lpc/images/content/designations/0239.jpg
Trinity Building,"",Office Building,"Commercial, office building","","",Manhattan,Financial District,111 Broadway,40.70872,-74.01164,Point,1471,336,49,2,1000490002,695.87036,20726.342,http://www1.nyc.gov/assets/lpc/images/content/designations/1557.jpg
Martha Washington Hotel,"",Hotel,"Commercial, hotel","","",Manhattan,"",27 East 29th Street,40.744713,-73.984474,Point,592,1059,859,26,1008590026,569.30725,15871.018,http://www1.nyc.gov/assets/lpc/images/content/designations/2428.jpg
Flatbush Dutch Reformed Church,"",Church,"Religious, church, Dutch Reformed","","",Brooklyn,Flatbush,890 Flatbush Avenue,40.650135,-73.95899,Point,694,1162,5102,1,3051020001,312.62167,4928.712,http://www1.nyc.gov/assets/lpc/images/content/designations/0170.jpg
Saint Cecilia's Church,"",Church,"Religious, church, Roman Catholic","","",Manhattan,East Harlem South,120 East 106th Street,40.792274,-73.9471,Point,842,507,1633,61,1016330061,506.63055,11779.054,http://www1.nyc.gov/assets/lpc/images/content/designations/0933.jpg
Manhattan Company Building,now the Trump Building,Office Building,"Commercial, office building","","",Manhattan,Financial District,40 Wall Street,40.707024,-74.009735,Point,1467,332,43,2,1000430002,851.053,35085.91,http://www1.nyc.gov/assets/lpc/images/content/designations/1936.jpg
53rd (now 101st) Precinct Police Station,"",Police Station,"Civic, police station","","",Queens,Far Rockaway,16-12 Mott Avenue,40.602894,-73.750015,Point,282,0,15557,4,4155570004,0.0,0.0,http://www1.nyc.gov/assets/lpc/images/content/designations/2610.jpg
I. Miller Building,"",Store,"Commercial, retail, store","","",Manhattan,Theatre District,1522-1554 Broadway,40.7586,-73.984726,Point,747,412,999,1,1009990001,249.78589,3467.806,http://www1.nyc.gov/assets/lpc/images/content/designations/2023.jpg
Beaux-Arts Institute of Design,"",School,"Institutional, school","","",Manhattan,Turtle Bay/East Midtown,304 East 44th Street,40.750732,-73.97085,Point,798,463,1336,47,1013360047,332.54938,5797.116,http://www1.nyc.gov/assets/lpc/images/content/designations/1667.jpg
"New York Public Library, George Bruce Branch","",Library,"Civic, library","","",Manhattan,"",518 West 125th Street,40.813778,-73.957054,Point,996,662,1980,22,1019800022,351.64938,6270.156,http://www1.nyc.gov/assets/lpc/images/content/designations/2304.jpg
Germania Bank Building,"",Bank,"Commercial, bank",Bank,"",Manhattan,Bowery,190 Bowery,40.721203,-73.99407,Point,1270,134,492,38,1004920038,313.95016,5426.6763,http://www1.nyc.gov/assets/lpc/images/content/designations/2162.jpg
Hotel Mansfield,now the Mansfield Hotel,Apartment Hotel,"Commercial, hotel","","",Manhattan,"",12 West 44th Street,40.75503,-73.98111,Point,1380,244,1259,47,1012590047,309.37292,5280.4814,http://www1.nyc.gov/assets/lpc/images/content/designations/2517.jpg
Betsy Head Play Center,"",Pool,"Civic, recreation, pool","","",Brooklyn,Brownsville,Thomas Boyland Street between Livonia and Dumont Avenues,40.662827,-73.91251,Point,132,1339,3570,1,3035700001,1633.8724,154009.78,http://www1.nyc.gov/assets/lpc/images/content/designations/2240.jpg
"New York Public Library, Yorkville Branch","",Library,"Civic, library","","",Manhattan,Yorkville,222 East 79th Street,40.773605,-73.95641,Point,809,474,1433,37,1014330037,287.9807,4124.526,http://www1.nyc.gov/assets/lpc/images/content/designations/0425.jpg
Fire Engine Company No. 53,"",Fire Station,"Civic, fire station","","",Manhattan,"",175 East 104th Street,40.79078,-73.946236,Point,985,651,1632,29,1016320029,259.0691,2605.851,http://www1.nyc.gov/assets/lpc/images/content/designations/2284.jpg
Saint Aloysius Roman Catholic Church,"",Church,"Religious, church, Roman Catholic","","",Manhattan,Central Harlem North/Polo Grounds,209-217 West 132nd Street,40.81388,-73.945656,Point,1085,751,1938,124,1019380124,410.71426,9587.776,http://www1.nyc.gov/assets/lpc/images/content/designations/2164.jpg
West End Collegiate Church and Collegiate School,"",Church,"Religious, church","","Institutional, Private School",Manhattan,Upper West Side,West End Avenue at West 77th Street,40.783043,-73.98156,Point,1262,126,1169,1,1011690001,570.7484,19108.99,http://www1.nyc.gov/assets/lpc/images/content/designations/0287.jpg
Schermerhorn Building,also known as the 376-380 Lafayette Street Building,Store and Lofts,"Commercial, store and lofts","","",Manhattan,East Village,376-380 Lafayette Street,40.727615,-73.99378,Point,1428,292,531,7504,1005317504,387.15558,9321.557,http://www1.nyc.gov/assets/lpc/images/content/designations/0193.jpg
Reformed Dutch Church of Newtown and Fellowship Hall,"",Church,"Religious, church, Dutch Reformed","","",Queens,Elmhurst,85-15 Broadway,40.739193,-73.87743,Point,687,1155,1836,1,4018360001,563.7886,12687.95,http://www1.nyc.gov/assets/lpc/images/content/designations/0138.jpg
Japan Society Headquarters,"",Cultural Center,"Institutional, cultural center","","",Manhattan,Turtle Bay,333 East 47th Street,40.752563,-73.96826,Point,850,515,1340,16,1013400016,422.08316,11114.589,http://www1.nyc.gov/assets/lpc/images/content/designations/2420.jpg
Theater Masque,now the Golden Theater,Theater,"Commercial, theater",Theater,"",Manhattan,Theatre District,252-256 West 45th Street,40.758728,-73.987976,Point,1475,340,1016,58,1010160058,345.50174,6196.3354,http://www1.nyc.gov/assets/lpc/images/content/designations/1335.jpg
Pratt Institute Library,"",Library,"Institutional, library","","",Brooklyn,Clinton Hill,224-228 Ryerson Street,40.69086,-73.96501,Point,103,1310,1919,1,3019190001,454.97897,9650.097,http://www1.nyc.gov/assets/lpc/images/content/designations/2011.jpg
Metropolitan Museum of Art,"",Museum,"Institutional, museum","","",Manhattan,Central Park,Fifth Avenue and East 82nd Street,40.779434,-73.96343,Point,724,1192,1111,1,1011110001,3903.1936,487372.47,http://www1.nyc.gov/assets/lpc/images/content/designations/0410.jpg
Fire Engine Company No. 67,"",Fire Station,"Civic, fire station","","",Manhattan,Washington Heights,514 West 170th Street,40.841286,-73.93718,Point,1109,775,2126,35,1021260035,241.72896,2397.8232,http://www1.nyc.gov/assets/lpc/images/content/designations/2050.jpg
"Conservatory, New York Botanical Garden",now the Enid A. Haupt Conservatory,Botanical Garden,"Institutional, recreational, botanical garden","","",The Bronx,Bronx,"New York Botanical Garden, Kazimiroff Boulevard",40.863873,-73.88209,Point,621,1089,3272,1,2032720001,2409.6758,42887.832,http://www1.nyc.gov/assets/lpc/images/content/designations/0481.jpg
Kimlau War Memorial,"",Memorial,"Civic, memorial","","",Manhattan,Bowery,Chatham Square and East Broadway,40.713493,-73.99813,Point,319,0,117,100,1001170100,0.0,0.0,http://www1.nyc.gov/assets/lpc/images/content/designations/2653.jpg
Hamilton Fish Park Play Center,"",Park,"Civic, recreational, park","","",Manhattan,Lower East Side,130 Pitt Street,40.71999,-73.98146,Point,571,1038,340,1,1003400001,396.67935,5787.93,http://www1.nyc.gov/assets/lpc/images/content/designations/1264.jpg
Booth Theater,"",Theater,"Commercial, theater",Theater,"",Manhattan,Theatre District,222-232 West 45th Street,40.75838,-73.98709,Point,63,1270,1016,15,1010160015,403.53345,10041.458,http://www1.nyc.gov/assets/lpc/images/content/designations/1321.jpg
Sears Roebuck & Company Department Store,"",Department Store,"Commercial, retail, store","","",Brooklyn,"",2227-2323 Beverly Road,40.645153,-73.955414,Point,593,1060,5133,14,3051330014,959.12427,47793.42,http://www1.nyc.gov/assets/lpc/images/content/designations/2469.jpg
Green-Wood Cemetery Gate,"",Gatehouse,"Institutional, cemetery, gatehouse","","",Brooklyn,Sunset Park,5th Avenue at 25th Street,40.658104,-73.99472,Point,660,1128,902,1,3009020001,477.16373,3799.7834,http://www1.nyc.gov/assets/lpc/images/content/designations/0149.jpg
Jamaica Chamber of Commerce Building,"",Office Building,"Commercial, office building","","",Queens,Jamaica,89-31 161st Street,40.705612,-73.79917,Point,1238,102,9760,27,4097600027,380.35577,8575.599,http://www1.nyc.gov/assets/lpc/images/content/designations/2386.jpg
Hotel Gerard,now the Gerard Apartments,Hotel,"Commercial, hotel",Apartments,"",Manhattan,Theatre District,123 West 44th Street,40.756817,-73.98416,Point,1337,201,997,19,1009970019,406.17435,10308.68,http://www1.nyc.gov/assets/lpc/images/content/designations/1242.jpg
New York Times Building,originally the Times Annex,Office Building,"Commercial, office building",OB,"",Manhattan,Midtown/Midtown South,217-247 West 43rd Street,40.75745,-73.98765,Point,115,1322,1015,7501,1010157501,822.50085,29470.785,http://www1.nyc.gov/assets/lpc/images/content/designations/2091.jpg
"Young Men's Christian Association Building, Harlem Branch (now) Jackie Robinson YMCA Youth Center","",Institution,Institutional,"","",Manhattan,Harlem,181 West 135th Street,40.815235,-73.94278,Point,193,0,1920,7,1019200007,0.0,0.0,http://www1.nyc.gov/assets/lpc/images/content/designations/1848.jpg
First Free Congregational Church,"later the Bridge Street African Wesleyan Methodist Episcopal Church, now part of Polytechnic Institute of New York University, Wunsch Student Center",Church,"Religious, church, congregational","Religious, church, African Methodist Episcopal","",Brooklyn,"DUMBO, Vinegar Hill, Downtown Brooklyn, Boerum Hill",311 Bridge Street,40.694336,-73.984886,Point,381,847,2047,7,3020470007,357.99268,7782.4946,http://www1.nyc.gov/assets/lpc/images/content/designations/2004.jpg
"Brooklyn Public Library, Williamsburgh Branch","",Library,"Civic, library","","",Brooklyn,Williamsburg,240 Division Avenue,40.706955,-73.95758,Point,458,924,2189,1,3021890001,629.6266,19510.182,http://www1.nyc.gov/assets/lpc/images/content/designations/1995.jpg
Eglise de Notre Dame,"",Church,"Religious, church, Roman Catholic","","",Manhattan,Morningside Heights,Morningside Drive at West 114th Street,40.80509,-73.9604,Point,802,467,1867,20,1018670020,565.3631,17278.264,http://www1.nyc.gov/assets/lpc/images/content/designations/0301.jpg
Our Lady of Lourdes Roman Catholic Church,"",Church,"Religious, church, Roman Catholic","","",Manhattan,Hamilton Heights,467 West 142nd Street,40.823257,-73.94826,Point,987,653,2058,33,1020580033,358.29926,7831.0225,http://www1.nyc.gov/assets/lpc/images/content/designations/0892.jpg
"Fire Engine Company 258, Hook and Ladder Company 115","",Fire Station,"Civic, fire station","","",Queens,Long Island City,10-40 47th Avenue,40.744995,-73.95171,Point,1204,68,46,34,4000460034,308.71378,5313.8765,http://www1.nyc.gov/assets/lpc/images/content/designations/2200.jpg
Actors Studio,originally the Seventh Associate Presbyterian Church,Church,"Religious, church, Presbyterian",Drama school,"",Manhattan,Theatre District,432 West 44th Street,40.760178,-73.993324,Point,1401,265,1053,49,1010530049,299.94482,4952.8203,http://www1.nyc.gov/assets/lpc/images/content/designations/1814.jpg
Public School 34,also known as the Oliver H. Perry School,School,"Civic, school","","",Brooklyn,Greenpoint,131 Norman Avenue,40.726387,-73.94976,Point,465,931,2622,28,3026220028,644.33575,24077.97,http://www1.nyc.gov/assets/lpc/images/content/designations/1288.jpg
Shearith Israel Synagogue,(the Spanish and Portuguese Synagogue),Synagogue,"Religious, synagogue, Sephardic","","",Manhattan,Lincoln Square,99 Central Park West,40.774887,-73.97734,Point,586,1053,1122,36,1011220036,379.03882,8525.557,http://www1.nyc.gov/assets/lpc/images/content/designations/0832.jpg
Midtown Theater,later the Metro Theater,Theater,"Commercial, theater","","",Manhattan,Theatre District,2624-2626 Broadway,40.79669,-73.9698,Point,832,497,1871,22,1018710022,316.68335,5519.4756,http://www1.nyc.gov/assets/lpc/images/content/designations/1710.jpg
Staten Island Borough Hall,"",City Hall,"Civic, city hall","","",Staten Island,"Stapleton, Rosebank",2-10 Richmond Terrace,40.64241,-74.07596,Point,1144,8,7,1,5000070001,889.1849,54479.516,http://www1.nyc.gov/assets/lpc/images/content/designations/1207.jpg
Standard Oil Building,"",Office Building,"Commercial, office building","","",Manhattan,Financial District,26 Broadway,40.705437,-74.0129,Point,1258,122,22,13,1000220013,872.35406,48769.188,http://www1.nyc.gov/assets/lpc/images/content/designations/1930.jpg
Henry Miller's Theater,"",Theater,"Commercial, theater",Theater,Movie theater; dance club,Manhattan,Theatre District,124-130 West 43rd Street,40.75584,-73.98496,Point,65,1272,995,33,1009950033,371.62054,8569.966,http://www1.nyc.gov/assets/lpc/images/content/designations/1357.jpg
"Paul J. Rainey Memorial Gates, New York Zoological Park","",Zoo,"Institutional, recreational, zoo","","",The Bronx,Bronx,"New York Zoological Park, park entrance at East Fordham Road",40.855,-73.87747,Point,622,1090,3120,20,2031200020,138.62772,571.3902,http://www1.nyc.gov/assets/lpc/images/content/designations/0108.jpg
Chapel of the Good Shepherd,now Good Shepherd Community Ecumenical Center,Church,"Religious, church, Episcopal","","",Manhattan,Roosevelt Island,"Roosevelt Island, located approximately opposite East 68th Street",40.76185,-73.95023,Point,674,1142,1373,40,1013730040,359.0586,5235.6465,http://www1.nyc.gov/assets/lpc/images/content/designations/0907.jpg
New York City Marble Cemetery,"",Cemetery,Cemetery,Cemetery,"",Manhattan,East Village,52-74 East 2nd Street,40.72461,-73.988914,Point,1309,173,444,49,1004440049,975.78973,39630.64,http://www1.nyc.gov/assets/lpc/images/content/designations/0464.jpg
Royale Theater,now the Bernard B. Jacobs Theater,Theater,"Commercial, theater",Theater,"",Manhattan,Theatre District,242-250 West 45th Street,40.75864,-73.98773,Point,1378,242,1016,55,1010160055,389.7937,9787.234,http://www1.nyc.gov/assets/lpc/images/content/designations/1372.jpg
Woolworth Building,"",Office Building,"Commercial, office building","","",Manhattan,Civic Center,233 Broadway,40.712467,-74.00833,Point,1439,303,123,7501,1001237501,708.3983,30963.666,http://www1.nyc.gov/assets/lpc/images/content/designations/1273.jpg
National Title Guaranty Company,"",Bank,"Commercial, bank","","",Brooklyn,Brooklyn Heights,185 Montague Street,40.694347,-73.99182,Point,202,0,244,13,3002440013,0.0,0.0,http://www1.nyc.gov/assets/lpc/images/content/designations/2587.jpg
Westfield Township School No. 5,now Public School 1 Annex,School,"Civic, school","","",Staten Island,Tottenville,Yetman Avenue and Academy Avenue,40.508522,-74.243645,Point,670,1138,7898,1,5078980001,609.8517,22423.914,http://www1.nyc.gov/assets/lpc/images/content/designations/1868.jpg
"New York Public Library, Hamilton Grange Branch","",Library,"Civic, library","","",Manhattan,Hamilton Heights,503 West 145th Street,40.825718,-73.948006,Point,884,550,2077,26,1020770026,327.81992,6191.903,http://www1.nyc.gov/assets/lpc/images/content/designations/0599.jpg
"New York Public Library, Port Richmond Branch","",Library,"Civic, library","","",Staten Island,Port Richmond,75 Bennett Street,40.637573,-74.131134,Point,1179,43,1007,26,5010070026,418.03726,10921.876,http://www1.nyc.gov/assets/lpc/images/content/designations/1997.jpg
"Fort Hamilton Parkway Entrance and Green-Wood Cemetery Chapel, Green-Wood Cemetery","",Entrance Structures & Chapel,"Institutional, cemetery, religious","","",Brooklyn,Sunset Park,500 25th Street,40.656357,-73.99531,Point,170,1377,902,1,3009020001,0.0,0.0,http://www1.nyc.gov/assets/lpc/images/content/designations/1233.jpg
"New York Free Circulating Library, Bloomingdale Branch",now Ukrainian Academy of Arts and Sciences,Library,"Civic, library","","",Manhattan,Upper West Side,206 West 100th Street,40.796722,-73.96915,Point,863,528,1871,138,1018710138,196.94562,2376.1135,http://www1.nyc.gov/assets/lpc/images/content/designations/1616.jpg
Grace Church,"",Church,"Religious, church, Episcopal","Church, Episcopal","",Manhattan,West Village,800 Broadway,40.731934,-73.99091,Point,580,1047,557,1,1005570001,933.8932,37727.402,http://www1.nyc.gov/assets/lpc/images/content/designations/0203.jpg
14 Fulton Street Building,"",Countinghouse,"Commercial, countinghouse","Commercial, Retail","",Manhattan,South Street Seaport,14 Fulton Street,40.70666,-74.003716,Point,540,1007,74,1,1000740001,92.71702,530.6956,http://www1.nyc.gov/assets/lpc/images/content/designations/0061.jpg
New York Marble Cemetery,"",Cemetery,Cemetery,Cemetery,"",Manhattan,East Village,"interior of the block bounded by East 2nd and East 3rd Streets, Second Avenue, and the Bowery",40.72562,-73.990944,Point,1353,217,458,30,1004580030,873.5252,21833.77,http://www1.nyc.gov/assets/lpc/images/content/designations/0466.jpg
361 Broadway Building,also known as the James S. White Building,Store and Lofts,"Commercial, store and lofts","","",Manhattan,Civic Center,361 Broadway,40.717514,-74.004,Point,1445,309,174,31,1001740031,456.1697,9747.416,http://www1.nyc.gov/assets/lpc/images/content/designations/1225.jpg
Summit Hotel,now Doubletree Metropolitan Hotel,Hotel,"Commercial, hotel","","",Manhattan,Turtle Bay/East Midtown,569 Lexington Avenue,40.75668,-73.97142,Point,1067,733,1305,7501,1013057501,854.2937,32711.836,http://www1.nyc.gov/assets/lpc/images/content/designations/2176.jpg
American Telephone & Telegraph Company Building,"",Office Building,"Commercial, office building",Office building,"",Manhattan,Financial District,195 Broadway,40.71086,-74.009766,Point,1383,247,80,1,1000800001,871.61127,38137.723,http://www1.nyc.gov/assets/lpc/images/content/designations/2194.jpg
"Interborough Rapid Transit System, Manhattan Valley Viaduct","",Bridge,"Infrastructure, bridge",Subway viaduct,"",Manhattan,"Manhattanville, Morningside Heights","Broadway, from West 122nd to West 135th Streets",40.815952,-73.95811,Point,43,1250,0,0,0,6819.5156,150160.45,http://www1.nyc.gov/assets/lpc/images/content/designations/1094.jpg
Saint Nicholas Russian Orthodox Cathedral,"",Church,"Religious, church, Russian Orthodox","","",Manhattan,East Harlem South,15 East 97th Street,40.78833,-73.95408,Point,893,559,1603,11,1016030011,356.84464,7748.9277,http://www1.nyc.gov/assets/lpc/images/content/designations/0834.jpg
Home Life Insurance Company Building,inforporating the Postal Telegraph Building,Office Building,"Commercial, office building","",Office bldg,Manhattan,"Civic Center, Tribeca",256-257 and 253 Broadway,40.713444,-74.00741,Point,1296,160,134,7501,1001347501,589.00555,20026.615,http://www1.nyc.gov/assets/lpc/images/content/designations/1751.jpg
"Cornelius Baker Hall of Philosophy, New York University",now Bronx Community College,School,"Institutional, school, university","","",The Bronx,"University Heights, Morris Heights",Hall of Fame Terrace at Sedgwick Avenue,40.859055,-73.91353,Point,554,1021,3222,62,2032220062,301.8467,5365.8022,http://www1.nyc.gov/assets/lpc/images/content/designations/0115.jpg
Manhattan Bridge Arch and Colonnade,"",Monument,"Civic, monument",Bridge enterance,"",Manhattan,Chinatown,Manhattan Bridge Plaza at Canal Street,40.715374,-73.995155,Point,573,1040,289,0,0,687.5827,4519.678,http://www1.nyc.gov/assets/lpc/images/content/designations/0899.jpg
Statue of Liberty,"",Monument,"Civic, monument","","",Manhattan,Liberty Island,Liberty Island,40.689243,-74.04454,Point,31,1238,1,101,1000010101,1196.3356,60488.73,http://www1.nyc.gov/assets/lpc/images/content/designations/0931.jpg
First Reformed Church of Jamaica,Designated,"",Church,"Religious, church, Dutch Reformed","",1,Individual Landmark,153-10 Jamaica Avenue,40.702457,-73.801735,Point,98,1305,10097,10,4100970010,,678.89886,http://s-media.nyc.gov/agencies/lpc/lp/1939.pdf
8 Fulton Street Building,"",Countinghouse,"Commercial, countinghouse","Commercial, Retail","",Manhattan,South Street Seaport,8 Fulton Street,40.706486,-74.00364,Point,542,1009,74,1,1000740001,168.74849,1285.0715,http://www1.nyc.gov/assets/lpc/images/content/designations/0064.jpg
Baumann Brothers Furniture and Carpets Store,"",Store and lofts,"Commercial, store and lofts","","",Manhattan,"",22-26 East 14th Street,40.735126,-73.99267,Point,787,452,571,7502,1005717502,586.19904,16272.521,http://www1.nyc.gov/assets/lpc/images/content/designations/2123.jpg
Park East Synagogue,Congregation Zichron Ephraim,Synagogue,"Religious, synagogue, Reformed","","",Manhattan,Upper East Side/Carnegie Hill,163 East 67th Street,40.767,-73.96338,Point,789,454,1402,30,1014020030,347.3797,7310.5317,http://www1.nyc.gov/assets/lpc/images/content/designations/1056.jpg
Empire Building,"",Office Building,"Commercial, office building",Apartments,"",Manhattan,Financial District,71 Broadway,40.7075,-74.01251,Point,1426,290,21,6,1000210006,592.5412,15343.151,http://www1.nyc.gov/assets/lpc/images/content/designations/1933.jpg
Saint Bartholomew's Church,"",Church,"Religious, church, Episcopal","","",Brooklyn,Crown Heights North,1227 Pacific Street,40.67816,-73.952034,Point,406,872,1200,16,3012000016,655.89386,24583.34,http://www1.nyc.gov/assets/lpc/images/content/designations/0820.jpg
Eltingville Store,"now Print Shop, designated as Grocery Store",Store,"Commercial, retail, store","Institutional, museum","",Staten Island,Eltingville,Court Place,40.57147,-74.14559,Point,644,1112,4441,1,5044410001,57.315598,203.72214,http://www1.nyc.gov/assets/lpc/images/content/designations/0397-J.jpg
Fort Totten Officer's Club,"",Club,"Institutional, club","Institutional, museum","",Queens,Fort Totten,208 Totten Avenue,40.792164,-73.77777,Point,20,1227,5917,1,4059170001,425.00662,6163.7656,http://www1.nyc.gov/assets/lpc/images/content/designations/0827.jpg
191 Front Street Building,"",Countinghouse,"Commercial, countinghouse","Commercial, Retail","",Manhattan,South Street Seaport,191 Front Street,40.70661,-74.00399,Point,535,1002,74,1,1000740001,198.1405,1570.3767,http://www1.nyc.gov/assets/lpc/images/content/designations/0056.jpg
Lambs Club,"",Club,"Institutional, private club","Church, other","",Manhattan,Theatre District,128 West 44th Street,40.756504,-73.98459,Point,880,546,996,46,1009960046,357.399,7833.798,http://www1.nyc.gov/assets/lpc/images/content/designations/0859.jpg
Frederick Douglass Memorial Park,"",Park,Cemetery,"","",Staten Island,Oakwood Heights,3201 Amboy Road,40.56371,-74.134926,Point,335,0,4475,300,5044750300,0.0,0.0,http://www1.nyc.gov/assets/lpc/images/content/designations/2682.jpg
Colored School No. 3,later Public School 69,School,"Civic, school","","",Brooklyn,East Williamsburg,270 Union Avenue,40.70859,-73.9504,Point,464,930,3031,5,3030310005,356.3529,7714.932,http://www1.nyc.gov/assets/lpc/images/content/designations/1977.jpg
Poppenhusen Institute,"",School,"Institutional, school, vocational school","","",Queens,College Point,114-04 14th Road,40.7843,-73.85281,Point,1219,83,4067,1,4040670001,706.0176,30451.26,http://www1.nyc.gov/assets/lpc/images/content/designations/0662.jpg
"Gould Memorial Library, New York University",now Bronx Community College,Library,"Institutional, school, university, library","","",The Bronx,"University Heights, Morris Heights",Hall of Fame Terrace at Sedgwick Avenue,40.85873,-73.91391,Point,553,1020,3222,62,2032220062,539.6029,13372.178,http://www1.nyc.gov/assets/lpc/images/content/designations/0112.jpg
Fort Washington Presbyterian Church,"",Church,"Religious, church, Presbyterian","","",Manhattan,Washington Heights,21 Wadsworth Avenue,40.845356,-73.9379,Point,609,1077,2143,38,1021430038,420.51367,8614.398,http://www1.nyc.gov/assets/lpc/images/content/designations/2337.jpg
Richard Cornell Graveyard,"",Cemetery,Cemetery,"","",Queens,Far Rockaway,adjacent to 1463 Gateway Boulevard,40.60041,-73.74994,Point,1247,111,15574,10,4155740010,305.35684,5718.5835,http://www1.nyc.gov/assets/lpc/images/content/designations/0741.jpg
New York School of Applied Design for Women,"later Pratt-New York Phoenix School of Design, now Touro College",School,"Institutional, school","","",Manhattan,Murray Hill/Kips Bay,160 Lexington Avenue,40.744102,-73.98172,Point,1283,147,886,21,1008860021,256.38583,3635.194,http://www1.nyc.gov/assets/lpc/images/content/designations/0949.jpg
